state,city,zip
"Johor, MY","Nusajaya, JHR","79000, JHR"
"Johor, MY","Nusajaya, JHR","79100, JHR"
"Johor, MY","Nusajaya, JHR","79150, JHR"
"Johor, MY","Nusajaya, JHR","79200, JHR"
"Johor, MY","Nusajaya, JHR","79250, JHR"
"Johor, MY","Nusajaya, JHR","79502, JHR"
"Johor, MY","Nusajaya, JHR","79503, JHR"
"Johor, MY","Nusajaya, JHR","79504, JHR"
"Johor, MY","Nusajaya, JHR","79505, JHR"
"Johor, MY","Nusajaya, JHR","79511, JHR"
"Johor, MY","Nusajaya, JHR","79513, JHR"
"Johor, MY","Nusajaya, JHR","79514, JHR"
"Johor, MY","Nusajaya, JHR","79517, JHR"
"Johor, MY","Nusajaya, JHR","79518, JHR"
"Johor, MY","Nusajaya, JHR","79520, JHR"
"Johor, MY","Nusajaya, JHR","79521, JHR"
"Johor, MY","Nusajaya, JHR","79523, JHR"
"Johor, MY","Nusajaya, JHR","79532, JHR"
"Johor, MY","Nusajaya, JHR","79538, JHR"
"Johor, MY","Nusajaya, JHR","79540, JHR"
"Johor, MY","Nusajaya, JHR","79546, JHR"
"Johor, MY","Nusajaya, JHR","79548, JHR"
"Johor, MY","Nusajaya, JHR","79550, JHR"
"Johor, MY","Nusajaya, JHR","79552, JHR"
"Johor, MY","Nusajaya, JHR","79555, JHR"
"Johor, MY","Nusajaya, JHR","79570, JHR"
"Johor, MY","Nusajaya, JHR","79575, JHR"
"Johor, MY","Nusajaya, JHR","79576, JHR"
"Johor, MY","Nusajaya, JHR","79592, JHR"
"Johor, MY","Nusajaya, JHR","79601, JHR"
"Johor, MY","Nusajaya, JHR","79603, JHR"
"Johor, MY","Nusajaya, JHR","79605, JHR"
"Johor, MY","Nusajaya, JHR","79606, JHR"
"Johor, MY","Nusajaya, JHR","79612, JHR"
"Johor, MY","Nusajaya, JHR","79626, JHR"
"Johor, MY","Nusajaya, JHR","79630, JHR"
"Johor, MY","Nusajaya, JHR","79632, JHR"
"Johor, MY","Nusajaya, JHR","79646, JHR"
"Johor, MY","Nusajaya, JHR","79658, JHR"
"Johor, MY","Nusajaya, JHR","79660, JHR"
"Johor, MY","Nusajaya, JHR","79680, JHR"
"Johor, MY","Nusajaya, JHR","79681, JHR"
"Johor, MY","Nusajaya, JHR","79683, JHR"
"Johor, MY","Johor Bahru, JHR","80000, JHR"
"Johor, MY","Johor Bahru, JHR","80050, JHR"
"Johor, MY","Johor Bahru, JHR","80100, JHR"
"Johor, MY","Johor Bahru, JHR","80150, JHR"
"Johor, MY","Johor Bahru, JHR","80200, JHR"
"Johor, MY","Johor Bahru, JHR","80250, JHR"
"Johor, MY","Johor Bahru, JHR","80300, JHR"
"Johor, MY","Johor Bahru, JHR","80350, JHR"
"Johor, MY","Johor Bahru, JHR","80400, JHR"
"Johor, MY","Johor Bahru, JHR","80500, JHR"
"Johor, MY","Johor Bahru, JHR","80506, JHR"
"Johor, MY","Johor Bahru, JHR","80508, JHR"
"Johor, MY","Johor Bahru, JHR","80516, JHR"
"Johor, MY","Johor Bahru, JHR","80519, JHR"
"Johor, MY","Johor Bahru, JHR","80534, JHR"
"Johor, MY","Johor Bahru, JHR","80536, JHR"
"Johor, MY","Johor Bahru, JHR","80542, JHR"
"Johor, MY","Johor Bahru, JHR","80546, JHR"
"Johor, MY","Johor Bahru, JHR","80558, JHR"
"Johor, MY","Johor Bahru, JHR","80560, JHR"
"Johor, MY","Johor Bahru, JHR","80564, JHR"
"Johor, MY","Johor Bahru, JHR","80568, JHR"
"Johor, MY","Johor Bahru, JHR","80578, JHR"
"Johor, MY","Johor Bahru, JHR","80584, JHR"
"Johor, MY","Johor Bahru, JHR","80586, JHR"
"Johor, MY","Johor Bahru, JHR","80590, JHR"
"Johor, MY","Johor Bahru, JHR","80592, JHR"
"Johor, MY","Johor Bahru, JHR","80594, JHR"
"Johor, MY","Johor Bahru, JHR","80596, JHR"
"Johor, MY","Johor Bahru, JHR","80600, JHR"
"Johor, MY","Johor Bahru, JHR","80604, JHR"
"Johor, MY","Johor Bahru, JHR","80608, JHR"
"Johor, MY","Johor Bahru, JHR","80620, JHR"
"Johor, MY","Johor Bahru, JHR","80622, JHR"
"Johor, MY","Johor Bahru, JHR","80628, JHR"
"Johor, MY","Johor Bahru, JHR","80644, JHR"
"Johor, MY","Johor Bahru, JHR","80648, JHR"
"Johor, MY","Johor Bahru, JHR","80662, JHR"
"Johor, MY","Johor Bahru, JHR","80664, JHR"
"Johor, MY","Johor Bahru, JHR","80668, JHR"
"Johor, MY","Johor Bahru, JHR","80670, JHR"
"Johor, MY","Johor Bahru, JHR","80672, JHR"
"Johor, MY","Johor Bahru, JHR","80673, JHR"
"Johor, MY","Johor Bahru, JHR","80676, JHR"
"Johor, MY","Johor Bahru, JHR","80700, JHR"
"Johor, MY","Johor Bahru, JHR","80710, JHR"
"Johor, MY","Johor Bahru, JHR","80720, JHR"
"Johor, MY","Johor Bahru, JHR","80730, JHR"
"Johor, MY","Johor Bahru, JHR","80900, JHR"
"Johor, MY","Johor Bahru, JHR","80902, JHR"
"Johor, MY","Johor Bahru, JHR","80904, JHR"
"Johor, MY","Johor Bahru, JHR","80906, JHR"
"Johor, MY","Johor Bahru, JHR","80908, JHR"
"Johor, MY","Johor Bahru, JHR","80988, JHR"
"Johor, MY","Johor Bahru, JHR","80990, JHR"
"Johor, MY","Johor Bahru, JHR","81000, JHR"
"Johor, MY","Kulai, JHR","81000, JHR"
"Johor, MY","Johor Bahru, JHR","81100, JHR"
"Johor, MY","Johor Bahru, JHR","81200, JHR"
"Johor, MY","Johor Bahru, JHR","81300, JHR"
"Johor, MY","Johor Bahru, JHR","81310, JHR"
"Johor, MY","Senai, JHR","81400, JHR"
"Johor, MY","Bandar Tenggara, JHR","81440, JHR"
"Johor, MY","Gugusan Taib Andak, JHR","81450, JHR"
"Johor, MY","Sungai Mati, JHR","81500, JHR"
"Johor, MY","Pekan Nenas, JHR","81500, JHR"
"Johor, MY","Gelang Patah, JHR","81550, JHR"
"Johor, MY","Pengerang, JHR","81600, JHR"
"Johor, MY","Pasir Gudang, JHR","81700, JHR"
"Johor, MY","Masai, JHR","81750, JHR"
"Johor, MY","masai, JHR","81750, JHR"
"Johor, MY","Ulu Tiram, JHR","81800, JHR"
"Johor, MY","Layang-Layang, JHR","81850, JHR"
"Johor, MY","Kota Tinggi, JHR","81900, JHR"
"Johor, MY","Ayer Tawar 5, JHR","81920, JHR"
"Johor, MY","Ayer Tawar 2, JHR","81920, JHR"
"Johor, MY","Ayer Tawar 3, JHR","81920, JHR"
"Johor, MY","Ayer Tawar 4, JHR","81920, JHR"
"Johor, MY","Bandar Penawar, JHR","81930, JHR"
"Johor, MY","Pontian, JHR","82000, JHR"
"Johor, MY","Ayer Baloi, JHR","82100, JHR"
"Johor, MY","Benut, JHR","82200, JHR"
"Johor, MY","Kukup, JHR","82300, JHR"
"Johor, MY","Batu Pahat, JHR","83000, JHR"
"Johor, MY","Rengit, JHR","83100, JHR"
"Johor, MY","Senggarang, JHR","83200, JHR"
"Johor, MY","Sri Gading, JHR","83300, JHR"
"Johor, MY","Seri Gading, JHR","83300, JHR"
"Johor, MY","Seri Medan, JHR","83400, JHR"
"Johor, MY","Sri Medan, JHR","83400, JHR"
"Johor, MY","Parit Sulong, JHR","83500, JHR"
"Johor, MY","Semerah, JHR","83600, JHR"
"Johor, MY","Yong Peng, JHR","83700, JHR"
"Johor, MY","Muar, JHR","84000, JHR"
"Johor, MY","Tangkak, JHR","84000, JHR"
"Johor, MY","Parit Jawa, JHR","84150, JHR"
"Johor, MY","Muar, JHR","84200, JHR"
"Johor, MY","Bukit Pasir, JHR","84300, JHR"
"Johor, MY","Sungai Mati, JHR","84400, JHR"
"Johor, MY","Panchor, JHR","84500, JHR"
"Johor, MY","Pagoh, JHR","84600, JHR"
"Johor, MY","Gerisek, JHR","84700, JHR"
"Johor, MY","Bukit Gambir, JHR","84800, JHR"
"Johor, MY","Tangkak, JHR","84900, JHR"
"Johor, MY","Segamat, JHR","85000, JHR"
"Johor, MY","Batu Anam, JHR","85100, JHR"
"Johor, MY","Jementah, JHR","85200, JHR"
"Johor, MY","Labis, JHR","85300, JHR"
"Johor, MY","Chaah, JHR","85400, JHR"
"Johor, MY","Kluang, JHR","86000, JHR"
"Johor, MY","Ayer Hitam, JHR","86100, JHR"
"Johor, MY","Simpang Rengam, JHR","86200, JHR"
"Johor, MY","Rengam, JHR","86300, JHR"
"Johor, MY","Kluang, JHR","86300, JHR"
"Johor, MY","Parit Raja, JHR","86400, JHR"
"Johor, MY","Bekok, JHR","86500, JHR"
"Johor, MY","Paloh, JHR","86600, JHR"
"Johor, MY","Kahang, JHR","86700, JHR"
"Johor, MY","Mersing, JHR","86800, JHR"
"Johor, MY","Mersing, JHR","86810, JHR"
"Johor, MY","Endau, JHR","86900, JHR"
"Kedah, MY","Alor Setar, KDH","5000, KDH"
"Kedah, MY","Alor Setar, KDH","5050, KDH"
"Kedah, MY","Alor Setar, KDH","5100, KDH"
"Kedah, MY","Alor Setar, KDH","5150, KDH"
"Kedah, MY","Alor Star, KDH","5150, KDH"
"Kedah, MY","Alor Setar, KDH","5200, KDH"
"Kedah, MY","Alor Setar, KDH","5250, KDH"
"Kedah, MY","Alor Setar, KDH","5300, KDH"
"Kedah, MY","Alor Setar, KDH","5350, KDH"
"Kedah, MY","Alor Star, KDH","5350, KDH"
"Kedah, MY","Alor Setar, KDH","5400, KDH"
"Kedah, MY","Alor Star, KDH","5400, KDH"
"Kedah, MY","Alor Setar, KDH","5460, KDH"
"Kedah, MY","Alor Star, KDH","5460, KDH"
"Kedah, MY","Alor Setar, KDH","5500, KDH"
"Kedah, MY","Alor Setar, KDH","5502, KDH"
"Kedah, MY","Alor Setar, KDH","5503, KDH"
"Kedah, MY","Alor Setar, KDH","5504, KDH"
"Kedah, MY","Alor Setar, KDH","5505, KDH"
"Kedah, MY","Alor Setar, KDH","5506, KDH"
"Kedah, MY","Alor Setar, KDH","5508, KDH"
"Kedah, MY","Alor Setar, KDH","5512, KDH"
"Kedah, MY","Alor Setar, KDH","5514, KDH"
"Kedah, MY","Alor Setar, KDH","5516, KDH"
"Kedah, MY","Alor Setar, KDH","5517, KDH"
"Kedah, MY","Alor Setar, KDH","5518, KDH"
"Kedah, MY","Alor Setar, KDH","5520, KDH"
"Kedah, MY","Alor Setar, KDH","5532, KDH"
"Kedah, MY","Alor Setar, KDH","5534, KDH"
"Kedah, MY","Alor Setar, KDH","5536, KDH"
"Kedah, MY","Alor Setar, KDH","5538, KDH"
"Kedah, MY","Alor Setar, KDH","5550, KDH"
"Kedah, MY","Alor Setar, KDH","5551, KDH"
"Kedah, MY","Alor Setar, KDH","5552, KDH"
"Kedah, MY","Alor Setar, KDH","5556, KDH"
"Kedah, MY","Alor Setar, KDH","5558, KDH"
"Kedah, MY","Alor Setar, KDH","5560, KDH"
"Kedah, MY","Alor Setar, KDH","5564, KDH"
"Kedah, MY","Alor Setar, KDH","5576, KDH"
"Kedah, MY","Alor Setar, KDH","5578, KDH"
"Kedah, MY","Alor Setar, KDH","5580, KDH"
"Kedah, MY","Alor Setar, KDH","5582, KDH"
"Kedah, MY","Alor Setar, KDH","5586, KDH"
"Kedah, MY","Alor Setar, KDH","5590, KDH"
"Kedah, MY","Alor Setar, KDH","5592, KDH"
"Kedah, MY","Alor Setar, KDH","5594, KDH"
"Kedah, MY","Alor Setar, KDH","5600, KDH"
"Kedah, MY","Alor Setar, KDH","5604, KDH"
"Kedah, MY","Alor Setar, KDH","5610, KDH"
"Kedah, MY","Alor Setar, KDH","5612, KDH"
"Kedah, MY","Alor Setar, KDH","5614, KDH"
"Kedah, MY","Alor Setar, KDH","5620, KDH"
"Kedah, MY","Alor Setar, KDH","5621, KDH"
"Kedah, MY","Alor Setar, KDH","5622, KDH"
"Kedah, MY","Alor Setar, KDH","5626, KDH"
"Kedah, MY","Alor Setar, KDH","5628, KDH"
"Kedah, MY","Alor Setar, KDH","5630, KDH"
"Kedah, MY","Alor Setar, KDH","5632, KDH"
"Kedah, MY","Alor Setar, KDH","5644, KDH"
"Kedah, MY","Alor Setar, KDH","5660, KDH"
"Kedah, MY","Alor Setar, KDH","5661, KDH"
"Kedah, MY","Alor Setar, KDH","5664, KDH"
"Kedah, MY","Alor Setar, KDH","5670, KDH"
"Kedah, MY","Alor Setar, KDH","5672, KDH"
"Kedah, MY","Alor Setar, KDH","5673, KDH"
"Kedah, MY","Alor Setar, KDH","5674, KDH"
"Kedah, MY","Alor Setar, KDH","5675, KDH"
"Kedah, MY","Alor Setar, KDH","5676, KDH"
"Kedah, MY","Alor Setar, KDH","5680, KDH"
"Kedah, MY","Alor Setar, KDH","5690, KDH"
"Kedah, MY","Alor Setar, KDH","5696, KDH"
"Kedah, MY","Alor Setar, KDH","5700, KDH"
"Kedah, MY","Alor Setar, KDH","5710, KDH"
"Kedah, MY","Alor Setar, KDH","5720, KDH"
"Kedah, MY","Alor Setar, KDH","5990, KDH"
"Kedah, MY","Jitra, KDH","6000, KDH"
"Kedah, MY","Jitra, KDH","6007, KDH"
"Kedah, MY","Jitra, KDH","6009, KDH"
"Kedah, MY","Changloon, KDH","6010, KDH"
"Kedah, MY","Universiti Utara Malaysia, KDH","6010, KDH"
"Kedah, MY","Bukit Kayu Hitam, KDH","6050, KDH"
"Kedah, MY","Kodiang, KDH","6100, KDH"
"Kedah, MY","Ayer Hitam, KDH","6150, KDH"
"Kedah, MY","Kepala Batas, KDH","6200, KDH"
"Kedah, MY","Kepala Batas, KDH","6207, KDH"
"Kedah, MY","Kepala Batas, KDH","6209, KDH"
"Kedah, MY","Alor Star, KDH","6250, KDH"
"Kedah, MY","Alor Setar, KDH","6250, KDH"
"Kedah, MY","Kuala Nerang, KDH","6300, KDH"
"Kedah, MY","Pokok Sena, KDH","6350, KDH"
"Kedah, MY","Pokok Sena, KDH","6400, KDH"
"Kedah, MY","Pendang, KDH","6400, KDH"
"Kedah, MY","Langgar, KDH","6500, KDH"
"Kedah, MY","Langgar, KDH","6507, KDH"
"Kedah, MY","Langgar, KDH","6509, KDH"
"Kedah, MY","Alor Setar, KDH","6550, KDH"
"Kedah, MY","Alor Star, KDH","6550, KDH"
"Kedah, MY","Alor Setar, KDH","6570, KDH"
"Kedah, MY","Kuala Kedah, KDH","6600, KDH"
"Kedah, MY","Simpang Empat, KDH","6650, KDH"
"Kedah, MY","Alor Setar, KDH","6660, KDH"
"Kedah, MY","Pendang, KDH","6700, KDH"
"Kedah, MY","Pendang, KDH","6707, KDH"
"Kedah, MY","Pendang, KDH","6709, KDH"
"Kedah, MY","Pendang, KDH","6710, KDH"
"Kedah, MY","Pendang, KDH","6720, KDH"
"Kedah, MY","Pendang, KDH","6750, KDH"
"Kedah, MY","Kota Sarang Semut, KDH","6800, KDH"
"Kedah, MY","Yan, KDH","6900, KDH"
"Kedah, MY","Yan, KDH","6910, KDH"
"Kedah, MY","Langkawi, KDH","7000, KDH"
"Kedah, MY","Langkawi, KDH","7007, KDH"
"Kedah, MY","Langkawi, KDH","7009, KDH"
"Kedah, MY","Sungai Petani, KDH","8000, KDH"
"Kedah, MY","Sungai Petani, KDH","8007, KDH"
"Kedah, MY","Sungai Petani, KDH","8009, KDH"
"Kedah, MY","Sungai Petani, KDH","8010, KDH"
"Kedah, MY","Bedong, KDH","8100, KDH"
"Kedah, MY","Bedong, KDH","8110, KDH"
"Kedah, MY","Sik, KDH","8200, KDH"
"Kedah, MY","Sik, KDH","8210, KDH"
"Kedah, MY","Gurun, KDH","8300, KDH"
"Kedah, MY","Jeniang, KDH","8320, KDH"
"Kedah, MY","Gurun, KDH","8330, KDH"
"Kedah, MY","Sik, KDH","8340, KDH"
"Kedah, MY","Merbok, KDH","8400, KDH"
"Kedah, MY","Merbok, KDH","8407, KDH"
"Kedah, MY","Merbok, KDH","8409, KDH"
"Kedah, MY","Kota Kuala Muda, KDH","8500, KDH"
"Kedah, MY","Kota Kuala Muda, KDH","8507, KDH"
"Kedah, MY","Kota Kuala Muda, KDH","8509, KDH"
"Kedah, MY","Sungai Petani, KDH","8600, KDH"
"Kedah, MY","Jeniang, KDH","8700, KDH"
"Kedah, MY","Gurun, KDH","8800, KDH"
"Kedah, MY","Kulim, KDH","9000, KDH"
"Kedah, MY","Kulim, KDH","9007, KDH"
"Kedah, MY","Kulim, KDH","9009, KDH"
"Kedah, MY","Kulim, KDH","9010, KDH"
"Kedah, MY","Kulim, KDH","9020, KDH"
"Kedah, MY","Baling, KDH","9100, KDH"
"Kedah, MY","Kuala Pegang, KDH","9110, KDH"
"Kedah, MY","Kupang, KDH","9200, KDH"
"Kedah, MY","Kuala Ketil, KDH","9300, KDH"
"Kedah, MY","Kuala Ketil, KDH","9310, KDH"
"Kedah, MY","Padang Serai, KDH","9400, KDH"
"Kedah, MY","Padang Serai, KDH","9410, KDH"
"Kedah, MY","Lunas, KDH","9600, KDH"
"Kedah, MY","Karangan, KDH","9700, KDH"
"Kedah, MY","Serdang, KDH","9800, KDH"
"Kedah, MY","Serdang, KDH","9810, KDH"
"Kedah, MY","Bandar Bahru, KDH","14290, KDH"
"Kedah, MY","Bandar Bahru, KDH","14390, KDH"
"Kedah, MY","Bandar Baharu, KDH","34950, KDH"
"Kelantan, MY","Kota Bharu, KTN","15000, KTN"
"Kelantan, MY","Kota Bharu, KTN","15050, KTN"
"Kelantan, MY","Kota Bharu, KTN","15100, KTN"
"Kelantan, MY","Kota Bharu, KTN","15150, KTN"
"Kelantan, MY","Kota Bharu, KTN","15159, KTN"
"Kelantan, MY","Kota Bharu, KTN","15200, KTN"
"Kelantan, MY","Kota Bharu, KTN","15300, KTN"
"Kelantan, MY","Kota Bharu, KTN","15350, KTN"
"Kelantan, MY","Kota Bharu, KTN","15400, KTN"
"Kelantan, MY","Kota Bharu, KTN","15500, KTN"
"Kelantan, MY","Kota Bharu, KTN","15502, KTN"
"Kelantan, MY","Kota Bharu, KTN","15503, KTN"
"Kelantan, MY","Kota Bharu, KTN","15504, KTN"
"Kelantan, MY","Kota Bharu, KTN","15505, KTN"
"Kelantan, MY","Kota Bharu, KTN","15506, KTN"
"Kelantan, MY","Kota Bharu, KTN","15508, KTN"
"Kelantan, MY","Kota Bharu, KTN","15512, KTN"
"Kelantan, MY","Kota Bharu, KTN","15514, KTN"
"Kelantan, MY","Kota Bharu, KTN","15516, KTN"
"Kelantan, MY","Kota Bharu, KTN","15517, KTN"
"Kelantan, MY","Kota Bharu, KTN","15518, KTN"
"Kelantan, MY","Kota Bharu, KTN","15519, KTN"
"Kelantan, MY","Kota Bharu, KTN","15520, KTN"
"Kelantan, MY","Kota Bharu, KTN","15524, KTN"
"Kelantan, MY","Kota Bharu, KTN","15529, KTN"
"Kelantan, MY","Kota Bharu, KTN","15532, KTN"
"Kelantan, MY","Kota Bharu, KTN","15534, KTN"
"Kelantan, MY","Kota Bharu, KTN","15536, KTN"
"Kelantan, MY","Kota Bharu, KTN","15538, KTN"
"Kelantan, MY","Kota Bharu, KTN","15540, KTN"
"Kelantan, MY","Kota Bharu, KTN","15546, KTN"
"Kelantan, MY","Kota Bharu, KTN","15548, KTN"
"Kelantan, MY","Kota Bharu, KTN","15550, KTN"
"Kelantan, MY","Kota Bharu, KTN","15551, KTN"
"Kelantan, MY","Kota Bharu, KTN","15556, KTN"
"Kelantan, MY","Kota Bharu, KTN","15558, KTN"
"Kelantan, MY","Kota Bharu, KTN","15560, KTN"
"Kelantan, MY","Kota Bharu, KTN","15564, KTN"
"Kelantan, MY","Kota Bharu, KTN","15570, KTN"
"Kelantan, MY","Kota Bharu, KTN","15572, KTN"
"Kelantan, MY","Kota Bharu, KTN","15576, KTN"
"Kelantan, MY","Kota Bharu, KTN","15578, KTN"
"Kelantan, MY","Kota Bharu, KTN","15582, KTN"
"Kelantan, MY","Kota Bharu, KTN","15586, KTN"
"Kelantan, MY","Kota Bharu, KTN","15590, KTN"
"Kelantan, MY","Kota Bharu, KTN","15592, KTN"
"Kelantan, MY","Kota Bharu, KTN","15594, KTN"
"Kelantan, MY","Kota Bharu, KTN","15596, KTN"
"Kelantan, MY","Kota Bharu, KTN","15600, KTN"
"Kelantan, MY","Kota Bharu, KTN","15604, KTN"
"Kelantan, MY","Kota Bharu, KTN","15608, KTN"
"Kelantan, MY","Kota Bharu, KTN","15609, KTN"
"Kelantan, MY","Kota Bharu, KTN","15612, KTN"
"Kelantan, MY","Kota Bharu, KTN","15614, KTN"
"Kelantan, MY","Kota Bharu, KTN","15616, KTN"
"Kelantan, MY","Kota Bharu, KTN","15622, KTN"
"Kelantan, MY","Kota Bharu, KTN","15623, KTN"
"Kelantan, MY","Kota Bharu, KTN","15626, KTN"
"Kelantan, MY","Kota Bharu, KTN","15628, KTN"
"Kelantan, MY","Kota Bharu, KTN","15630, KTN"
"Kelantan, MY","Kota Bharu, KTN","15632, KTN"
"Kelantan, MY","Kota Bharu, KTN","15634, KTN"
"Kelantan, MY","Kota Bharu, KTN","15644, KTN"
"Kelantan, MY","Kota Bharu, KTN","15646, KTN"
"Kelantan, MY","Kota Bharu, KTN","15648, KTN"
"Kelantan, MY","Kota Bharu, KTN","15658, KTN"
"Kelantan, MY","Kota Bharu, KTN","15660, KTN"
"Kelantan, MY","Kota Bharu, KTN","15661, KTN"
"Kelantan, MY","Kota Bharu, KTN","15664, KTN"
"Kelantan, MY","Kota Bharu, KTN","15670, KTN"
"Kelantan, MY","Kota Bharu, KTN","15672, KTN"
"Kelantan, MY","Kota Bharu, KTN","15673, KTN"
"Kelantan, MY","Kota Bharu, KTN","15674, KTN"
"Kelantan, MY","Kota Bharu, KTN","15676, KTN"
"Kelantan, MY","Kota Bharu, KTN","15680, KTN"
"Kelantan, MY","Kota Bharu, KTN","15690, KTN"
"Kelantan, MY","Kota Bharu, KTN","15710, KTN"
"Kelantan, MY","Kota Bharu, KTN","15720, KTN"
"Kelantan, MY","Kota Bharu, KTN","15730, KTN"
"Kelantan, MY","Kota Bharu, KTN","15740, KTN"
"Kelantan, MY","Kota Bharu, KTN","15988, KTN"
"Kelantan, MY","Kota Bharu, KTN","15990, KTN"
"Kelantan, MY","Kota Bharu, KTN","16010, KTN"
"Kelantan, MY","Kota Bharu, KTN","16020, KTN"
"Kelantan, MY","Bachok, KTN","16020, KTN"
"Kelantan, MY","Bachok, KTN","16030, KTN"
"Kelantan, MY","Wakaf Bharu, KTN","16040, KTN"
"Kelantan, MY","Bachok, KTN","16050, KTN"
"Kelantan, MY","Bachok, KTN","16060, KTN"
"Kelantan, MY","Bachok, KTN","16070, KTN"
"Kelantan, MY","Tumpat, KTN","16080, KTN"
"Kelantan, MY","Bachok, KTN","16090, KTN"
"Kelantan, MY","Kota Bahru, KTN","16100, KTN"
"Kelantan, MY","Kota Bharu, KTN","16100, KTN"
"Kelantan, MY","Kota Bharu, KTN","16109, KTN"
"Kelantan, MY","Kota Bharu, KTN","16150, KTN"
"Kelantan, MY","Tumpat, KTN","16200, KTN"
"Kelantan, MY","Tumpat, KTN","16210, KTN"
"Kelantan, MY","Wakaf Bharu, KTN","16250, KTN"
"Kelantan, MY","Bachok, KTN","16300, KTN"
"Kelantan, MY","Bachok, KTN","16310, KTN"
"Kelantan, MY","Bachok, KTN","16320, KTN"
"Kelantan, MY","Melor, KTN","16400, KTN"
"Kelantan, MY","Ketereh, KTN","16450, KTN"
"Kelantan, MY","Kem Desa Pahlawan, KTN","16500, KTN"
"Kelantan, MY","Pulai Chondong, KTN","16600, KTN"
"Kelantan, MY","Cherang Ruku, KTN","16700, KTN"
"Kelantan, MY","Pasir Puteh, KTN","16800, KTN"
"Kelantan, MY","Pasir Puteh, KTN","16800, KTN"
"Kelantan, MY","Selising, KTN","16810, KTN"
"Kelantan, MY","Pasir Mas, KTN","17000, KTN"
"Kelantan, MY","Pasir Mas, KTN","17007, KTN"
"Kelantan, MY","Pasir Mas, KTN","17009, KTN"
"Kelantan, MY","Pasir Mas, KTN","17010, KTN"
"Kelantan, MY","Pasir Mas, KTN","17020, KTN"
"Kelantan, MY","Pasir Mas, KTN","17030, KTN"
"Kelantan, MY","Pasir Mas, KTN","17040, KTN"
"Kelantan, MY","Pasir Mas, KTN","17050, KTN"
"Kelantan, MY","Pasir Mas, KTN","17060, KTN"
"Kelantan, MY","Pasir Mas, KTN","17070, KTN"
"Kelantan, MY","Rantau Panjang, KTN","17200, KTN"
"Kelantan, MY","Tanah Merah, KTN","17500, KTN"
"Kelantan, MY","Tanah Merah, KTN","17507, KTN"
"Kelantan, MY","Tanah Merah, KTN","17509, KTN"
"Kelantan, MY","Tanah Merah, KTN","17510, KTN"
"Kelantan, MY","Jeli, KTN","17600, KTN"
"Kelantan, MY","Kuala Balah, KTN","17610, KTN"
"Kelantan, MY","Ayer Lanas, KTN","17700, KTN"
"Kelantan, MY","Kuala Krai, KTN","18000, KTN"
"Kelantan, MY","Kuala Krai, KTN","18050, KTN"
"Kelantan, MY","Dabong, KTN","18200, KTN"
"Kelantan, MY","Gua Musang, KTN","18300, KTN"
"Kelantan, MY","Temangan, KTN","18400, KTN"
"Kelantan, MY","Machang, KTN","18500, KTN"
"Kuala Lumpur, MY","Kuala Lumpur, KUL","50000, KUL"
"Kuala Lumpur, MY","Kuala Lumpur, KUL","50050, KUL"
"Kuala Lumpur, MY","Kuala Lumpur, KUL","50088, KUL"
"Kuala Lumpur, MY","Kuala Lumpur, KUL","50100, KUL"
"Kuala Lumpur, MY","Kuala Lumpur, KUL","50150, KUL"
"Kuala Lumpur, MY","Kuala Lumpur, KUL","50200, KUL"
"Kuala Lumpur, MY","Kuala Lumpur, KUL","50250, KUL"
"Kuala Lumpur, MY","Kuala Lumpur, KUL","50300, KUL"
"Kuala Lumpur, MY","Kuala Lumpur, KUL","50350, KUL"
"Kuala Lumpur, MY","Kuala Lumpur, KUL","50400, KUL"
"Kuala Lumpur, MY","Kuala Lumpur, KUL","50450, KUL"
"Kuala Lumpur, MY","Kuala Lumpur, KUL","50460, KUL"
"Kuala Lumpur, MY","Kuala Lumpur, KUL","50470, KUL"
"Kuala Lumpur, MY","Kuala Lumpur, KUL","50480, KUL"
"Kuala Lumpur, MY","Kuala Lumpur, KUL","50490, KUL"
"Kuala Lumpur, MY","Kuala Lumpur, KUL","50500, KUL"
"Kuala Lumpur, MY","Kuala Lumpur, KUL","50502, KUL"
"Kuala Lumpur, MY","Kuala Lumpur, KUL","50504, KUL"
"Kuala Lumpur, MY","Kuala Lumpur, KUL","50505, KUL"
"Kuala Lumpur, MY","Kuala Lumpur, KUL","50506, KUL"
"Kuala Lumpur, MY","Kuala Lumpur, KUL","50507, KUL"
"Kuala Lumpur, MY","Kuala Lumpur, KUL","50508, KUL"
"Kuala Lumpur, MY","Kuala Lumpur, KUL","50512, KUL"
"Kuala Lumpur, MY","Kuala Lumpur, KUL","50514, KUL"
"Kuala Lumpur, MY","Kuala Lumpur, KUL","50515, KUL"
"Kuala Lumpur, MY","Kuala Lumpur, KUL","50519, KUL"
"Kuala Lumpur, MY","Kuala Lumpur, KUL","50528, KUL"
"Kuala Lumpur, MY","Kuala Lumpur, KUL","50529, KUL"
"Kuala Lumpur, MY","Kuala Lumpur, KUL","50530, KUL"
"Kuala Lumpur, MY","Kuala Lumpur, KUL","50532, KUL"
"Kuala Lumpur, MY","Kuala Lumpur, KUL","50534, KUL"
"Kuala Lumpur, MY","Kuala Lumpur, KUL","50536, KUL"
"Kuala Lumpur, MY","Kuala Lumpur, KUL","50540, KUL"
"Kuala Lumpur, MY","Kuala Lumpur, KUL","50544, KUL"
"Kuala Lumpur, MY","Kuala Lumpur, KUL","50546, KUL"
"Kuala Lumpur, MY","Kuala Lumpur, KUL","50548, KUL"
"Kuala Lumpur, MY","Kuala Lumpur, KUL","50550, KUL"
"Kuala Lumpur, MY","Kuala Lumpur, KUL","50551, KUL"
"Kuala Lumpur, MY","Kuala Lumpur, KUL","50552, KUL"
"Kuala Lumpur, MY","Kuala Lumpur, KUL","50554, KUL"
"Kuala Lumpur, MY","Kuala Lumpur, KUL","50556, KUL"
"Kuala Lumpur, MY","Kuala Lumpur, KUL","50560, KUL"
"Kuala Lumpur, MY","Kuala Lumpur, KUL","50562, KUL"
"Kuala Lumpur, MY","Kuala Lumpur, KUL","50564, KUL"
"Kuala Lumpur, MY","Kuala Lumpur, KUL","50566, KUL"
"Kuala Lumpur, MY","Kuala Lumpur, KUL","50568, KUL"
"Kuala Lumpur, MY","Kuala Lumpur, KUL","50572, KUL"
"Kuala Lumpur, MY","Kuala Lumpur, KUL","50576, KUL"
"Kuala Lumpur, MY","Kuala Lumpur, KUL","50578, KUL"
"Kuala Lumpur, MY","Kuala Lumpur, KUL","50580, KUL"
"Kuala Lumpur, MY","Kuala Lumpur, KUL","50582, KUL"
"Kuala Lumpur, MY","Kuala Lumpur, KUL","50586, KUL"
"Kuala Lumpur, MY","Kuala Lumpur, KUL","50588, KUL"
"Kuala Lumpur, MY","Kuala Lumpur, KUL","50590, KUL"
"Kuala Lumpur, MY","Kuala Lumpur, KUL","50592, KUL"
"Kuala Lumpur, MY","Kuala Lumpur, KUL","50594, KUL"
"Kuala Lumpur, MY","Kuala Lumpur, KUL","50596, KUL"
"Kuala Lumpur, MY","Kuala Lumpur, KUL","50598, KUL"
"Kuala Lumpur, MY","Kuala Lumpur, KUL","50599, KUL"
"Kuala Lumpur, MY","Kuala Lumpur, KUL","50600, KUL"
"Kuala Lumpur, MY","Kuala Lumpur, KUL","50603, KUL"
"Kuala Lumpur, MY","Kuala Lumpur, KUL","50604, KUL"
"Kuala Lumpur, MY","Kuala Lumpur, KUL","50605, KUL"
"Kuala Lumpur, MY","Kuala Lumpur, KUL","50608, KUL"
"Kuala Lumpur, MY","Kuala Lumpur, KUL","50609, KUL"
"Kuala Lumpur, MY","Kuala Lumpur, KUL","50610, KUL"
"Kuala Lumpur, MY","Kuala Lumpur, KUL","50612, KUL"
"Kuala Lumpur, MY","Kuala Lumpur, KUL","50614, KUL"
"Kuala Lumpur, MY","Kuala Lumpur, KUL","50620, KUL"
"Kuala Lumpur, MY","Kuala Lumpur, KUL","50621, KUL"
"Kuala Lumpur, MY","Kuala Lumpur, KUL","50622, KUL"
"Kuala Lumpur, MY","Kuala Lumpur, KUL","50623, KUL"
"Kuala Lumpur, MY","Kuala Lumpur, KUL","50626, KUL"
"Kuala Lumpur, MY","Kuala Lumpur, KUL","50632, KUL"
"Kuala Lumpur, MY","Kuala Lumpur, KUL","50634, KUL"
"Kuala Lumpur, MY","Kuala Lumpur, KUL","50636, KUL"
"Kuala Lumpur, MY","Kuala Lumpur, KUL","50638, KUL"
"Kuala Lumpur, MY","Kuala Lumpur, KUL","50640, KUL"
"Kuala Lumpur, MY","Kuala Lumpur, KUL","50642, KUL"
"Kuala Lumpur, MY","Kuala Lumpur, KUL","50644, KUL"
"Kuala Lumpur, MY","Kuala Lumpur, KUL","50646, KUL"
"Kuala Lumpur, MY","Kuala Lumpur, KUL","50648, KUL"
"Kuala Lumpur, MY","Kuala Lumpur, KUL","50650, KUL"
"Kuala Lumpur, MY","Kuala Lumpur, KUL","50652, KUL"
"Kuala Lumpur, MY","Kuala Lumpur, KUL","50653, KUL"
"Kuala Lumpur, MY","Kuala Lumpur, KUL","50656, KUL"
"Kuala Lumpur, MY","Kuala Lumpur, KUL","50658, KUL"
"Kuala Lumpur, MY","Kuala Lumpur, KUL","50660, KUL"
"Kuala Lumpur, MY","Kuala Lumpur, KUL","50661, KUL"
"Kuala Lumpur, MY","Kuala Lumpur, KUL","50662, KUL"
"Kuala Lumpur, MY","Kuala Lumpur, KUL","50664, KUL"
"Kuala Lumpur, MY","Kuala Lumpur, KUL","50666, KUL"
"Kuala Lumpur, MY","Kuala Lumpur, KUL","50668, KUL"
"Kuala Lumpur, MY","Kuala Lumpur, KUL","50670, KUL"
"Kuala Lumpur, MY","Kuala Lumpur, KUL","50672, KUL"
"Kuala Lumpur, MY","Kuala Lumpur, KUL","50673, KUL"
"Kuala Lumpur, MY","Kuala Lumpur, KUL","50676, KUL"
"Kuala Lumpur, MY","Kuala Lumpur, KUL","50677, KUL"
"Kuala Lumpur, MY","Kuala Lumpur, KUL","50678, KUL"
"Kuala Lumpur, MY","Kuala Lumpur, KUL","50680, KUL"
"Kuala Lumpur, MY","Kuala Lumpur, KUL","50682, KUL"
"Kuala Lumpur, MY","Kuala Lumpur, KUL","50684, KUL"
"Kuala Lumpur, MY","Kuala Lumpur, KUL","50688, KUL"
"Kuala Lumpur, MY","Kuala Lumpur, KUL","50694, KUL"
"Kuala Lumpur, MY","Kuala Lumpur, KUL","50700, KUL"
"Kuala Lumpur, MY","Kuala Lumpur, KUL","50702, KUL"
"Kuala Lumpur, MY","Kuala Lumpur, KUL","50704, KUL"
"Kuala Lumpur, MY","Kuala Lumpur, KUL","50706, KUL"
"Kuala Lumpur, MY","Kuala Lumpur, KUL","50708, KUL"
"Kuala Lumpur, MY","Kuala Lumpur, KUL","50710, KUL"
"Kuala Lumpur, MY","Kuala Lumpur, KUL","50712, KUL"
"Kuala Lumpur, MY","Kuala Lumpur, KUL","50714, KUL"
"Kuala Lumpur, MY","Kuala Lumpur, KUL","50716, KUL"
"Kuala Lumpur, MY","Kuala Lumpur, KUL","50718, KUL"
"Kuala Lumpur, MY","Kuala Lumpur, KUL","50720, KUL"
"Kuala Lumpur, MY","Kuala Lumpur, KUL","50722, KUL"
"Kuala Lumpur, MY","Kuala Lumpur, KUL","50724, KUL"
"Kuala Lumpur, MY","Kuala Lumpur, KUL","50726, KUL"
"Kuala Lumpur, MY","Kuala Lumpur, KUL","50728, KUL"
"Kuala Lumpur, MY","Kuala Lumpur, KUL","50730, KUL"
"Kuala Lumpur, MY","Kuala Lumpur, KUL","50732, KUL"
"Kuala Lumpur, MY","Kuala Lumpur, KUL","50734, KUL"
"Kuala Lumpur, MY","Kuala Lumpur, KUL","50736, KUL"
"Kuala Lumpur, MY","Kuala Lumpur, KUL","50738, KUL"
"Kuala Lumpur, MY","Kuala Lumpur, KUL","50740, KUL"
"Kuala Lumpur, MY","Kuala Lumpur, KUL","50742, KUL"
"Kuala Lumpur, MY","Kuala Lumpur, KUL","50744, KUL"
"Kuala Lumpur, MY","Kuala Lumpur, KUL","50746, KUL"
"Kuala Lumpur, MY","Kuala Lumpur, KUL","50748, KUL"
"Kuala Lumpur, MY","Kuala Lumpur, KUL","50750, KUL"
"Kuala Lumpur, MY","Kuala Lumpur, KUL","50752, KUL"
"Kuala Lumpur, MY","Kuala Lumpur, KUL","50754, KUL"
"Kuala Lumpur, MY","Kuala Lumpur, KUL","50758, KUL"
"Kuala Lumpur, MY","Kuala Lumpur, KUL","50760, KUL"
"Kuala Lumpur, MY","Kuala Lumpur, KUL","50762, KUL"
"Kuala Lumpur, MY","Kuala Lumpur, KUL","50764, KUL"
"Kuala Lumpur, MY","Kuala Lumpur, KUL","50766, KUL"
"Kuala Lumpur, MY","Kuala Lumpur, KUL","50768, KUL"
"Kuala Lumpur, MY","Kuala Lumpur, KUL","50770, KUL"
"Kuala Lumpur, MY","Kuala Lumpur, KUL","50772, KUL"
"Kuala Lumpur, MY","Kuala Lumpur, KUL","50774, KUL"
"Kuala Lumpur, MY","Kuala Lumpur, KUL","50776, KUL"
"Kuala Lumpur, MY","Kuala Lumpur, KUL","50778, KUL"
"Kuala Lumpur, MY","Kuala Lumpur, KUL","50780, KUL"
"Kuala Lumpur, MY","Kuala Lumpur, KUL","50782, KUL"
"Kuala Lumpur, MY","Kuala Lumpur, KUL","50784, KUL"
"Kuala Lumpur, MY","Kuala Lumpur, KUL","50786, KUL"
"Kuala Lumpur, MY","Kuala Lumpur, KUL","50788, KUL"
"Kuala Lumpur, MY","Kuala Lumpur, KUL","50790, KUL"
"Kuala Lumpur, MY","Kuala Lumpur, KUL","50792, KUL"
"Kuala Lumpur, MY","Kuala Lumpur, KUL","50794, KUL"
"Kuala Lumpur, MY","Kuala Lumpur, KUL","50796, KUL"
"Kuala Lumpur, MY","Kuala Lumpur, KUL","50798, KUL"
"Kuala Lumpur, MY","Kuala Lumpur, KUL","50800, KUL"
"Kuala Lumpur, MY","Kuala Lumpur, KUL","50802, KUL"
"Kuala Lumpur, MY","Kuala Lumpur, KUL","50804, KUL"
"Kuala Lumpur, MY","Kuala Lumpur, KUL","50806, KUL"
"Kuala Lumpur, MY","Kuala Lumpur, KUL","50808, KUL"
"Kuala Lumpur, MY","Kuala Lumpur, KUL","50810, KUL"
"Kuala Lumpur, MY","Kuala Lumpur, KUL","50812, KUL"
"Kuala Lumpur, MY","Kuala Lumpur, KUL","50814, KUL"
"Kuala Lumpur, MY","Kuala Lumpur, KUL","50816, KUL"
"Kuala Lumpur, MY","Kuala Lumpur, KUL","50818, KUL"
"Kuala Lumpur, MY","Kuala Lumpur, KUL","50901, KUL"
"Kuala Lumpur, MY","Kuala Lumpur, KUL","50902, KUL"
"Kuala Lumpur, MY","Kuala Lumpur, KUL","50903, KUL"
"Kuala Lumpur, MY","Kuala Lumpur, KUL","50904, KUL"
"Kuala Lumpur, MY","Kuala Lumpur, KUL","50906, KUL"
"Kuala Lumpur, MY","Kuala Lumpur, KUL","50907, KUL"
"Kuala Lumpur, MY","Kuala Lumpur, KUL","50908, KUL"
"Kuala Lumpur, MY","Kuala Lumpur, KUL","50909, KUL"
"Kuala Lumpur, MY","Kuala Lumpur, KUL","50910, KUL"
"Kuala Lumpur, MY","Kuala Lumpur, KUL","50911, KUL"
"Kuala Lumpur, MY","Kuala Lumpur, KUL","50912, KUL"
"Kuala Lumpur, MY","Kuala Lumpur, KUL","50913, KUL"
"Kuala Lumpur, MY","Kuala Lumpur, KUL","50914, KUL"
"Kuala Lumpur, MY","Kuala Lumpur, KUL","50915, KUL"
"Kuala Lumpur, MY","Kuala Lumpur, KUL","50916, KUL"
"Kuala Lumpur, MY","Kuala Lumpur, KUL","50917, KUL"
"Kuala Lumpur, MY","Kuala Lumpur, KUL","50918, KUL"
"Kuala Lumpur, MY","Kuala Lumpur, KUL","50919, KUL"
"Kuala Lumpur, MY","Kuala Lumpur, KUL","50920, KUL"
"Kuala Lumpur, MY","Kuala Lumpur, KUL","50921, KUL"
"Kuala Lumpur, MY","Kuala Lumpur, KUL","50922, KUL"
"Kuala Lumpur, MY","Kuala Lumpur, KUL","50923, KUL"
"Kuala Lumpur, MY","Kuala Lumpur, KUL","50924, KUL"
"Kuala Lumpur, MY","Kuala Lumpur, KUL","50925, KUL"
"Kuala Lumpur, MY","Kuala Lumpur, KUL","50926, KUL"
"Kuala Lumpur, MY","Kuala Lumpur, KUL","50927, KUL"
"Kuala Lumpur, MY","Kuala Lumpur, KUL","50928, KUL"
"Kuala Lumpur, MY","Kuala Lumpur, KUL","50929, KUL"
"Kuala Lumpur, MY","Kuala Lumpur, KUL","50930, KUL"
"Kuala Lumpur, MY","Kuala Lumpur, KUL","50931, KUL"
"Kuala Lumpur, MY","Kuala Lumpur, KUL","50932, KUL"
"Kuala Lumpur, MY","Kuala Lumpur, KUL","50933, KUL"
"Kuala Lumpur, MY","Kuala Lumpur, KUL","50934, KUL"
"Kuala Lumpur, MY","Kuala Lumpur, KUL","50935, KUL"
"Kuala Lumpur, MY","Kuala Lumpur, KUL","50936, KUL"
"Kuala Lumpur, MY","Kuala Lumpur, KUL","50937, KUL"
"Kuala Lumpur, MY","Kuala Lumpur, KUL","50938, KUL"
"Kuala Lumpur, MY","Kuala Lumpur, KUL","50939, KUL"
"Kuala Lumpur, MY","Kuala Lumpur, KUL","50940, KUL"
"Kuala Lumpur, MY","Kuala Lumpur, KUL","50941, KUL"
"Kuala Lumpur, MY","Kuala Lumpur, KUL","50942, KUL"
"Kuala Lumpur, MY","Kuala Lumpur, KUL","50943, KUL"
"Kuala Lumpur, MY","Kuala Lumpur, KUL","50944, KUL"
"Kuala Lumpur, MY","Kuala Lumpur, KUL","50945, KUL"
"Kuala Lumpur, MY","Kuala Lumpur, KUL","50946, KUL"
"Kuala Lumpur, MY","Kuala Lumpur, KUL","50947, KUL"
"Kuala Lumpur, MY","Kuala Lumpur, KUL","50948, KUL"
"Kuala Lumpur, MY","Kuala Lumpur, KUL","50949, KUL"
"Kuala Lumpur, MY","Kuala Lumpur, KUL","50950, KUL"
"Kuala Lumpur, MY","Kuala Lumpur, KUL","50988, KUL"
"Kuala Lumpur, MY","Kuala Lumpur, KUL","50989, KUL"
"Kuala Lumpur, MY","Kuala Lumpur, KUL","50990, KUL"
"Kuala Lumpur, MY","Kuala Lumpur, KUL","51000, KUL"
"Kuala Lumpur, MY","Kuala Lumpur, KUL","51100, KUL"
"Kuala Lumpur, MY","Kuala Lumpur, KUL","51200, KUL"
"Kuala Lumpur, MY","Kuala Lumpur, KUL","51700, KUL"
"Kuala Lumpur, MY","Kuala Lumpur, KUL","51990, KUL"
"Kuala Lumpur, MY","Kuala Lumpur, KUL","52000, KUL"
"Kuala Lumpur, MY","Kuala Lumpur, KUL","52100, KUL"
"Kuala Lumpur, MY","Kuala Lumpur, KUL","52200, KUL"
"Kuala Lumpur, MY","Kuala Lumpur, KUL","53000, KUL"
"Kuala Lumpur, MY","Kuala Lumpur, KUL","53100, KUL"
"Kuala Lumpur, MY","Kuala Lumpur, KUL","53200, KUL"
"Kuala Lumpur, MY","Setapak, KUL","53300, KUL"
"Kuala Lumpur, MY","Kuala Lumpur, KUL","53300, KUL"
"Kuala Lumpur, MY","Kuala Lumpur, KUL","53700, KUL"
"Kuala Lumpur, MY","Kuala Lumpur, KUL","53800, KUL"
"Kuala Lumpur, MY","Kuala Lumpur, KUL","53990, KUL"
"Kuala Lumpur, MY","Kuala Lumpur, KUL","54000, KUL"
"Kuala Lumpur, MY","Kuala Lumpur, KUL","54100, KUL"
"Kuala Lumpur, MY","Kuala Lumpur, KUL","54200, KUL"
"Kuala Lumpur, MY","Kuala Lumpur, KUL","55000, KUL"
"Kuala Lumpur, MY","Kuala Lumpur, KUL","55100, KUL"
"Kuala Lumpur, MY","Kuala Lumpur, KUL","55200, KUL"
"Kuala Lumpur, MY","Kuala Lumpur, KUL","55300, KUL"
"Kuala Lumpur, MY","Kuala Lumpur, KUL","55700, KUL"
"Kuala Lumpur, MY","Kuala Lumpur, KUL","55710, KUL"
"Kuala Lumpur, MY","Kuala Lumpur, KUL","55720, KUL"
"Kuala Lumpur, MY","Kuala Lumpur, KUL","55900, KUL"
"Kuala Lumpur, MY","Kuala Lumpur, KUL","55902, KUL"
"Kuala Lumpur, MY","Kuala Lumpur, KUL","55904, KUL"
"Kuala Lumpur, MY","Kuala Lumpur, KUL","55906, KUL"
"Kuala Lumpur, MY","Kuala Lumpur, KUL","55908, KUL"
"Kuala Lumpur, MY","Kuala Lumpur, KUL","55910, KUL"
"Kuala Lumpur, MY","Kuala Lumpur, KUL","55912, KUL"
"Kuala Lumpur, MY","Kuala Lumpur, KUL","55914, KUL"
"Kuala Lumpur, MY","Kuala Lumpur, KUL","55916, KUL"
"Kuala Lumpur, MY","Kuala Lumpur, KUL","55918, KUL"
"Kuala Lumpur, MY","Kuala Lumpur, KUL","55920, KUL"
"Kuala Lumpur, MY","Kuala Lumpur, KUL","55922, KUL"
"Kuala Lumpur, MY","Kuala Lumpur, KUL","55924, KUL"
"Kuala Lumpur, MY","Kuala Lumpur, KUL","55926, KUL"
"Kuala Lumpur, MY","Kuala Lumpur, KUL","55928, KUL"
"Kuala Lumpur, MY","Kuala Lumpur, KUL","55930, KUL"
"Kuala Lumpur, MY","Kuala Lumpur, KUL","55932, KUL"
"Kuala Lumpur, MY","Kuala Lumpur, KUL","55934, KUL"
"Kuala Lumpur, MY","Kuala Lumpur, KUL","55990, KUL"
"Kuala Lumpur, MY","Cheras, KUL","56000, KUL"
"Kuala Lumpur, MY","Kuala Lumpur, KUL","56000, KUL"
"Kuala Lumpur, MY","Cheras, KUL","56100, KUL"
"Kuala Lumpur, MY","Kuala Lumpur, KUL","56100, KUL"
"Kuala Lumpur, MY","Kuala Lumpur, KUL","57000, KUL"
"Kuala Lumpur, MY","Kuala Lumpur, KUL","57100, KUL"
"Kuala Lumpur, MY","Kuala Lumpur, KUL","57700, KUL"
"Kuala Lumpur, MY","Kuala Lumpur, KUL","57990, KUL"
"Kuala Lumpur, MY","Kuala Lumpur, KUL","58000, KUL"
"Kuala Lumpur, MY","Kuala Lumpur, KUL","58100, KUL"
"Kuala Lumpur, MY","Kuala Lumpur, KUL","58200, KUL"
"Kuala Lumpur, MY","Kuala Lumpur, KUL","58700, KUL"
"Kuala Lumpur, MY","Kuala Lumpur, KUL","58990, KUL"
"Kuala Lumpur, MY","Kuala Lumpur, KUL","59000, KUL"
"Kuala Lumpur, MY","Kuala Lumpur, KUL","59100, KUL"
"Kuala Lumpur, MY","Kuala Lumpur, KUL","59200, KUL"
"Kuala Lumpur, MY","Kuala Lumpur, KUL","59700, KUL"
"Kuala Lumpur, MY","Kuala Lumpur, KUL","59800, KUL"
"Kuala Lumpur, MY","Kuala Lumpur, KUL","59990, KUL"
"Kuala Lumpur, MY","Kuala Lumpur, KUL","60000, KUL"
"Kuala Lumpur, MY","Batu Caves, KUL","68100, KUL"
"Labuan, MY","Labuan, LBN","87000, LBN"
"Labuan, MY","Labuan, LBN","87010, LBN"
"Labuan, MY","Labuan, LBN","87011, LBN"
"Labuan, MY","Labuan, LBN","87012, LBN"
"Labuan, MY","Labuan, LBN","87013, LBN"
"Labuan, MY","Labuan, LBN","87014, LBN"
"Labuan, MY","Labuan, LBN","87015, LBN"
"Labuan, MY","Labuan, LBN","87016, LBN"
"Labuan, MY","Labuan, LBN","87017, LBN"
"Labuan, MY","Labuan, LBN","87018, LBN"
"Labuan, MY","Labuan, LBN","87019, LBN"
"Labuan, MY","Labuan, LBN","87020, LBN"
"Labuan, MY","Labuan, LBN","87021, LBN"
"Labuan, MY","Labuan, LBN","87022, LBN"
"Labuan, MY","Labuan, LBN","87023, LBN"
"Labuan, MY","Labuan, LBN","87024, LBN"
"Labuan, MY","Labuan, LBN","87025, LBN"
"Labuan, MY","Labuan, LBN","87026, LBN"
"Labuan, MY","Labuan, LBN","87027, LBN"
"Labuan, MY","Labuan, LBN","87028, LBN"
"Labuan, MY","Labuan, LBN","87029, LBN"
"Labuan, MY","Labuan, LBN","87030, LBN"
"Labuan, MY","Labuan, LBN","87031, LBN"
"Labuan, MY","Labuan, LBN","87032, LBN"
"Labuan, MY","Labuan, LBN","87033, LBN"
"Melaka, MY","Melaka, MLK","75000, MLK"
"Melaka, MY","Melaka, MLK","75050, MLK"
"Melaka, MY","Melaka, MLK","75100, MLK"
"Melaka, MY","Melaka, MLK","75150, MLK"
"Melaka, MY","Melaka, MLK","75200, MLK"
"Melaka, MY","Melaka, MLK","75250, MLK"
"Melaka, MY","Melaka, MLK","75260, MLK"
"Melaka, MY","Melaka, MLK","75300, MLK"
"Melaka, MY","Melaka, MLK","75350, MLK"
"Melaka, MY","Melaka, MLK","75400, MLK"
"Melaka, MY","Melaka, MLK","75450, MLK"
"Melaka, MY","Ayer Keroh, MLK","75450, MLK"
"Melaka, MY","Air Keroh, MLK","75450, MLK"
"Melaka, MY","Melaka, MLK","75460, MLK"
"Melaka, MY","Melaka, MLK","75500, MLK"
"Melaka, MY","Melaka, MLK","75502, MLK"
"Melaka, MY","Melaka, MLK","75503, MLK"
"Melaka, MY","Melaka, MLK","75504, MLK"
"Melaka, MY","Melaka, MLK","75505, MLK"
"Melaka, MY","Melaka, MLK","75506, MLK"
"Melaka, MY","Melaka, MLK","75508, MLK"
"Melaka, MY","Melaka, MLK","75510, MLK"
"Melaka, MY","Melaka, MLK","75512, MLK"
"Melaka, MY","Melaka, MLK","75514, MLK"
"Melaka, MY","Melaka, MLK","75516, MLK"
"Melaka, MY","Melaka, MLK","75517, MLK"
"Melaka, MY","Melaka, MLK","75518, MLK"
"Melaka, MY","Melaka, MLK","75519, MLK"
"Melaka, MY","Melaka, MLK","75532, MLK"
"Melaka, MY","Melaka, MLK","75536, MLK"
"Melaka, MY","Melaka, MLK","75538, MLK"
"Melaka, MY","Melaka, MLK","75540, MLK"
"Melaka, MY","Melaka, MLK","75542, MLK"
"Melaka, MY","Melaka, MLK","75546, MLK"
"Melaka, MY","Melaka, MLK","75550, MLK"
"Melaka, MY","Melaka, MLK","75551, MLK"
"Melaka, MY","Melaka, MLK","75552, MLK"
"Melaka, MY","Melaka, MLK","75560, MLK"
"Melaka, MY","Melaka, MLK","75564, MLK"
"Melaka, MY","Melaka, MLK","75566, MLK"
"Melaka, MY","Melaka, MLK","75570, MLK"
"Melaka, MY","Melaka, MLK","75572, MLK"
"Melaka, MY","Melaka, MLK","75576, MLK"
"Melaka, MY","Melaka, MLK","75578, MLK"
"Melaka, MY","Melaka, MLK","75582, MLK"
"Melaka, MY","Melaka, MLK","75584, MLK"
"Melaka, MY","Melaka, MLK","75586, MLK"
"Melaka, MY","Melaka, MLK","75590, MLK"
"Melaka, MY","Melaka, MLK","75592, MLK"
"Melaka, MY","Melaka, MLK","75594, MLK"
"Melaka, MY","Melaka, MLK","75596, MLK"
"Melaka, MY","Melaka, MLK","75600, MLK"
"Melaka, MY","Melaka, MLK","75604, MLK"
"Melaka, MY","Melaka, MLK","75606, MLK"
"Melaka, MY","Melaka, MLK","75608, MLK"
"Melaka, MY","Melaka, MLK","75609, MLK"
"Melaka, MY","Melaka, MLK","75610, MLK"
"Melaka, MY","Melaka, MLK","75612, MLK"
"Melaka, MY","Melaka, MLK","75618, MLK"
"Melaka, MY","Melaka, MLK","75620, MLK"
"Melaka, MY","Melaka, MLK","75622, MLK"
"Melaka, MY","Melaka, MLK","75626, MLK"
"Melaka, MY","Melaka, MLK","75628, MLK"
"Melaka, MY","Melaka, MLK","75630, MLK"
"Melaka, MY","Melaka, MLK","75632, MLK"
"Melaka, MY","Melaka, MLK","75646, MLK"
"Melaka, MY","Melaka, MLK","75648, MLK"
"Melaka, MY","Melaka, MLK","75662, MLK"
"Melaka, MY","Melaka, MLK","75670, MLK"
"Melaka, MY","Melaka, MLK","75672, MLK"
"Melaka, MY","Melaka, MLK","75673, MLK"
"Melaka, MY","Melaka, MLK","75674, MLK"
"Melaka, MY","Melaka, MLK","75676, MLK"
"Melaka, MY","Melaka, MLK","75690, MLK"
"Melaka, MY","Melaka, MLK","75700, MLK"
"Melaka, MY","Melaka, MLK","75710, MLK"
"Melaka, MY","Melaka, MLK","75720, MLK"
"Melaka, MY","Melaka, MLK","75730, MLK"
"Melaka, MY","Melaka, MLK","75740, MLK"
"Melaka, MY","Melaka, MLK","75750, MLK"
"Melaka, MY","Melaka, MLK","75760, MLK"
"Melaka, MY","Melaka, MLK","75900, MLK"
"Melaka, MY","Melaka, MLK","75902, MLK"
"Melaka, MY","Melaka, MLK","75904, MLK"
"Melaka, MY","Melaka, MLK","75906, MLK"
"Melaka, MY","Melaka, MLK","75908, MLK"
"Melaka, MY","Melaka, MLK","75910, MLK"
"Melaka, MY","Melaka, MLK","75912, MLK"
"Melaka, MY","Melaka, MLK","75914, MLK"
"Melaka, MY","Melaka, MLK","75916, MLK"
"Melaka, MY","Melaka, MLK","75918, MLK"
"Melaka, MY","Melaka, MLK","75990, MLK"
"Melaka, MY","Durian Tunggal, MLK","76100, MLK"
"Melaka, MY","Durian Tunggal, MLK","76109, MLK"
"Melaka, MY","Kem Trendak, MLK","76200, MLK"
"Melaka, MY","Sungai Udang, MLK","76300, MLK"
"Melaka, MY","Melaka, MLK","76400, MLK"
"Melaka, MY","Tanjong Kling, MLK","76400, MLK"
"Melaka, MY","Tanjong Kling, MLK","76409, MLK"
"Melaka, MY","Melaka, MLK","76450, MLK"
"Melaka, MY","Jasin, MLK","77000, MLK"
"Melaka, MY","Jasin, MLK","77007, MLK"
"Melaka, MY","Jasin, MLK","77008, MLK"
"Melaka, MY","Jasin, MLK","77009, MLK"
"Melaka, MY","Asahan, MLK","77100, MLK"
"Melaka, MY","Asahan, MLK","77109, MLK"
"Melaka, MY","Jasin, MLK","77200, MLK"
"Melaka, MY","Bemban, MLK","77200, MLK"
"Melaka, MY","Merlimau, MLK","77300, MLK"
"Melaka, MY","Merlimau, MLK","77309, MLK"
"Melaka, MY","Sungai Rambai', MLK","77400, MLK"
"Melaka, MY","Sungai Rambai, MLK","77400, MLK"
"Melaka, MY","Sungai Rambai, MLK","77409, MLK"
"Melaka, MY","Selandar, MLK","77500, MLK"
"Melaka, MY","Alor Gajah, MLK","78000, MLK"
"Melaka, MY","Alor Gajah, MLK","78009, MLK"
"Melaka, MY","Lubok China, MLK","78100, MLK"
"Melaka, MY","Kuala Sungai Baru, MLK","78200, MLK"
"Melaka, MY","Masjid Tanah, MLK","78300, MLK"
"Melaka, MY","Masjid Tanah, MLK","78307, MLK"
"Melaka, MY","Masjid Tanah, MLK","78309, MLK"
"Negeri Sembilan, MY","Seremban, NSN","70000, NSN"
"Negeri Sembilan, MY","Seremban, NSN","70100, NSN"
"Negeri Sembilan, MY","Seremban, NSN","70200, NSN"
"Negeri Sembilan, MY","Seremban, NSN","70300, NSN"
"Negeri Sembilan, MY","Seremban, NSN","70400, NSN"
"Negeri Sembilan, MY","Seremban, NSN","70450, NSN"
"Negeri Sembilan, MY","Seremban, NSN","70500, NSN"
"Negeri Sembilan, MY","Seremban, NSN","70502, NSN"
"Negeri Sembilan, MY","Seremban, NSN","70503, NSN"
"Negeri Sembilan, MY","Seremban, NSN","70504, NSN"
"Negeri Sembilan, MY","Seremban, NSN","70505, NSN"
"Negeri Sembilan, MY","Seremban, NSN","70506, NSN"
"Negeri Sembilan, MY","Seremban, NSN","70508, NSN"
"Negeri Sembilan, MY","Seremban, NSN","70512, NSN"
"Negeri Sembilan, MY","Seremban, NSN","70516, NSN"
"Negeri Sembilan, MY","Seremban, NSN","70517, NSN"
"Negeri Sembilan, MY","Seremban, NSN","70518, NSN"
"Negeri Sembilan, MY","Seremban, NSN","70532, NSN"
"Negeri Sembilan, MY","Seremban, NSN","70534, NSN"
"Negeri Sembilan, MY","Seremban, NSN","70536, NSN"
"Negeri Sembilan, MY","Seremban, NSN","70540, NSN"
"Negeri Sembilan, MY","Seremban, NSN","70546, NSN"
"Negeri Sembilan, MY","Seremban, NSN","70548, NSN"
"Negeri Sembilan, MY","Seremban, NSN","70550, NSN"
"Negeri Sembilan, MY","Seremban, NSN","70551, NSN"
"Negeri Sembilan, MY","Seremban, NSN","70558, NSN"
"Negeri Sembilan, MY","Seremban, NSN","70560, NSN"
"Negeri Sembilan, MY","Seremban, NSN","70564, NSN"
"Negeri Sembilan, MY","Seremban, NSN","70570, NSN"
"Negeri Sembilan, MY","Seremban, NSN","70572, NSN"
"Negeri Sembilan, MY","Seremban, NSN","70576, NSN"
"Negeri Sembilan, MY","Seremban, NSN","70578, NSN"
"Negeri Sembilan, MY","Seremban, NSN","70582, NSN"
"Negeri Sembilan, MY","Seremban, NSN","70586, NSN"
"Negeri Sembilan, MY","Seremban, NSN","70590, NSN"
"Negeri Sembilan, MY","Seremban, NSN","70592, NSN"
"Negeri Sembilan, MY","Seremban, NSN","70594, NSN"
"Negeri Sembilan, MY","Seremban, NSN","70596, NSN"
"Negeri Sembilan, MY","Seremban, NSN","70600, NSN"
"Negeri Sembilan, MY","Seremban, NSN","70604, NSN"
"Negeri Sembilan, MY","Seremban, NSN","70606, NSN"
"Negeri Sembilan, MY","Seremban, NSN","70608, NSN"
"Negeri Sembilan, MY","Seremban, NSN","70609, NSN"
"Negeri Sembilan, MY","Seremban, NSN","70610, NSN"
"Negeri Sembilan, MY","Seremban, NSN","70620, NSN"
"Negeri Sembilan, MY","Seremban, NSN","70626, NSN"
"Negeri Sembilan, MY","Seremban, NSN","70628, NSN"
"Negeri Sembilan, MY","Seremban, NSN","70632, NSN"
"Negeri Sembilan, MY","Seremban, NSN","70634, NSN"
"Negeri Sembilan, MY","Seremban, NSN","70644, NSN"
"Negeri Sembilan, MY","Seremban, NSN","70646, NSN"
"Negeri Sembilan, MY","Seremban, NSN","70648, NSN"
"Negeri Sembilan, MY","Seremban, NSN","70658, NSN"
"Negeri Sembilan, MY","Seremban, NSN","70664, NSN"
"Negeri Sembilan, MY","Seremban, NSN","70670, NSN"
"Negeri Sembilan, MY","Seremban, NSN","70672, NSN"
"Negeri Sembilan, MY","Seremban, NSN","70673, NSN"
"Negeri Sembilan, MY","Seremban, NSN","70674, NSN"
"Negeri Sembilan, MY","Seremban, NSN","70676, NSN"
"Negeri Sembilan, MY","Seremban, NSN","70690, NSN"
"Negeri Sembilan, MY","Seremban, NSN","70700, NSN"
"Negeri Sembilan, MY","Seremban, NSN","70710, NSN"
"Negeri Sembilan, MY","Seremban, NSN","70720, NSN"
"Negeri Sembilan, MY","Seremban, NSN","70730, NSN"
"Negeri Sembilan, MY","Seremban, NSN","70740, NSN"
"Negeri Sembilan, MY","Seremban, NSN","70750, NSN"
"Negeri Sembilan, MY","Seremban, NSN","70990, NSN"
"Negeri Sembilan, MY","Port Dickson, NSN","71000, NSN"
"Negeri Sembilan, MY","Port Dickson, NSN","71007, NSN"
"Negeri Sembilan, MY","Port Dickson, NSN","71009, NSN"
"Negeri Sembilan, MY","Rantau, NSN","71010, NSN"
"Negeri Sembilan, MY","Port Dickson, NSN","71010, NSN"
"Negeri Sembilan, MY","Si Rusa, NSN","71050, NSN"
"Negeri Sembilan, MY","Si Rusa, NSN","71059, NSN"
"Negeri Sembilan, MY","Rantau, NSN","71100, NSN"
"Negeri Sembilan, MY","Rantau, NSN","71109, NSN"
"Negeri Sembilan, MY","Linggi, NSN","71150, NSN"
"Negeri Sembilan, MY","Linggi, NSN","71159, NSN"
"Negeri Sembilan, MY","Rantau, NSN","71200, NSN"
"Negeri Sembilan, MY","Rantau, NSN","71209, NSN"
"Negeri Sembilan, MY","Si Rusa, NSN","71250, NSN"
"Negeri Sembilan, MY","Si Rusa, NSN","71259, NSN"
"Negeri Sembilan, MY","Rembau, NSN","71300, NSN"
"Negeri Sembilan, MY","Rembau, NSN","71309, NSN"
"Negeri Sembilan, MY","Kota, NSN","71350, NSN"
"Negeri Sembilan, MY","Kota, NSN","71359, NSN"
"Negeri Sembilan, MY","Rembau, NSN","71400, NSN"
"Negeri Sembilan, MY","Rembau, NSN","71409, NSN"
"Negeri Sembilan, MY","Seremban, NSN","71450, NSN"
"Negeri Sembilan, MY","Seremban, NSN","71459, NSN"
"Negeri Sembilan, MY","Tanjong Ipoh, NSN","71500, NSN"
"Negeri Sembilan, MY","Tanjong Ipoh, NSN","71509, NSN"
"Negeri Sembilan, MY","Tanjong Ipoh, NSN","71550, NSN"
"Negeri Sembilan, MY","Tanjong Ipoh, NSN","71559, NSN"
"Negeri Sembilan, MY","Kuala Klawang, NSN","71600, NSN"
"Negeri Sembilan, MY","Kuala Klawang, NSN","71609, NSN"
"Negeri Sembilan, MY","Kuala Klawang, NSN","71650, NSN"
"Negeri Sembilan, MY","Kuala Klawang, NSN","71659, NSN"
"Negeri Sembilan, MY","Mantin, NSN","71700, NSN"
"Negeri Sembilan, MY","Mantin, NSN","71707, NSN"
"Negeri Sembilan, MY","Mantin, NSN","71709, NSN"
"Negeri Sembilan, MY","Mantin, NSN","71750, NSN"
"Negeri Sembilan, MY","Mantin, NSN","71759, NSN"
"Negeri Sembilan, MY","Bandar Baru Enstek, NSN","71760, NSN"
"Negeri Sembilan, MY","Seremban, NSN","71770, NSN"
"Negeri Sembilan, MY","Nilai, NSN","71800, NSN"
"Negeri Sembilan, MY","Nilai, NSN","71807, NSN"
"Negeri Sembilan, MY","Nilai, NSN","71809, NSN"
"Negeri Sembilan, MY","Labu, NSN","71900, NSN"
"Negeri Sembilan, MY","Labu, NSN","71907, NSN"
"Negeri Sembilan, MY","Labu, NSN","71909, NSN"
"Negeri Sembilan, MY","Seremban, NSN","71950, NSN"
"Negeri Sembilan, MY","Port Dickson, NSN","71960, NSN"
"Negeri Sembilan, MY","Kuala Pilah, NSN","72000, NSN"
"Negeri Sembilan, MY","Kuala Pilah, NSN","72007, NSN"
"Negeri Sembilan, MY","Kuala Pilah, NSN","72009, NSN"
"Negeri Sembilan, MY","Bahau, NSN","72100, NSN"
"Negeri Sembilan, MY","Bahau, NSN","72107, NSN"
"Negeri Sembilan, MY","Bahau, NSN","72109, NSN"
"Negeri Sembilan, MY","Bandar Seri Jempol, NSN","72120, NSN"
"Negeri Sembilan, MY","Bandar Seri Jempol, NSN","72127, NSN"
"Negeri Sembilan, MY","Bandar Seri Jempol, NSN","72129, NSN"
"Negeri Sembilan, MY","Batu Kikir, NSN","72200, NSN"
"Negeri Sembilan, MY","Batu Kikir, NSN","72207, NSN"
"Negeri Sembilan, MY","Batu Kikir, NSN","72209, NSN"
"Negeri Sembilan, MY","Simpang Pertang, NSN","72300, NSN"
"Negeri Sembilan, MY","Simpang Pertang, NSN","72307, NSN"
"Negeri Sembilan, MY","Simpang Pertang, NSN","72309, NSN"
"Negeri Sembilan, MY","Simpang Durian, NSN","72400, NSN"
"Negeri Sembilan, MY","Simpang Durian, NSN","72409, NSN"
"Negeri Sembilan, MY","Kuala Pilah, NSN","72500, NSN"
"Negeri Sembilan, MY","Kuala Pilah, NSN","72507, NSN"
"Negeri Sembilan, MY","Kuala Pilah, NSN","72509, NSN"
"Negeri Sembilan, MY","Johol, NSN","73000, NSN"
"Negeri Sembilan, MY","Tampin, NSN","73000, NSN"
"Negeri Sembilan, MY","Tampin, NSN","73007, NSN"
"Negeri Sembilan, MY","Tampin, NSN","73009, NSN"
"Negeri Sembilan, MY","Johol, NSN","73100, NSN"
"Negeri Sembilan, MY","Johol, NSN","73109, NSN"
"Negeri Sembilan, MY","Gemencheh, NSN","73200, NSN"
"Negeri Sembilan, MY","Gemencheh, NSN","73207, NSN"
"Negeri Sembilan, MY","Gemencheh, NSN","73209, NSN"
"Negeri Sembilan, MY","Gemencheh, NSN","73300, NSN"
"Negeri Sembilan, MY","Gemencheh, NSN","73309, NSN"
"Negeri Sembilan, MY","Gemas, NSN","73400, NSN"
"Negeri Sembilan, MY","Gemas, NSN","73409, NSN"
"Negeri Sembilan, MY","Gemas, NSN","73420, NSN"
"Negeri Sembilan, MY","Pusat Bandar Palong, NSN","73430, NSN"
"Negeri Sembilan, MY","Pusat Bandar Palong, NSN","73440, NSN"
"Negeri Sembilan, MY","Pusat Bandar Palong, NSN","73450, NSN"
"Negeri Sembilan, MY","Pusat Bandar Palong, NSN","73460, NSN"
"Negeri Sembilan, MY","Pusat Bandar Palong, NSN","73470, NSN"
"Negeri Sembilan, MY","Gemas, NSN","73480, NSN"
"Negeri Sembilan, MY","Rompin, NSN","73500, NSN"
"Negeri Sembilan, MY","Rompin, NSN","73507, NSN"
"Negeri Sembilan, MY","Rompin, NSN","73509, NSN"
"Pahang, MY","Kuantan, PHG","25000, PHG"
"Pahang, MY","Kuantan, PHG","25050, PHG"
"Pahang, MY","Kuantan, PHG","25100, PHG"
"Pahang, MY","Kuantan, PHG","25150, PHG"
"Pahang, MY","Kuantan, PHG","25200, PHG"
"Pahang, MY","Kuantan, PHG","25250, PHG"
"Pahang, MY","Kuantan, PHG","25300, PHG"
"Pahang, MY","Kuantan, PHG","25350, PHG"
"Pahang, MY","Kuantan, PHG","25500, PHG"
"Pahang, MY","Kuantan, PHG","25502, PHG"
"Pahang, MY","Kuantan, PHG","25503, PHG"
"Pahang, MY","Kuantan, PHG","25504, PHG"
"Pahang, MY","Kuantan, PHG","25505, PHG"
"Pahang, MY","Kuantan, PHG","25506, PHG"
"Pahang, MY","Kuantan, PHG","25508, PHG"
"Pahang, MY","Kuantan, PHG","25509, PHG"
"Pahang, MY","Kuantan, PHG","25512, PHG"
"Pahang, MY","Kuantan, PHG","25514, PHG"
"Pahang, MY","Kuantan, PHG","25516, PHG"
"Pahang, MY","Kuantan, PHG","25517, PHG"
"Pahang, MY","Kuantan, PHG","25518, PHG"
"Pahang, MY","Kuantan, PHG","25520, PHG"
"Pahang, MY","Kuantan, PHG","25524, PHG"
"Pahang, MY","Kuantan, PHG","25529, PHG"
"Pahang, MY","Kuantan, PHG","25532, PHG"
"Pahang, MY","Kuantan, PHG","25534, PHG"
"Pahang, MY","Kuantan, PHG","25536, PHG"
"Pahang, MY","Kuantan, PHG","25538, PHG"
"Pahang, MY","Kuantan, PHG","25540, PHG"
"Pahang, MY","Kuantan, PHG","25546, PHG"
"Pahang, MY","Kuantan, PHG","25548, PHG"
"Pahang, MY","Kuantan, PHG","25550, PHG"
"Pahang, MY","Kuantan, PHG","25551, PHG"
"Pahang, MY","Kuantan, PHG","25552, PHG"
"Pahang, MY","Kuantan, PHG","25556, PHG"
"Pahang, MY","Kuantan, PHG","25558, PHG"
"Pahang, MY","Kuantan, PHG","25560, PHG"
"Pahang, MY","Kuantan, PHG","25564, PHG"
"Pahang, MY","Kuantan, PHG","25570, PHG"
"Pahang, MY","Kuantan, PHG","25576, PHG"
"Pahang, MY","Kuantan, PHG","25578, PHG"
"Pahang, MY","Kuantan, PHG","25582, PHG"
"Pahang, MY","Kuantan, PHG","25584, PHG"
"Pahang, MY","Kuantan, PHG","25586, PHG"
"Pahang, MY","Kuantan, PHG","25590, PHG"
"Pahang, MY","Kuantan, PHG","25592, PHG"
"Pahang, MY","Kuantan, PHG","25594, PHG"
"Pahang, MY","Kuantan, PHG","25596, PHG"
"Pahang, MY","Kuantan, PHG","25598, PHG"
"Pahang, MY","Kuantan, PHG","25600, PHG"
"Pahang, MY","Kuantan, PHG","25604, PHG"
"Pahang, MY","Kuantan, PHG","25606, PHG"
"Pahang, MY","Kuantan, PHG","25608, PHG"
"Pahang, MY","Kuantan, PHG","25609, PHG"
"Pahang, MY","Kuantan, PHG","25610, PHG"
"Pahang, MY","Kuantan, PHG","25612, PHG"
"Pahang, MY","Kuantan, PHG","25614, PHG"
"Pahang, MY","Kuantan, PHG","25620, PHG"
"Pahang, MY","Kuantan, PHG","25622, PHG"
"Pahang, MY","Kuantan, PHG","25626, PHG"
"Pahang, MY","Kuantan, PHG","25628, PHG"
"Pahang, MY","Kuantan, PHG","25630, PHG"
"Pahang, MY","Kuantan, PHG","25632, PHG"
"Pahang, MY","Kuantan, PHG","25644, PHG"
"Pahang, MY","Kuantan, PHG","25646, PHG"
"Pahang, MY","Kuantan, PHG","25648, PHG"
"Pahang, MY","Kuantan, PHG","25656, PHG"
"Pahang, MY","Kuantan, PHG","25660, PHG"
"Pahang, MY","Kuantan, PHG","25661, PHG"
"Pahang, MY","Kuantan, PHG","25662, PHG"
"Pahang, MY","Kuantan, PHG","25670, PHG"
"Pahang, MY","Kuantan, PHG","25672, PHG"
"Pahang, MY","Kuantan, PHG","25673, PHG"
"Pahang, MY","Kuantan, PHG","25674, PHG"
"Pahang, MY","Kuantan, PHG","25676, PHG"
"Pahang, MY","Kuantan, PHG","25690, PHG"
"Pahang, MY","Kuantan, PHG","25700, PHG"
"Pahang, MY","Kuantan, PHG","25710, PHG"
"Pahang, MY","Kuantan, PHG","25720, PHG"
"Pahang, MY","Kuantan, PHG","25730, PHG"
"Pahang, MY","Kuantan, PHG","25740, PHG"
"Pahang, MY","Kuantan, PHG","25750, PHG"
"Pahang, MY","Kuantan, PHG","25990, PHG"
"Pahang, MY","Kuantan, PHG","26010, PHG"
"Pahang, MY","Kuantan, PHG","26040, PHG"
"Pahang, MY","Bukit Goh, PHG","26050, PHG"
"Pahang, MY","Kuantan, PHG","26060, PHG"
"Pahang, MY","Kuantan, PHG","26070, PHG"
"Pahang, MY","Kuantan, PHG","26080, PHG"
"Pahang, MY","Balok, PHG","26080, PHG"
"Pahang, MY","Bukit Goh, PHG","26090, PHG"
"Pahang, MY","Kuantan, PHG","26100, PHG"
"Pahang, MY","Balok, PHG","26100, PHG"
"Pahang, MY","Kuantan, PHG","26140, PHG"
"Pahang, MY","Balok, PHG","26150, PHG"
"Pahang, MY","Kuantan, PHG","26170, PHG"
"Pahang, MY","Kuantan, PHG","26180, PHG"
"Pahang, MY","Balok, PHG","26190, PHG"
"Pahang, MY","Sungai Lembing, PHG","26200, PHG"
"Pahang, MY","Jaya Gading, PHG","26250, PHG"
"Pahang, MY","Gambang, PHG","26300, PHG"
"Pahang, MY","Gambang, PHG","26310, PHG"
"Pahang, MY","Gambang, PHG","26320, PHG"
"Pahang, MY","Gambang, PHG","26330, PHG"
"Pahang, MY","Gambang, PHG","26340, PHG"
"Pahang, MY","Gambang, PHG","26350, PHG"
"Pahang, MY","Gambang, PHG","26360, PHG"
"Pahang, MY","Gambang, PHG","26370, PHG"
"Pahang, MY","Bandar Pusat Jengka, PHG","26400, PHG"
"Pahang, MY","Bandar Pusat Jengka, PHG","26400, PHG"
"Pahang, MY","Bandar Pusat Jengka, PHG","26410, PHG"
"Pahang, MY","Bandar Pusat Jengka, PHG","26420, PHG"
"Pahang, MY","Bandar Pusat Jengka, PHG","26430, PHG"
"Pahang, MY","Bandar Pusat Jengka, PHG","26430, PHG"
"Pahang, MY","Bandar Pusat Jengka, PHG","26440, PHG"
"Pahang, MY","Bandar Pusat Jengka, PHG","26450, PHG"
"Pahang, MY","Bandar Pusat Jengka, PHG","26460, PHG"
"Pahang, MY","Bandar Pusat Jengka, PHG","26485, PHG"
"Pahang, MY","Bandar Pusat Jengka, PHG","26490, PHG"
"Pahang, MY","Maran, PHG","26500, PHG"
"Pahang, MY","Bandar Pusat Jengka, PHG","26500, PHG"
"Pahang, MY","Pekan, PHG","26600, PHG"
"Pahang, MY","Pekan, PHG","26607, PHG"
"Pahang, MY","Pekan, PHG","26609, PHG"
"Pahang, MY","Pekan, PHG","26610, PHG"
"Pahang, MY","Pekan, PHG","26620, PHG"
"Pahang, MY","Pekan, PHG","26630, PHG"
"Pahang, MY","Pekan, PHG","26640, PHG"
"Pahang, MY","Pekan, PHG","26650, PHG"
"Pahang, MY","Pekan, PHG","26660, PHG"
"Pahang, MY","Pekan, PHG","26680, PHG"
"Pahang, MY","Chini, PHG","26690, PHG"
"Pahang, MY","Muadzam Shah, PHG","26700, PHG"
"Pahang, MY","Kuala Rompin, PHG","26800, PHG"
"Pahang, MY","Kuala Rompin, PHG","26810, PHG"
"Pahang, MY","Kuala Rompin, PHG","26820, PHG"
"Pahang, MY","Bandar Tun Abdul Razak, PHG","26900, PHG"
"Pahang, MY","Jerantut, PHG","27000, PHG"
"Pahang, MY","Jerantut, PHG","27010, PHG"
"Pahang, MY","Jerantut, PHG","27020, PHG"
"Pahang, MY","Damak, PHG","27030, PHG"
"Pahang, MY","Jerantut, PHG","27040, PHG"
"Pahang, MY","Jerantut, PHG","27050, PHG"
"Pahang, MY","Jerantut, PHG","27060, PHG"
"Pahang, MY","Jerantut, PHG","27070, PHG"
"Pahang, MY","Jerantut, PHG","27090, PHG"
"Pahang, MY","Padang Tengku, PHG","27100, PHG"
"Pahang, MY","Jerantut, PHG","27150, PHG"
"Pahang, MY","Kuala Lipis, PHG","27200, PHG"
"Pahang, MY","Kuala Lipis, PHG","27207, PHG"
"Pahang, MY","Kuala Lipis, PHG","27209, PHG"
"Pahang, MY","Kuala Lipis, PHG","27210, PHG"
"Pahang, MY","Benta, PHG","27300, PHG"
"Pahang, MY","Benta, PHG","27310, PHG"
"Pahang, MY","Dong, PHG","27400, PHG"
"Pahang, MY","Raub, PHG","27600, PHG"
"Pahang, MY","Raub, PHG","27607, PHG"
"Pahang, MY","Raub, PHG","27609, PHG"
"Pahang, MY","Raub, PHG","27610, PHG"
"Pahang, MY","Raub, PHG","27620, PHG"
"Pahang, MY","Raub, PHG","27630, PHG"
"Pahang, MY","Sungai Ruan, PHG","27630, PHG"
"Pahang, MY","Sungai Koyan, PHG","27650, PHG"
"Pahang, MY","Sega, PHG","27660, PHG"
"Pahang, MY","Raub, PHG","27670, PHG"
"Pahang, MY","Temerloh, PHG","28000, PHG"
"Pahang, MY","Temerloh, PHG","28007, PHG"
"Pahang, MY","Temerloh, PHG","28009, PHG"
"Pahang, MY","Temerloh, PHG","28010, PHG"
"Pahang, MY","Temerloh, PHG","28020, PHG"
"Pahang, MY","Temerloh, PHG","28030, PHG"
"Pahang, MY","Temerloh, PHG","28040, PHG"
"Pahang, MY","Kuala Krau, PHG","28050, PHG"
"Pahang, MY","Chenor, PHG","28100, PHG"
"Pahang, MY","Triang, PHG","28200, PHG"
"Pahang, MY","Bandar Bera, PHG","28200, PHG"
"Pahang, MY","Triang, PHG","28300, PHG"
"Pahang, MY","Triang, PHG","28310, PHG"
"Pahang, MY","Triang, PHG","28320, PHG"
"Pahang, MY","Triang, PHG","28330, PHG"
"Pahang, MY","Kemayan, PHG","28340, PHG"
"Pahang, MY","Kemayan, PHG","28380, PHG"
"Pahang, MY","Mentakab, PHG","28400, PHG"
"Pahang, MY","Mentakab, PHG","28407, PHG"
"Pahang, MY","Mentakab, PHG","28409, PHG"
"Pahang, MY","Lanchang, PHG","28500, PHG"
"Pahang, MY","Karak, PHG","28600, PHG"
"Pahang, MY","Karak, PHG","28610, PHG"
"Pahang, MY","Karak, PHG","28620, PHG"
"Pahang, MY","Bentong, PHG","28700, PHG"
"Pahang, MY","Bentong, PHG","28707, PHG"
"Pahang, MY","Bentong, PHG","28709, PHG"
"Pahang, MY","Bentong, PHG","28730, PHG"
"Pahang, MY","Bentong, PHG","28740, PHG"
"Pahang, MY","Bentong, PHG","28750, PHG"
"Pahang, MY","Lurah Bilut, PHG","28800, PHG"
"Pahang, MY","Tanah Rata, PHG","39000, PHG"
"Pahang, MY","Tanah Rata, PHG","39007, PHG"
"Pahang, MY","Tanah Rata, PHG","39009, PHG"
"Pahang, MY","Tanah Rata, PHG","39010, PHG"
"Pahang, MY","Brinchang, PHG","39100, PHG"
"Pahang, MY","Ringlet, PHG","39200, PHG"
"Pahang, MY","Bukit Fraser, PHG","49000, PHG"
"Pahang, MY","Genting Highlands, PHG","69000, PHG"
"Putrajaya, MY","Putrajaya, PJY","62000, PJY"
"Putrajaya, MY","Putrajaya, PJY","62007, PJY"
"Putrajaya, MY","Putrajaya, PJY","62050, PJY"
"Putrajaya, MY","Putrajaya, PJY","62100, PJY"
"Putrajaya, MY","Putrajaya, PJY","62150, PJY"
"Putrajaya, MY","Putrajaya, PJY","62200, PJY"
"Putrajaya, MY","Putrajaya, PJY","62250, PJY"
"Putrajaya, MY","Putrajaya, PJY","62300, PJY"
"Putrajaya, MY","Putrajaya, PJY","62502, PJY"
"Putrajaya, MY","Putrajaya, PJY","62504, PJY"
"Putrajaya, MY","Putrajaya, PJY","62505, PJY"
"Putrajaya, MY","Putrajaya, PJY","62506, PJY"
"Putrajaya, MY","Putrajaya, PJY","62510, PJY"
"Putrajaya, MY","Putrajaya, PJY","62512, PJY"
"Putrajaya, MY","Putrajaya, PJY","62514, PJY"
"Putrajaya, MY","Putrajaya, PJY","62516, PJY"
"Putrajaya, MY","Putrajaya, PJY","62517, PJY"
"Putrajaya, MY","Putrajaya, PJY","62518, PJY"
"Putrajaya, MY","Putrajaya, PJY","62519, PJY"
"Putrajaya, MY","Putrajaya, PJY","62520, PJY"
"Putrajaya, MY","Putrajaya, PJY","62522, PJY"
"Putrajaya, MY","Putrajaya, PJY","62524, PJY"
"Putrajaya, MY","Putrajaya, PJY","62526, PJY"
"Putrajaya, MY","Putrajaya, PJY","62527, PJY"
"Putrajaya, MY","Putrajaya, PJY","62530, PJY"
"Putrajaya, MY","Putrajaya, PJY","62532, PJY"
"Putrajaya, MY","Putrajaya, PJY","62536, PJY"
"Putrajaya, MY","Putrajaya, PJY","62540, PJY"
"Putrajaya, MY","Putrajaya, PJY","62542, PJY"
"Putrajaya, MY","Putrajaya, PJY","62546, PJY"
"Putrajaya, MY","Putrajaya, PJY","62550, PJY"
"Putrajaya, MY","Putrajaya, PJY","62551, PJY"
"Putrajaya, MY","Putrajaya, PJY","62570, PJY"
"Putrajaya, MY","Putrajaya, PJY","62574, PJY"
"Putrajaya, MY","Putrajaya, PJY","62576, PJY"
"Putrajaya, MY","Putrajaya, PJY","62582, PJY"
"Putrajaya, MY","Putrajaya, PJY","62584, PJY"
"Putrajaya, MY","Putrajaya, PJY","62590, PJY"
"Putrajaya, MY","Putrajaya, PJY","62592, PJY"
"Putrajaya, MY","Putrajaya, PJY","62594, PJY"
"Putrajaya, MY","Putrajaya, PJY","62596, PJY"
"Putrajaya, MY","Putrajaya, PJY","62602, PJY"
"Putrajaya, MY","Putrajaya, PJY","62604, PJY"
"Putrajaya, MY","Putrajaya, PJY","62605, PJY"
"Putrajaya, MY","Putrajaya, PJY","62606, PJY"
"Putrajaya, MY","Putrajaya, PJY","62616, PJY"
"Putrajaya, MY","Putrajaya, PJY","62618, PJY"
"Putrajaya, MY","Putrajaya, PJY","62620, PJY"
"Putrajaya, MY","Putrajaya, PJY","62623, PJY"
"Putrajaya, MY","Putrajaya, PJY","62624, PJY"
"Putrajaya, MY","Putrajaya, PJY","62628, PJY"
"Putrajaya, MY","Putrajaya, PJY","62630, PJY"
"Putrajaya, MY","Putrajaya, PJY","62632, PJY"
"Putrajaya, MY","Putrajaya, PJY","62648, PJY"
"Putrajaya, MY","Putrajaya, PJY","62652, PJY"
"Putrajaya, MY","Putrajaya, PJY","62654, PJY"
"Putrajaya, MY","Putrajaya, PJY","62662, PJY"
"Putrajaya, MY","Putrajaya, PJY","62668, PJY"
"Putrajaya, MY","Putrajaya, PJY","62670, PJY"
"Putrajaya, MY","Putrajaya, PJY","62674, PJY"
"Putrajaya, MY","Putrajaya, PJY","62675, PJY"
"Putrajaya, MY","Putrajaya, PJY","62676, PJY"
"Putrajaya, MY","Putrajaya, PJY","62677, PJY"
"Putrajaya, MY","Putrajaya, PJY","62686, PJY"
"Putrajaya, MY","Putrajaya, PJY","62692, PJY"
"Putrajaya, MY","Putrajaya, PJY","62988, PJY"
"Perlis, MY","Kangar, PLS","1000, PLS"
"Perlis, MY","Kangar, PLS","1007, PLS"
"Perlis, MY","Kangar, PLS","1009, PLS"
"Perlis, MY","Kangar, PLS","1500, PLS"
"Perlis, MY","Kangar, PLS","1502, PLS"
"Perlis, MY","Kangar, PLS","1503, PLS"
"Perlis, MY","Kangar, PLS","1504, PLS"
"Perlis, MY","Kangar, PLS","1505, PLS"
"Perlis, MY","Kangar, PLS","1506, PLS"
"Perlis, MY","Kangar, PLS","1508, PLS"
"Perlis, MY","Kangar, PLS","1512, PLS"
"Perlis, MY","Kangar, PLS","1514, PLS"
"Perlis, MY","Kangar, PLS","1516, PLS"
"Perlis, MY","Kangar, PLS","1517, PLS"
"Perlis, MY","Kangar, PLS","1518, PLS"
"Perlis, MY","Kangar, PLS","1524, PLS"
"Perlis, MY","Kangar, PLS","1529, PLS"
"Perlis, MY","Kangar, PLS","1532, PLS"
"Perlis, MY","Kangar, PLS","1538, PLS"
"Perlis, MY","Kangar, PLS","1540, PLS"
"Perlis, MY","Kangar, PLS","1546, PLS"
"Perlis, MY","Kangar, PLS","1550, PLS"
"Perlis, MY","Kangar, PLS","1551, PLS"
"Perlis, MY","Kangar, PLS","1556, PLS"
"Perlis, MY","Kangar, PLS","1560, PLS"
"Perlis, MY","Kangar, PLS","1564, PLS"
"Perlis, MY","Kangar, PLS","1570, PLS"
"Perlis, MY","Kangar, PLS","1572, PLS"
"Perlis, MY","Kangar, PLS","1576, PLS"
"Perlis, MY","Kangar, PLS","1578, PLS"
"Perlis, MY","Kangar, PLS","1582, PLS"
"Perlis, MY","Kangar, PLS","1586, PLS"
"Perlis, MY","Kangar, PLS","1590, PLS"
"Perlis, MY","Kangar, PLS","1592, PLS"
"Perlis, MY","Kangar, PLS","1594, PLS"
"Perlis, MY","Kangar, PLS","1596, PLS"
"Perlis, MY","Kangar, PLS","1598, PLS"
"Perlis, MY","Kangar, PLS","1600, PLS"
"Perlis, MY","Kangar, PLS","1604, PLS"
"Perlis, MY","Kangar, PLS","1606, PLS"
"Perlis, MY","Kangar, PLS","1608, PLS"
"Perlis, MY","Kangar, PLS","1609, PLS"
"Perlis, MY","Kangar, PLS","1610, PLS"
"Perlis, MY","Kangar, PLS","1612, PLS"
"Perlis, MY","Kangar, PLS","1614, PLS"
"Perlis, MY","Kangar, PLS","1620, PLS"
"Perlis, MY","Kangar, PLS","1622, PLS"
"Perlis, MY","Kangar, PLS","1626, PLS"
"Perlis, MY","Kangar, PLS","1628, PLS"
"Perlis, MY","Kangar, PLS","1630, PLS"
"Perlis, MY","Kangar, PLS","1632, PLS"
"Perlis, MY","Kangar, PLS","1634, PLS"
"Perlis, MY","Kangar, PLS","1644, PLS"
"Perlis, MY","Kangar, PLS","1646, PLS"
"Perlis, MY","Kangar, PLS","1648, PLS"
"Perlis, MY","Kangar, PLS","1660, PLS"
"Perlis, MY","Kangar, PLS","1664, PLS"
"Perlis, MY","Kangar, PLS","1670, PLS"
"Perlis, MY","Kangar, PLS","1672, PLS"
"Perlis, MY","Kangar, PLS","1673, PLS"
"Perlis, MY","Kangar, PLS","1674, PLS"
"Perlis, MY","Kangar, PLS","1676, PLS"
"Perlis, MY","Kangar, PLS","1680, PLS"
"Perlis, MY","Kangar, PLS","1694, PLS"
"Perlis, MY","Kuala Perlis, PLS","2000, PLS"
"Perlis, MY","Padang Besar, PLS","2100, PLS"
"Perlis, MY","Kaki Bukit, PLS","2200, PLS"
"Perlis, MY","Kangar, PLS","2400, PLS"
"Perlis, MY","Kangar, PLS","2450, PLS"
"Perlis, MY","Kangar, PLS","2500, PLS"
"Perlis, MY","Arau, PLS","2600, PLS"
"Perlis, MY","Arau, PLS","2607, PLS"
"Perlis, MY","Arau, PLS","2609, PLS"
"Perlis, MY","Simpang Ampat, PLS","2700, PLS"
"Perlis, MY","Simpang Ampat, PLS","2707, PLS"
"Perlis, MY","Simpang Ampat, PLS","2709, PLS"
"Perlis, MY","Simpang Ampat, PLS","2800, PLS"
"Pulau Pinang, MY","Pulau Pinang, PNG","10000, PNG"
"Pulau Pinang, MY","Pulau Pinang, PNG","10050, PNG"
"Pulau Pinang, MY","Pulau Pinang, PNG","10100, PNG"
"Pulau Pinang, MY","Pulau Pinang, PNG","10150, PNG"
"Pulau Pinang, MY","Pulau Pinang, PNG","10200, PNG"
"Pulau Pinang, MY","Pulau Pinang, PNG","10250, PNG"
"Pulau Pinang, MY","Pulau Pinang, PNG","10300, PNG"
"Pulau Pinang, MY","Pulau Pinang, PNG","10350, PNG"
"Pulau Pinang, MY","Pulau Pinang, PNG","10400, PNG"
"Pulau Pinang, MY","Pulau Pinang, PNG","10450, PNG"
"Pulau Pinang, MY","Pulau Pinang, PNG","10460, PNG"
"Pulau Pinang, MY","Pulau Pinang, PNG","10470, PNG"
"Pulau Pinang, MY","Pulau Pinang, PNG","10500, PNG"
"Pulau Pinang, MY","Pulau Pinang, PNG","10502, PNG"
"Pulau Pinang, MY","Pulau Pinang, PNG","10503, PNG"
"Pulau Pinang, MY","Pulau Pinang, PNG","10504, PNG"
"Pulau Pinang, MY","Pulau Pinang, PNG","10505, PNG"
"Pulau Pinang, MY","Pulau Pinang, PNG","10506, PNG"
"Pulau Pinang, MY","Pulau Pinang, PNG","10508, PNG"
"Pulau Pinang, MY","Pulau Pinang, PNG","10512, PNG"
"Pulau Pinang, MY","Pulau Pinang, PNG","10514, PNG"
"Pulau Pinang, MY","Pulau Pinang, PNG","10516, PNG"
"Pulau Pinang, MY","Pulau Pinang, PNG","10518, PNG"
"Pulau Pinang, MY","Pulau Pinang, PNG","10524, PNG"
"Pulau Pinang, MY","Pulau Pinang, PNG","10534, PNG"
"Pulau Pinang, MY","Pulau Pinang, PNG","10538, PNG"
"Pulau Pinang, MY","Pulau Pinang, PNG","10540, PNG"
"Pulau Pinang, MY","Pulau Pinang, PNG","10542, PNG"
"Pulau Pinang, MY","Pulau Pinang, PNG","10546, PNG"
"Pulau Pinang, MY","Pulau Pinang, PNG","10550, PNG"
"Pulau Pinang, MY","Pulau Pinang, PNG","10551, PNG"
"Pulau Pinang, MY","Pulau Pinang, PNG","10552, PNG"
"Pulau Pinang, MY","Pulau Pinang, PNG","10558, PNG"
"Pulau Pinang, MY","Pulau Pinang, PNG","10560, PNG"
"Pulau Pinang, MY","Pulau Pinang, PNG","10564, PNG"
"Pulau Pinang, MY","Pulau Pinang, PNG","10566, PNG"
"Pulau Pinang, MY","Pulau Pinang, PNG","10570, PNG"
"Pulau Pinang, MY","Pulau Pinang, PNG","10576, PNG"
"Pulau Pinang, MY","Pulau Pinang, PNG","10578, PNG"
"Pulau Pinang, MY","Pulau Pinang, PNG","10582, PNG"
"Pulau Pinang, MY","Pulau Pinang, PNG","10590, PNG"
"Pulau Pinang, MY","Pulau Pinang, PNG","10592, PNG"
"Pulau Pinang, MY","Pulau Pinang, PNG","10593, PNG"
"Pulau Pinang, MY","Pulau Pinang, PNG","10594, PNG"
"Pulau Pinang, MY","Pulau Pinang, PNG","10596, PNG"
"Pulau Pinang, MY","Pulau Pinang, PNG","10600, PNG"
"Pulau Pinang, MY","Pulau Pinang, PNG","10604, PNG"
"Pulau Pinang, MY","Pulau Pinang, PNG","10609, PNG"
"Pulau Pinang, MY","Pulau Pinang, PNG","10610, PNG"
"Pulau Pinang, MY","Pulau Pinang, PNG","10612, PNG"
"Pulau Pinang, MY","Pulau Pinang, PNG","10620, PNG"
"Pulau Pinang, MY","Pulau Pinang, PNG","10622, PNG"
"Pulau Pinang, MY","Pulau Pinang, PNG","10626, PNG"
"Pulau Pinang, MY","Pulau Pinang, PNG","10628, PNG"
"Pulau Pinang, MY","Pulau Pinang, PNG","10634, PNG"
"Pulau Pinang, MY","Pulau Pinang, PNG","10646, PNG"
"Pulau Pinang, MY","Pulau Pinang, PNG","10648, PNG"
"Pulau Pinang, MY","Pulau Pinang, PNG","10660, PNG"
"Pulau Pinang, MY","Pulau Pinang, PNG","10661, PNG"
"Pulau Pinang, MY","Pulau Pinang, PNG","10662, PNG"
"Pulau Pinang, MY","Pulau Pinang, PNG","10670, PNG"
"Pulau Pinang, MY","Pulau Pinang, PNG","10672, PNG"
"Pulau Pinang, MY","Pulau Pinang, PNG","10673, PNG"
"Pulau Pinang, MY","Pulau Pinang, PNG","10674, PNG"
"Pulau Pinang, MY","Pulau Pinang, PNG","10676, PNG"
"Pulau Pinang, MY","Pulau Pinang, PNG","10690, PNG"
"Pulau Pinang, MY","Pulau Pinang, PNG","10710, PNG"
"Pulau Pinang, MY","Pulau Pinang, PNG","10720, PNG"
"Pulau Pinang, MY","Pulau Pinang, PNG","10730, PNG"
"Pulau Pinang, MY","Pulau Pinang, PNG","10740, PNG"
"Pulau Pinang, MY","Pulau Pinang, PNG","10750, PNG"
"Pulau Pinang, MY","Pulau Pinang, PNG","10760, PNG"
"Pulau Pinang, MY","Pulau Pinang, PNG","10770, PNG"
"Pulau Pinang, MY","Pulau Pinang, PNG","10780, PNG"
"Pulau Pinang, MY","Pulau Pinang, PNG","10790, PNG"
"Pulau Pinang, MY","Pulau Pinang, PNG","10800, PNG"
"Pulau Pinang, MY","Pulau Pinang, PNG","10810, PNG"
"Pulau Pinang, MY","Pulau Pinang, PNG","10820, PNG"
"Pulau Pinang, MY","Pulau Pinang, PNG","10830, PNG"
"Pulau Pinang, MY","Pulau Pinang, PNG","10840, PNG"
"Pulau Pinang, MY","Pulau Pinang, PNG","10850, PNG"
"Pulau Pinang, MY","Pulau Pinang, PNG","10910, PNG"
"Pulau Pinang, MY","Pulau Pinang, PNG","10920, PNG"
"Pulau Pinang, MY","Pulau Pinang, PNG","10990, PNG"
"Pulau Pinang, MY","Balik Pulau, PNG","11000, PNG"
"Pulau Pinang, MY","Balik Pulau, PNG","11010, PNG"
"Pulau Pinang, MY","Balik Pulau, PNG","11020, PNG"
"Pulau Pinang, MY","Pulau Pinang, PNG","11050, PNG"
"Pulau Pinang, MY","Pulau Pinang, PNG","11060, PNG"
"Pulau Pinang, MY","Batu Ferringhi, PNG","11100, PNG"
"Pulau Pinang, MY","Tanjung Bungah, PNG","11200, PNG"
"Pulau Pinang, MY","Tanjong Bungah, PNG","11200, PNG"
"Pulau Pinang, MY","Penang Hill, PNG","11300, PNG"
"Pulau Pinang, MY","Pulau Pinang, PNG","11400, PNG"
"Pulau Pinang, MY","Pulau Pinang, PNG","11409, PNG"
"Pulau Pinang, MY","Ayer Itam, PNG","11500, PNG"
"Pulau Pinang, MY","Jelutong, PNG","11600, PNG"
"Pulau Pinang, MY","Jelutong, PNG","11609, PNG"
"Pulau Pinang, MY","Gelugor, PNG","11700, PNG"
"Pulau Pinang, MY","USM Pulau Pinang, PNG","11800, PNG"
"Pulau Pinang, MY","Batu Maung, PNG","11900, PNG"
"Pulau Pinang, MY","Bayan Lepas, PNG","11900, PNG"
"Pulau Pinang, MY","Bayan Lepas, PNG","11910, PNG"
"Pulau Pinang, MY","Bayan Lepas, PNG","11920, PNG"
"Pulau Pinang, MY","Bayan Lepas, PNG","11950, PNG"
"Pulau Pinang, MY","Batu Maung, PNG","11960, PNG"
"Pulau Pinang, MY","Butterworth, PNG","12000, PNG"
"Pulau Pinang, MY","Butterworth, PNG","12100, PNG"
"Pulau Pinang, MY","Butterworth, PNG","12200, PNG"
"Pulau Pinang, MY","Butterworth, PNG","12300, PNG"
"Pulau Pinang, MY","Butterworth, PNG","12700, PNG"
"Pulau Pinang, MY","Butterworth, PNG","12710, PNG"
"Pulau Pinang, MY","Butterworth, PNG","12720, PNG"
"Pulau Pinang, MY","Butterworth, PNG","12990, PNG"
"Pulau Pinang, MY","Butterworth, PNG","13000, PNG"
"Pulau Pinang, MY","Butterworth, PNG","13009, PNG"
"Pulau Pinang, MY","Butterworth, PNG","13020, PNG"
"Pulau Pinang, MY","Butterworth, PNG","13050, PNG"
"Pulau Pinang, MY","Penaga, PNG","13100, PNG"
"Pulau Pinang, MY","Penaga, PNG","13110, PNG"
"Pulau Pinang, MY","Kepala Batas, PNG","13200, PNG"
"Pulau Pinang, MY","Kepala Batas, PNG","13210, PNG"
"Pulau Pinang, MY","Kepala Batas, PNG","13220, PNG"
"Pulau Pinang, MY","Tasek Gelugur, PNG","13300, PNG"
"Pulau Pinang, MY","Tasek Gelugor, PNG","13300, PNG"
"Pulau Pinang, MY","Tasek Gelugor, PNG","13310, PNG"
"Pulau Pinang, MY","Butterworth, PNG","13400, PNG"
"Pulau Pinang, MY","Butterworth, PNG","13409, PNG"
"Pulau Pinang, MY","Permatang Pauh, PNG","13500, PNG"
"Pulau Pinang, MY","Perai, PNG","13600, PNG"
"Pulau Pinang, MY","Perai, PNG","13700, PNG"
"Pulau Pinang, MY","Butterworth, PNG","13800, PNG"
"Pulau Pinang, MY","Bukit Mertajam, PNG","14000, PNG"
"Pulau Pinang, MY","Bukit Mertajam, PNG","14007, PNG"
"Pulau Pinang, MY","Bukit Mertajam, PNG","14009, PNG"
"Pulau Pinang, MY","Bukit Mertajam, PNG","14020, PNG"
"Pulau Pinang, MY","Simpang Ampat, PNG","14100, PNG"
"Pulau Pinang, MY","Simpang Ampat, PNG","14101, PNG"
"Pulau Pinang, MY","Simpang Ampat, PNG","14110, PNG"
"Pulau Pinang, MY","Simpang Ampat, PNG","14120, PNG"
"Pulau Pinang, MY","Simpang Ampat, PNG","14200, PNG"
"Pulau Pinang, MY","Sungai Jawi, PNG","14200, PNG"
"Pulau Pinang, MY","Nibong Tebal, PNG","14300, PNG"
"Pulau Pinang, MY","Nibong Tebal, PNG","14310, PNG"
"Pulau Pinang, MY","Nibong Tebal, PNG","14320, PNG"
"Pulau Pinang, MY","Kubang Semang, PNG","14400, PNG"
"Perak, MY","Ipoh, PRK","30000, PRK"
"Perak, MY","Ipoh, PRK","30010, PRK"
"Perak, MY","Ipoh, PRK","30020, PRK"
"Perak, MY","Ipoh, PRK","30100, PRK"
"Perak, MY","Ipoh, PRK","30200, PRK"
"Perak, MY","Ipoh, PRK","30250, PRK"
"Perak, MY","Ipoh, PRK","30300, PRK"
"Perak, MY","Ipoh, PRK","30350, PRK"
"Perak, MY","Ipoh, PRK","30450, PRK"
"Perak, MY","Ipoh, PRK","30500, PRK"
"Perak, MY","Ipoh, PRK","30502, PRK"
"Perak, MY","Ipoh, PRK","30503, PRK"
"Perak, MY","Ipoh, PRK","30504, PRK"
"Perak, MY","Ipoh, PRK","30505, PRK"
"Perak, MY","Ipoh, PRK","30506, PRK"
"Perak, MY","Ipoh, PRK","30508, PRK"
"Perak, MY","Ipoh, PRK","30510, PRK"
"Perak, MY","Ipoh, PRK","30512, PRK"
"Perak, MY","Ipoh, PRK","30516, PRK"
"Perak, MY","Ipoh, PRK","30517, PRK"
"Perak, MY","Ipoh, PRK","30518, PRK"
"Perak, MY","Ipoh, PRK","30519, PRK"
"Perak, MY","Ipoh, PRK","30520, PRK"
"Perak, MY","Ipoh, PRK","30524, PRK"
"Perak, MY","Ipoh, PRK","30532, PRK"
"Perak, MY","Ipoh, PRK","30534, PRK"
"Perak, MY","Ipoh, PRK","30536, PRK"
"Perak, MY","Ipoh, PRK","30540, PRK"
"Perak, MY","Ipoh, PRK","30542, PRK"
"Perak, MY","Ipoh, PRK","30546, PRK"
"Perak, MY","Ipoh, PRK","30548, PRK"
"Perak, MY","Ipoh, PRK","30550, PRK"
"Perak, MY","Ipoh, PRK","30551, PRK"
"Perak, MY","Ipoh, PRK","30552, PRK"
"Perak, MY","Ipoh, PRK","30554, PRK"
"Perak, MY","Ipoh, PRK","30556, PRK"
"Perak, MY","Ipoh, PRK","30560, PRK"
"Perak, MY","Ipoh, PRK","30564, PRK"
"Perak, MY","Ipoh, PRK","30570, PRK"
"Perak, MY","Ipoh, PRK","30576, PRK"
"Perak, MY","Ipoh, PRK","30580, PRK"
"Perak, MY","Ipoh, PRK","30582, PRK"
"Perak, MY","Ipoh, PRK","30586, PRK"
"Perak, MY","Ipoh, PRK","30590, PRK"
"Perak, MY","Ipoh, PRK","30592, PRK"
"Perak, MY","Ipoh, PRK","30594, PRK"
"Perak, MY","Ipoh, PRK","30596, PRK"
"Perak, MY","Ipoh, PRK","30600, PRK"
"Perak, MY","Ipoh, PRK","30604, PRK"
"Perak, MY","Ipoh, PRK","30606, PRK"
"Perak, MY","Ipoh, PRK","30609, PRK"
"Perak, MY","Ipoh, PRK","30610, PRK"
"Perak, MY","Ipoh, PRK","30612, PRK"
"Perak, MY","Ipoh, PRK","30614, PRK"
"Perak, MY","Ipoh, PRK","30620, PRK"
"Perak, MY","Ipoh, PRK","30621, PRK"
"Perak, MY","Ipoh, PRK","30622, PRK"
"Perak, MY","Ipoh, PRK","30626, PRK"
"Perak, MY","Ipoh, PRK","30628, PRK"
"Perak, MY","Ipoh, PRK","30630, PRK"
"Perak, MY","Ipoh, PRK","30632, PRK"
"Perak, MY","Ipoh, PRK","30634, PRK"
"Perak, MY","Ipoh, PRK","30644, PRK"
"Perak, MY","Ipoh, PRK","30646, PRK"
"Perak, MY","Ipoh, PRK","30648, PRK"
"Perak, MY","Ipoh, PRK","30656, PRK"
"Perak, MY","Ipoh, PRK","30658, PRK"
"Perak, MY","Ipoh, PRK","30660, PRK"
"Perak, MY","Ipoh, PRK","30661, PRK"
"Perak, MY","Ipoh, PRK","30662, PRK"
"Perak, MY","Ipoh, PRK","30664, PRK"
"Perak, MY","Ipoh, PRK","30668, PRK"
"Perak, MY","Ipoh, PRK","30670, PRK"
"Perak, MY","Ipoh, PRK","30673, PRK"
"Perak, MY","Ipoh, PRK","30674, PRK"
"Perak, MY","Ipoh, PRK","30676, PRK"
"Perak, MY","Ipoh, PRK","30682, PRK"
"Perak, MY","Ipoh, PRK","30690, PRK"
"Perak, MY","Ipoh, PRK","30700, PRK"
"Perak, MY","Ipoh, PRK","30710, PRK"
"Perak, MY","Ipoh, PRK","30720, PRK"
"Perak, MY","Ipoh, PRK","30730, PRK"
"Perak, MY","Ipoh, PRK","30740, PRK"
"Perak, MY","Ipoh, PRK","30750, PRK"
"Perak, MY","Ipoh, PRK","30760, PRK"
"Perak, MY","Ipoh, PRK","30770, PRK"
"Perak, MY","Ipoh, PRK","30780, PRK"
"Perak, MY","Ipoh, PRK","30790, PRK"
"Perak, MY","Ipoh, PRK","30800, PRK"
"Perak, MY","Ipoh, PRK","30810, PRK"
"Perak, MY","Ipoh, PRK","30820, PRK"
"Perak, MY","Ipoh, PRK","30830, PRK"
"Perak, MY","Ipoh, PRK","30840, PRK"
"Perak, MY","Ipoh, PRK","30900, PRK"
"Perak, MY","Ipoh, PRK","30902, PRK"
"Perak, MY","Ipoh, PRK","30904, PRK"
"Perak, MY","Ipoh, PRK","30906, PRK"
"Perak, MY","Ipoh, PRK","30908, PRK"
"Perak, MY","Ipoh, PRK","30910, PRK"
"Perak, MY","Ipoh, PRK","30912, PRK"
"Perak, MY","Ipoh, PRK","30988, PRK"
"Perak, MY","Ipoh, PRK","30990, PRK"
"Perak, MY","Batu Gajah, PRK","31000, PRK"
"Perak, MY","Batu Gajah, PRK","31007, PRK"
"Perak, MY","Batu Gajah, PRK","31009, PRK"
"Perak, MY","Sungai Siput, PRK","31050, PRK"
"Perak, MY","Sungai Siput, PRK","31100, PRK"
"Perak, MY","Ulu Kinta, PRK","31150, PRK"
"Perak, MY","Chemor, PRK","31200, PRK"
"Perak, MY","Tanjong Rambutan, PRK","31250, PRK"
"Perak, MY","Kampung Kepayang, PRK","31300, PRK"
"Perak, MY","Ipoh, PRK","31350, PRK"
"Perak, MY","Ipoh, PRK","31400, PRK"
"Perak, MY","Ipoh, PRK","31407, PRK"
"Perak, MY","Ipoh, PRK","31409, PRK"
"Perak, MY","Ipoh, PRK","31450, PRK"
"Perak, MY","Ipoh, PRK","31500, PRK"
"Perak, MY","Pusing, PRK","31550, PRK"
"Perak, MY","Pusing, PRK","31560, PRK"
"Perak, MY","Gopeng, PRK","31600, PRK"
"Perak, MY","Gopeng, PRK","31610, PRK"
"Perak, MY","Ipoh, PRK","31650, PRK"
"Perak, MY","Malim Nawar, PRK","31700, PRK"
"Perak, MY","Tronoh, PRK","31750, PRK"
"Perak, MY","Tanjong Tualang, PRK","31800, PRK"
"Perak, MY","Jeram, PRK","31850, PRK"
"Perak, MY","Mambang Di Awan, PRK","31900, PRK"
"Perak, MY","Kampar, PRK","31900, PRK"
"Perak, MY","Kampar, PRK","31907, PRK"
"Perak, MY","Kampar, PRK","31909, PRK"
"Perak, MY","Kampar, PRK","31910, PRK"
"Perak, MY","Kampar, PRK","31920, PRK"
"Perak, MY","Mambang Di Awan, PRK","31920, PRK"
"Perak, MY","Mambang Di Awan, PRK","31950, PRK"
"Perak, MY","Sitiawan, PRK","32000, PRK"
"Perak, MY","Seri Manjong, PRK","32040, PRK"
"Perak, MY","Seri Manjung, PRK","32040, PRK"
"Perak, MY","TLDM Lumut, PRK","32100, PRK"
"Perak, MY","Lumut, PRK","32200, PRK"
"Perak, MY","Pangkor, PRK","32300, PRK"
"Perak, MY","Ayer Tawar, PRK","32400, PRK"
"Perak, MY","Changkat Keruing, PRK","32500, PRK"
"Perak, MY","Bandar Seri Iskandar, PRK","32600, PRK"
"Perak, MY","Bota, PRK","32600, PRK"
"Perak, MY","Bandar Seri Iskandar, PRK","32610, PRK"
"Perak, MY","Bruas, PRK","32700, PRK"
"Perak, MY","Parit, PRK","32800, PRK"
"Perak, MY","Lambor Kanan, PRK","32900, PRK"
"Perak, MY","Kuala Kangsar, PRK","33000, PRK"
"Perak, MY","Kuala Kangsar, PRK","33007, PRK"
"Perak, MY","Kuala Kangsar, PRK","33009, PRK"
"Perak, MY","Kuala Kangsar, PRK","33010, PRK"
"Perak, MY","Kuala Kangsar, PRK","33020, PRK"
"Perak, MY","Kuala Kangsar, PRK","33030, PRK"
"Perak, MY","Kuala Kangsar, PRK","33040, PRK"
"Perak, MY","Pengkalan Hulu, PRK","33100, PRK"
"Perak, MY","Intan, PRK","33200, PRK"
"Perak, MY","Gerik, PRK","33300, PRK"
"Perak, MY","Gerik, PRK","33310, PRK"
"Perak, MY","Gerik, PRK","33320, PRK"
"Perak, MY","Lenggong, PRK","33400, PRK"
"Perak, MY","Lenggong, PRK","33410, PRK"
"Perak, MY","Lenggong, PRK","33420, PRK"
"Perak, MY","Sauk, PRK","33500, PRK"
"Perak, MY","Enggor, PRK","33600, PRK"
"Perak, MY","Padang Rengas, PRK","33700, PRK"
"Perak, MY","Manong, PRK","33800, PRK"
"Perak, MY","Taiping, PRK","34000, PRK"
"Perak, MY","Taiping, PRK","34007, PRK"
"Perak, MY","Taiping, PRK","34008, PRK"
"Perak, MY","Taiping, PRK","34009, PRK"
"Perak, MY","Taiping, PRK","34010, PRK"
"Perak, MY","Taiping, PRK","34020, PRK"
"Perak, MY","Taiping, PRK","34030, PRK"
"Perak, MY","Selama, PRK","34100, PRK"
"Perak, MY","Selama, PRK","34120, PRK"
"Perak, MY","Selama, PRK","34130, PRK"
"Perak, MY","Rantau Panjang, PRK","34140, PRK"
"Perak, MY","Parit Buntar, PRK","34200, PRK"
"Perak, MY","Tanjong Piandang, PRK","34250, PRK"
"Perak, MY","Bagan Serai, PRK","34300, PRK"
"Perak, MY","Bagan Serai, PRK","34310, PRK"
"Perak, MY","Kuala Kurau, PRK","34350, PRK"
"Perak, MY","Simpang Ampat Semanggol, PRK","34400, PRK"
"Perak, MY","Batu Kurau, PRK","34500, PRK"
"Perak, MY","Batu Kurau, PRK","34510, PRK"
"Perak, MY","Batu Kurau, PRK","34520, PRK"
"Perak, MY","Kamunting, PRK","34600, PRK"
"Perak, MY","Kuala Sepetang, PRK","34650, PRK"
"Perak, MY","Simpang, PRK","34700, PRK"
"Perak, MY","Matang, PRK","34750, PRK"
"Perak, MY","Trong, PRK","34800, PRK"
"Perak, MY","Changkat Jering, PRK","34850, PRK"
"Perak, MY","Pantai Remis, PRK","34900, PRK"
"Perak, MY","Tapah, PRK","35000, PRK"
"Perak, MY","Tapah, PRK","35007, PRK"
"Perak, MY","Tapah, PRK","35009, PRK"
"Perak, MY","Chenderiang, PRK","35300, PRK"
"Perak, MY","Temoh, PRK","35350, PRK"
"Perak, MY","Tapah Road, PRK","35400, PRK"
"Perak, MY","Bidor, PRK","35500, PRK"
"Perak, MY","Sungkai, PRK","35600, PRK"
"Perak, MY","Trolak, PRK","35700, PRK"
"Perak, MY","Slim River, PRK","35800, PRK"
"Perak, MY","Slim River, PRK","35820, PRK"
"Perak, MY","Tanjong Malim, PRK","35900, PRK"
"Perak, MY","Tanjong Malim, PRK","35907, PRK"
"Perak, MY","Tanjong Malim, PRK","35909, PRK"
"Perak, MY","Tanjong Malim, PRK","35910, PRK"
"Perak, MY","Behrang Stesen, PRK","35950, PRK"
"Perak, MY","Teluk Intan, PRK","36000, PRK"
"Perak, MY","Teluk Intan, PRK","36007, PRK"
"Perak, MY","Teluk Intan, PRK","36008, PRK"
"Perak, MY","Teluk Intan, PRK","36009, PRK"
"Perak, MY","Teluk Intan, PRK","36010, PRK"
"Perak, MY","Teluk Intan, PRK","36020, PRK"
"Perak, MY","Teluk Intan, PRK","36030, PRK"
"Perak, MY","Bagan Datoh, PRK","36100, PRK"
"Perak, MY","Teluk Intan, PRK","36110, PRK"
"Perak, MY","Selekoh, PRK","36200, PRK"
"Perak, MY","Selekoh, PRK","36207, PRK"
"Perak, MY","Selekoh, PRK","36209, PRK"
"Perak, MY","Sungai Sumun, PRK","36300, PRK"
"Perak, MY","Sungai Sumun, PRK","36307, PRK"
"Perak, MY","Sungai Sumun, PRK","36309, PRK"
"Perak, MY","Hutan Melintang, PRK","36400, PRK"
"Perak, MY","Ulu Bernam, PRK","36500, PRK"
"Perak, MY","Chenderong Balai, PRK","36600, PRK"
"Perak, MY","Langkap, PRK","36700, PRK"
"Perak, MY","Chikus, PRK","36750, PRK"
"Perak, MY","Kampung Gajah, PRK","36800, PRK"
"Perak, MY","Kampung Gajah, PRK","36810, PRK"
"Perak, MY","Tanah Rata, PRK","39000, PRK"
"Sabah, MY","Kota Kinabalu, SBH","88000, SBH"
"Sabah, MY","Kota Kinabalu, SBH","88100, SBH"
"Sabah, MY","Kota Kinabalu, SBH","88200, SBH"
"Sabah, MY","Kota Kinabalu, SBH","88300, SBH"
"Sabah, MY","Kota Kinabalu, SBH","88400, SBH"
"Sabah, MY","Kota Kinabalu, SBH","88450, SBH"
"Sabah, MY","Kota Kinabalu, SBH","88460, SBH"
"Sabah, MY","Kota Kinabalu, SBH","88500, SBH"
"Sabah, MY","Kota Kinabalu, SBH","88502, SBH"
"Sabah, MY","Kota Kinabalu, SBH","88504, SBH"
"Sabah, MY","Kota Kinabalu, SBH","88505, SBH"
"Sabah, MY","Kota Kinabalu, SBH","88506, SBH"
"Sabah, MY","Kota Kinabalu, SBH","88508, SBH"
"Sabah, MY","Kota Kinabalu, SBH","88510, SBH"
"Sabah, MY","Kota Kinabalu, SBH","88512, SBH"
"Sabah, MY","Kota Kinabalu, SBH","88514, SBH"
"Sabah, MY","Kota Kinabalu, SBH","88516, SBH"
"Sabah, MY","Kota Kinabalu, SBH","88518, SBH"
"Sabah, MY","Kota Kinabalu, SBH","88520, SBH"
"Sabah, MY","Kota Kinabalu, SBH","88526, SBH"
"Sabah, MY","Kota Kinabalu, SBH","88527, SBH"
"Sabah, MY","Kota Kinabalu, SBH","88532, SBH"
"Sabah, MY","Kota Kinabalu, SBH","88534, SBH"
"Sabah, MY","Kota Kinabalu, SBH","88538, SBH"
"Sabah, MY","Kota Kinabalu, SBH","88540, SBH"
"Sabah, MY","Kota Kinabalu, SBH","88546, SBH"
"Sabah, MY","Kota Kinabalu, SBH","88550, SBH"
"Sabah, MY","Kota Kinabalu, SBH","88551, SBH"
"Sabah, MY","Kota Kinabalu, SBH","88552, SBH"
"Sabah, MY","Kota Kinabalu, SBH","88554, SBH"
"Sabah, MY","Kota Kinabalu, SBH","88556, SBH"
"Sabah, MY","Kota Kinabalu, SBH","88558, SBH"
"Sabah, MY","Kota Kinabalu, SBH","88560, SBH"
"Sabah, MY","Kota Kinabalu, SBH","88562, SBH"
"Sabah, MY","Kota Kinabalu, SBH","88564, SBH"
"Sabah, MY","Kota Kinabalu, SBH","88566, SBH"
"Sabah, MY","Kota Kinabalu, SBH","88568, SBH"
"Sabah, MY","Kota Kinabalu, SBH","88570, SBH"
"Sabah, MY","Kota Kinabalu, SBH","88572, SBH"
"Sabah, MY","Kota Kinabalu, SBH","88576, SBH"
"Sabah, MY","Kota Kinabalu, SBH","88580, SBH"
"Sabah, MY","Kota Kinabalu, SBH","88582, SBH"
"Sabah, MY","Kota Kinabalu, SBH","88586, SBH"
"Sabah, MY","Kota Kinabalu, SBH","88590, SBH"
"Sabah, MY","Kota Kinabalu, SBH","88592, SBH"
"Sabah, MY","Kota Kinabalu, SBH","88594, SBH"
"Sabah, MY","Kota Kinabalu, SBH","88596, SBH"
"Sabah, MY","Kota Kinabalu, SBH","88598, SBH"
"Sabah, MY","Kota Kinabalu, SBH","88600, SBH"
"Sabah, MY","Kota Kinabalu, SBH","88602, SBH"
"Sabah, MY","Kota Kinabalu, SBH","88604, SBH"
"Sabah, MY","Kota Kinabalu, SBH","88606, SBH"
"Sabah, MY","Kota Kinabalu, SBH","88608, SBH"
"Sabah, MY","Kota Kinabalu, SBH","88609, SBH"
"Sabah, MY","Kota Kinabalu, SBH","88610, SBH"
"Sabah, MY","Kota Kinabalu, SBH","88612, SBH"
"Sabah, MY","Kota Kinabalu, SBH","88614, SBH"
"Sabah, MY","Kota Kinabalu, SBH","88617, SBH"
"Sabah, MY","Kota Kinabalu, SBH","88618, SBH"
"Sabah, MY","Kota Kinabalu, SBH","88620, SBH"
"Sabah, MY","Kota Kinabalu, SBH","88621, SBH"
"Sabah, MY","Kota Kinabalu, SBH","88622, SBH"
"Sabah, MY","Kota Kinabalu, SBH","88624, SBH"
"Sabah, MY","Kota Kinabalu, SBH","88626, SBH"
"Sabah, MY","Kota Kinabalu, SBH","88628, SBH"
"Sabah, MY","Kota Kinabalu, SBH","88630, SBH"
"Sabah, MY","Kota Kinabalu, SBH","88632, SBH"
"Sabah, MY","Kota Kinabalu, SBH","88634, SBH"
"Sabah, MY","Kota Kinabalu, SBH","88644, SBH"
"Sabah, MY","Kota Kinabalu, SBH","88646, SBH"
"Sabah, MY","Kota Kinabalu, SBH","88648, SBH"
"Sabah, MY","Kota Kinabalu, SBH","88656, SBH"
"Sabah, MY","Kota Kinabalu, SBH","88658, SBH"
"Sabah, MY","Kota Kinabalu, SBH","88660, SBH"
"Sabah, MY","Kota Kinabalu, SBH","88661, SBH"
"Sabah, MY","Kota Kinabalu, SBH","88662, SBH"
"Sabah, MY","Kota Kinabalu, SBH","88670, SBH"
"Sabah, MY","Kota Kinabalu, SBH","88672, SBH"
"Sabah, MY","Kota Kinabalu, SBH","88673, SBH"
"Sabah, MY","Kota Kinabalu, SBH","88675, SBH"
"Sabah, MY","Kota Kinabalu, SBH","88676, SBH"
"Sabah, MY","Kota Kinabalu, SBH","88680, SBH"
"Sabah, MY","Kota Kinabalu, SBH","88690, SBH"
"Sabah, MY","Beverly, SBH","88700, SBH"
"Sabah, MY","Putatan, SBH","88721, SBH"
"Sabah, MY","Putatan, SBH","88722, SBH"
"Sabah, MY","Putatan, SBH","88723, SBH"
"Sabah, MY","Putatan, SBH","88724, SBH"
"Sabah, MY","Putatan, SBH","88725, SBH"
"Sabah, MY","Kota Kinabalu, SBH","88757, SBH"
"Sabah, MY","Kota Kinabalu, SBH","88758, SBH"
"Sabah, MY","Kota Kinabalu, SBH","88759, SBH"
"Sabah, MY","Kota Kinabalu, SBH","88760, SBH"
"Sabah, MY","Kota Kinabalu, SBH","88761, SBH"
"Sabah, MY","Kota Kinabalu, SBH","88762, SBH"
"Sabah, MY","Kota Kinabalu, SBH","88763, SBH"
"Sabah, MY","Kota Kinabalu, SBH","88764, SBH"
"Sabah, MY","Kota Kinabalu, SBH","88765, SBH"
"Sabah, MY","Kota Kinabalu, SBH","88766, SBH"
"Sabah, MY","Kota Kinabalu, SBH","88767, SBH"
"Sabah, MY","Kota Kinabalu, SBH","88768, SBH"
"Sabah, MY","Kota Kinabalu, SBH","88769, SBH"
"Sabah, MY","Kota Kinabalu, SBH","88770, SBH"
"Sabah, MY","Kota Kinabalu, SBH","88771, SBH"
"Sabah, MY","Kota Kinabalu, SBH","88772, SBH"
"Sabah, MY","Kota Kinabalu, SBH","88773, SBH"
"Sabah, MY","Kota Kinabalu, SBH","88774, SBH"
"Sabah, MY","Kota Kinabalu, SBH","88775, SBH"
"Sabah, MY","Kota Kinabalu, SBH","88776, SBH"
"Sabah, MY","Kota Kinabalu, SBH","88777, SBH"
"Sabah, MY","Kota Kinabalu, SBH","88778, SBH"
"Sabah, MY","Kota Kinabalu, SBH","88779, SBH"
"Sabah, MY","Kota Kinabalu, SBH","88780, SBH"
"Sabah, MY","Kota Kinabalu, SBH","88781, SBH"
"Sabah, MY","Kota Kinabalu, SBH","88782, SBH"
"Sabah, MY","Kota Kinabalu, SBH","88783, SBH"
"Sabah, MY","Kota Kinabalu, SBH","88784, SBH"
"Sabah, MY","Kota Kinabalu, SBH","88785, SBH"
"Sabah, MY","Kota Kinabalu, SBH","88786, SBH"
"Sabah, MY","Kota Kinabalu, SBH","88787, SBH"
"Sabah, MY","Kota Kinabalu, SBH","88788, SBH"
"Sabah, MY","Kota Kinabalu, SBH","88789, SBH"
"Sabah, MY","Kota Kinabalu, SBH","88790, SBH"
"Sabah, MY","Kota Kinabalu, SBH","88800, SBH"
"Sabah, MY","Kota Kinabalu, SBH","88801, SBH"
"Sabah, MY","Kota Kinabalu, SBH","88802, SBH"
"Sabah, MY","Kota Kinabalu, SBH","88803, SBH"
"Sabah, MY","Kota Kinabalu, SBH","88804, SBH"
"Sabah, MY","Kota Kinabalu, SBH","88805, SBH"
"Sabah, MY","Kota Kinabalu, SBH","88806, SBH"
"Sabah, MY","Kota Kinabalu, SBH","88807, SBH"
"Sabah, MY","Kota Kinabalu, SBH","88808, SBH"
"Sabah, MY","Kota Kinabalu, SBH","88809, SBH"
"Sabah, MY","Kota Kinabalu, SBH","88810, SBH"
"Sabah, MY","Kota Kinabalu, SBH","88811, SBH"
"Sabah, MY","Kota Kinabalu, SBH","88812, SBH"
"Sabah, MY","Kota Kinabalu, SBH","88813, SBH"
"Sabah, MY","Kota Kinabalu, SBH","88814, SBH"
"Sabah, MY","Kota Kinabalu, SBH","88815, SBH"
"Sabah, MY","Kota Kinabalu, SBH","88816, SBH"
"Sabah, MY","Kota Kinabalu, SBH","88817, SBH"
"Sabah, MY","Kota Kinabalu, SBH","88818, SBH"
"Sabah, MY","Kota Kinabalu, SBH","88819, SBH"
"Sabah, MY","Kota Kinabalu, SBH","88820, SBH"
"Sabah, MY","Kota Kinabalu, SBH","88821, SBH"
"Sabah, MY","Kota Kinabalu, SBH","88822, SBH"
"Sabah, MY","Kota Kinabalu, SBH","88823, SBH"
"Sabah, MY","Kota Kinabalu, SBH","88824, SBH"
"Sabah, MY","Kota Kinabalu, SBH","88825, SBH"
"Sabah, MY","Kota Kinabalu, SBH","88826, SBH"
"Sabah, MY","Kota Kinabalu, SBH","88827, SBH"
"Sabah, MY","Kota Kinabalu, SBH","88828, SBH"
"Sabah, MY","Kota Kinabalu, SBH","88829, SBH"
"Sabah, MY","Kota Kinabalu, SBH","88830, SBH"
"Sabah, MY","Kota Kinabalu, SBH","88831, SBH"
"Sabah, MY","Kota Kinabalu, SBH","88832, SBH"
"Sabah, MY","Kota Kinabalu, SBH","88833, SBH"
"Sabah, MY","Kota Kinabalu, SBH","88834, SBH"
"Sabah, MY","Kota Kinabalu, SBH","88835, SBH"
"Sabah, MY","Kota Kinabalu, SBH","88836, SBH"
"Sabah, MY","Kota Kinabalu, SBH","88837, SBH"
"Sabah, MY","Kota Kinabalu, SBH","88838, SBH"
"Sabah, MY","Kota Kinabalu, SBH","88839, SBH"
"Sabah, MY","Kota Kinabalu, SBH","88840, SBH"
"Sabah, MY","Kota Kinabalu, SBH","88841, SBH"
"Sabah, MY","Kota Kinabalu, SBH","88842, SBH"
"Sabah, MY","Kota Kinabalu, SBH","88843, SBH"
"Sabah, MY","Kota Kinabalu, SBH","88844, SBH"
"Sabah, MY","Kota Kinabalu, SBH","88845, SBH"
"Sabah, MY","Kota Kinabalu, SBH","88846, SBH"
"Sabah, MY","Kota Kinabalu, SBH","88847, SBH"
"Sabah, MY","Kota Kinabalu, SBH","88848, SBH"
"Sabah, MY","Kota Kinabalu, SBH","88849, SBH"
"Sabah, MY","Kota Kinabalu, SBH","88850, SBH"
"Sabah, MY","Kota Kinabalu, SBH","88851, SBH"
"Sabah, MY","Kota Kinabalu, SBH","88852, SBH"
"Sabah, MY","Kota Kinabalu, SBH","88853, SBH"
"Sabah, MY","Kota Kinabalu, SBH","88854, SBH"
"Sabah, MY","Kota Kinabalu, SBH","88855, SBH"
"Sabah, MY","Likas, SBH","88856, SBH"
"Sabah, MY","Inanam, SBH","88857, SBH"
"Sabah, MY","Tanjung Aru, SBH","88858, SBH"
"Sabah, MY","Kota Kinabalu, SBH","88860, SBH"
"Sabah, MY","Kota Kinabalu, SBH","88861, SBH"
"Sabah, MY","Kota Kinabalu, SBH","88862, SBH"
"Sabah, MY","Kota Kinabalu, SBH","88863, SBH"
"Sabah, MY","Kota Kinabalu, SBH","88865, SBH"
"Sabah, MY","Kota Kinabalu, SBH","88866, SBH"
"Sabah, MY","Kota Kinabalu, SBH","88867, SBH"
"Sabah, MY","Kota Kinabalu, SBH","88868, SBH"
"Sabah, MY","Kota Kinabalu, SBH","88869, SBH"
"Sabah, MY","Kota Kinabalu, SBH","88870, SBH"
"Sabah, MY","Kota Kinabalu, SBH","88871, SBH"
"Sabah, MY","Kota Kinabalu, SBH","88872, SBH"
"Sabah, MY","Kota Kinabalu, SBH","88873, SBH"
"Sabah, MY","Kota Kinabalu, SBH","88874, SBH"
"Sabah, MY","Kota Kinabalu, SBH","88875, SBH"
"Sabah, MY","Kota Kinabalu, SBH","88900, SBH"
"Sabah, MY","Kota Kinabalu, SBH","88901, SBH"
"Sabah, MY","Kota Kinabalu, SBH","88902, SBH"
"Sabah, MY","Kota Kinabalu, SBH","88903, SBH"
"Sabah, MY","Kota Kinabalu, SBH","88904, SBH"
"Sabah, MY","Kota Kinabalu, SBH","88905, SBH"
"Sabah, MY","Kota Kinabalu, SBH","88906, SBH"
"Sabah, MY","Kota Kinabalu, SBH","88988, SBH"
"Sabah, MY","Kota Kinabalu, SBH","88990, SBH"
"Sabah, MY","Kota Kinabalu, SBH","88991, SBH"
"Sabah, MY","Kota Kinabalu, SBH","88992, SBH"
"Sabah, MY","Kota Kinabalu, SBH","88993, SBH"
"Sabah, MY","Kota Kinabalu, SBH","88994, SBH"
"Sabah, MY","Kota Kinabalu, SBH","88995, SBH"
"Sabah, MY","Kota Kinabalu, SBH","88996, SBH"
"Sabah, MY","Kota Kinabalu, SBH","88997, SBH"
"Sabah, MY","Kota Kinabalu, SBH","88998, SBH"
"Sabah, MY","Kota Kinabalu, SBH","88999, SBH"
"Sabah, MY","Keningau, SBH","89000, SBH"
"Sabah, MY","Keningau, SBH","89007, SBH"
"Sabah, MY","Keningau, SBH","89008, SBH"
"Sabah, MY","Keningau, SBH","89009, SBH"
"Sabah, MY","Kudat, SBH","89050, SBH"
"Sabah, MY","Kudat, SBH","89057, SBH"
"Sabah, MY","Kudat, SBH","89058, SBH"
"Sabah, MY","Kudat, SBH","89059, SBH"
"Sabah, MY","Kota Marudu, SBH","89100, SBH"
"Sabah, MY","Kota Marudu, SBH","89107, SBH"
"Sabah, MY","Kota Marudu, SBH","89108, SBH"
"Sabah, MY","Kota Marudu, SBH","89109, SBH"
"Sabah, MY","Kota Belud, SBH","89150, SBH"
"Sabah, MY","Kota Belud, SBH","89157, SBH"
"Sabah, MY","Kota Belud, SBH","89158, SBH"
"Sabah, MY","Kota Belud, SBH","89159, SBH"
"Sabah, MY","Tuaran, SBH","89200, SBH"
"Sabah, MY","Tuaran, SBH","89207, SBH"
"Sabah, MY","Tuaran, SBH","89208, SBH"
"Sabah, MY","Tuaran, SBH","89209, SBH"
"Sabah, MY","Tamparuli, SBH","89250, SBH"
"Sabah, MY","Tamparuli, SBH","89257, SBH"
"Sabah, MY","Tamparuli, SBH","89258, SBH"
"Sabah, MY","Tamparuli, SBH","89259, SBH"
"Sabah, MY","Tenghilan, SBH","89260, SBH"
"Sabah, MY","Beverly, SBH","89260, SBH"
"Sabah, MY","Ranau, SBH","89300, SBH"
"Sabah, MY","Ranau, SBH","89307, SBH"
"Sabah, MY","Ranau, SBH","89308, SBH"
"Sabah, MY","Ranau, SBH","89309, SBH"
"Sabah, MY","Penampang, SBH","89500, SBH"
"Sabah, MY","Penampang, SBH","89507, SBH"
"Sabah, MY","Penampang, SBH","89508, SBH"
"Sabah, MY","Penampang, SBH","89509, SBH"
"Sabah, MY","Papar, SBH","89600, SBH"
"Sabah, MY","Papar, SBH","89607, SBH"
"Sabah, MY","Papar, SBH","89608, SBH"
"Sabah, MY","Papar, SBH","89609, SBH"
"Sabah, MY","Tambunan, SBH","89650, SBH"
"Sabah, MY","Tambunan, SBH","89657, SBH"
"Sabah, MY","Tambunan, SBH","89658, SBH"
"Sabah, MY","Tambunan, SBH","89659, SBH"
"Sabah, MY","Bongawan, SBH","89700, SBH"
"Sabah, MY","Bongawan, SBH","89707, SBH"
"Sabah, MY","Bongawan, SBH","89708, SBH"
"Sabah, MY","Bongawan, SBH","89709, SBH"
"Sabah, MY","Membakut, SBH","89720, SBH"
"Sabah, MY","Membakut, SBH","89727, SBH"
"Sabah, MY","Membakut, SBH","89728, SBH"
"Sabah, MY","Membakut, SBH","89729, SBH"
"Sabah, MY","Kuala Penyu, SBH","89740, SBH"
"Sabah, MY","Kuala Penyu, SBH","89747, SBH"
"Sabah, MY","Kuala Penyu, SBH","89748, SBH"
"Sabah, MY","Kuala Penyu, SBH","89749, SBH"
"Sabah, MY","Menumbok, SBH","89760, SBH"
"Sabah, MY","Menumbok, SBH","89767, SBH"
"Sabah, MY","Menumbok, SBH","89768, SBH"
"Sabah, MY","Menumbok, SBH","89769, SBH"
"Sabah, MY","Beaufort, SBH","89800, SBH"
"Sabah, MY","Beaufort, SBH","89807, SBH"
"Sabah, MY","Beaufort, SBH","89808, SBH"
"Sabah, MY","Beaufort, SBH","89809, SBH"
"Sabah, MY","Sipitang, SBH","89850, SBH"
"Sabah, MY","Sipitang, SBH","89857, SBH"
"Sabah, MY","Sipitang, SBH","89858, SBH"
"Sabah, MY","Sipitang, SBH","89859, SBH"
"Sabah, MY","Tenom, SBH","89900, SBH"
"Sabah, MY","Tenom, SBH","89907, SBH"
"Sabah, MY","Tenom, SBH","89908, SBH"
"Sabah, MY","Tenom, SBH","89909, SBH"
"Sabah, MY","Nabawan, SBH","89950, SBH"
"Sabah, MY","Nabawan, SBH","89957, SBH"
"Sabah, MY","Nabawan, SBH","89958, SBH"
"Sabah, MY","Nabawan, SBH","89959, SBH"
"Sabah, MY","Sandakan, SBH","90000, SBH"
"Sabah, MY","Sandakan, SBH","90009, SBH"
"Sabah, MY","Beluran, SBH","90100, SBH"
"Sabah, MY","Beluran, SBH","90107, SBH"
"Sabah, MY","Beluran, SBH","90109, SBH"
"Sabah, MY","Kota Kinabatangan, SBH","90200, SBH"
"Sabah, MY","Sandakan, SBH","90300, SBH"
"Sabah, MY","Sandakan, SBH","90307, SBH"
"Sabah, MY","Pamol, SBH","90400, SBH"
"Sabah, MY","Sandakan, SBH","90700, SBH"
"Sabah, MY","Sandakan, SBH","90701, SBH"
"Sabah, MY","Sandakan, SBH","90702, SBH"
"Sabah, MY","Sandakan, SBH","90703, SBH"
"Sabah, MY","Sandakan, SBH","90704, SBH"
"Sabah, MY","Sandakan, SBH","90705, SBH"
"Sabah, MY","Sandakan, SBH","90706, SBH"
"Sabah, MY","Sandakan, SBH","90707, SBH"
"Sabah, MY","Sandakan, SBH","90708, SBH"
"Sabah, MY","Sandakan, SBH","90709, SBH"
"Sabah, MY","Sandakan, SBH","90711, SBH"
"Sabah, MY","Sandakan, SBH","90712, SBH"
"Sabah, MY","Sandakan, SBH","90713, SBH"
"Sabah, MY","Sandakan, SBH","90714, SBH"
"Sabah, MY","Sandakan, SBH","90715, SBH"
"Sabah, MY","Sandakan, SBH","90716, SBH"
"Sabah, MY","Sandakan, SBH","90717, SBH"
"Sabah, MY","Sandakan, SBH","90718, SBH"
"Sabah, MY","Sandakan, SBH","90719, SBH"
"Sabah, MY","Sandakan, SBH","90720, SBH"
"Sabah, MY","Sandakan, SBH","90721, SBH"
"Sabah, MY","Sandakan, SBH","90722, SBH"
"Sabah, MY","Sandakan, SBH","90723, SBH"
"Sabah, MY","Sandakan, SBH","90724, SBH"
"Sabah, MY","Sandakan, SBH","90725, SBH"
"Sabah, MY","Sandakan, SBH","90726, SBH"
"Sabah, MY","Sandakan, SBH","90727, SBH"
"Sabah, MY","Sandakan, SBH","90728, SBH"
"Sabah, MY","Sandakan, SBH","90729, SBH"
"Sabah, MY","Sandakan, SBH","90730, SBH"
"Sabah, MY","Sandakan, SBH","90731, SBH"
"Sabah, MY","Sandakan, SBH","90732, SBH"
"Sabah, MY","Sandakan, SBH","90733, SBH"
"Sabah, MY","Sandakan, SBH","90734, SBH"
"Sabah, MY","Sandakan, SBH","90735, SBH"
"Sabah, MY","Sandakan, SBH","90736, SBH"
"Sabah, MY","Sandakan, SBH","90737, SBH"
"Sabah, MY","Sandakan, SBH","90738, SBH"
"Sabah, MY","Sandakan, SBH","90739, SBH"
"Sabah, MY","Sandakan, SBH","90740, SBH"
"Sabah, MY","Sandakan, SBH","90741, SBH"
"Sabah, MY","Tawau, SBH","91000, SBH"
"Sabah, MY","Tawau, SBH","91007, SBH"
"Sabah, MY","Tawau, SBH","91008, SBH"
"Sabah, MY","Tawau, SBH","91009, SBH"
"Sabah, MY","Tawau, SBH","91010, SBH"
"Sabah, MY","Tawau, SBH","91011, SBH"
"Sabah, MY","Tawau, SBH","91012, SBH"
"Sabah, MY","Tawau, SBH","91013, SBH"
"Sabah, MY","Tawau, SBH","91014, SBH"
"Sabah, MY","Tawau, SBH","91015, SBH"
"Sabah, MY","Tawau, SBH","91016, SBH"
"Sabah, MY","Tawau, SBH","91017, SBH"
"Sabah, MY","Tawau, SBH","91018, SBH"
"Sabah, MY","Tawau, SBH","91019, SBH"
"Sabah, MY","Tawau, SBH","91020, SBH"
"Sabah, MY","Tawau, SBH","91021, SBH"
"Sabah, MY","Tawau, SBH","91022, SBH"
"Sabah, MY","Tawau, SBH","91023, SBH"
"Sabah, MY","Tawau, SBH","91024, SBH"
"Sabah, MY","Tawau, SBH","91025, SBH"
"Sabah, MY","Tawau, SBH","91026, SBH"
"Sabah, MY","Tawau, SBH","91027, SBH"
"Sabah, MY","Tawau, SBH","91028, SBH"
"Sabah, MY","Tawau, SBH","91029, SBH"
"Sabah, MY","Tawau, SBH","91030, SBH"
"Sabah, MY","Tawau, SBH","91031, SBH"
"Sabah, MY","Tawau, SBH","91032, SBH"
"Sabah, MY","Tawau, SBH","91033, SBH"
"Sabah, MY","Tawau, SBH","91034, SBH"
"Sabah, MY","Tawau, SBH","91035, SBH"
"Sabah, MY","Lahad Datu, SBH","91100, SBH"
"Sabah, MY","Lahad Datu, SBH","91109, SBH"
"Sabah, MY","Lahad Datu, SBH","91110, SBH"
"Sabah, MY","Lahad Datu, SBH","91111, SBH"
"Sabah, MY","Lahad Datu, SBH","91112, SBH"
"Sabah, MY","Lahad Datu, SBH","91113, SBH"
"Sabah, MY","Lahad Datu, SBH","91114, SBH"
"Sabah, MY","Lahad Datu, SBH","91115, SBH"
"Sabah, MY","Lahad Datu, SBH","91116, SBH"
"Sabah, MY","Lahad Datu, SBH","91117, SBH"
"Sabah, MY","Lahad Datu, SBH","91118, SBH"
"Sabah, MY","Lahad Datu, SBH","91119, SBH"
"Sabah, MY","Lahad Datu, SBH","91120, SBH"
"Sabah, MY","Lahad Datu, SBH","91121, SBH"
"Sabah, MY","Lahad Datu, SBH","91122, SBH"
"Sabah, MY","Lahad Datu, SBH","91123, SBH"
"Sabah, MY","Lahad Datu, SBH","91124, SBH"
"Sabah, MY","Lahad Datu, SBH","91125, SBH"
"Sabah, MY","Lahad Datu, SBH","91126, SBH"
"Sabah, MY","Lahad Datu, SBH","91127, SBH"
"Sabah, MY","Lahad Datu, SBH","91128, SBH"
"Sabah, MY","Lahad Datu, SBH","91150, SBH"
"Sabah, MY","Kunak, SBH","91200, SBH"
"Sabah, MY","Kunak, SBH","91207, SBH"
"Sabah, MY","Kunak, SBH","91209, SBH"
"Sabah, MY","Semporna, SBH","91300, SBH"
"Sabah, MY","Semporna, SBH","91307, SBH"
"Sabah, MY","Semporna, SBH","91308, SBH"
"Sabah, MY","Semporna, SBH","91309, SBH"
"Selangor, MY","Kuantan, SGR","26060, SGR"
"Selangor, MY","Jerantut, SGR","27000, SGR"
"Selangor, MY","Shah Alam, SGR","40000, SGR"
"Selangor, MY","Shah Alam, SGR","40100, SGR"
"Selangor, MY","Shah Alam, SGR","40150, SGR"
"Selangor, MY","Shah Alam, SGR","40160, SGR"
"Selangor, MY","Shah Alam, SGR","40170, SGR"
"Selangor, MY","Shah Alam, SGR","40200, SGR"
"Selangor, MY","Shah Alam, SGR","40300, SGR"
"Selangor, MY","Shah Alam, SGR","40400, SGR"
"Selangor, MY","Shah Alam, SGR","40450, SGR"
"Selangor, MY","Shah Alam, SGR","40460, SGR"
"Selangor, MY","Shah Alam, SGR","40470, SGR"
"Selangor, MY","Shah Alam, SGR","40500, SGR"
"Selangor, MY","Shah Alam, SGR","40502, SGR"
"Selangor, MY","Shah Alam, SGR","40503, SGR"
"Selangor, MY","Shah Alam, SGR","40505, SGR"
"Selangor, MY","Shah Alam, SGR","40512, SGR"
"Selangor, MY","Shah Alam, SGR","40517, SGR"
"Selangor, MY","Shah Alam, SGR","40520, SGR"
"Selangor, MY","Shah Alam, SGR","40529, SGR"
"Selangor, MY","Shah Alam, SGR","40542, SGR"
"Selangor, MY","Shah Alam, SGR","40548, SGR"
"Selangor, MY","Shah Alam, SGR","40550, SGR"
"Selangor, MY","Shah Alam, SGR","40551, SGR"
"Selangor, MY","Shah Alam, SGR","40560, SGR"
"Selangor, MY","Shah Alam, SGR","40564, SGR"
"Selangor, MY","Shah Alam, SGR","40570, SGR"
"Selangor, MY","Shah Alam, SGR","40572, SGR"
"Selangor, MY","Shah Alam, SGR","40576, SGR"
"Selangor, MY","Shah Alam, SGR","40578, SGR"
"Selangor, MY","Shah Alam, SGR","40582, SGR"
"Selangor, MY","Shah Alam, SGR","40590, SGR"
"Selangor, MY","Shah Alam, SGR","40592, SGR"
"Selangor, MY","Shah Alam, SGR","40594, SGR"
"Selangor, MY","Shah Alam, SGR","40596, SGR"
"Selangor, MY","Shah Alam, SGR","40598, SGR"
"Selangor, MY","Shah Alam, SGR","40604, SGR"
"Selangor, MY","Shah Alam, SGR","40607, SGR"
"Selangor, MY","Shah Alam, SGR","40608, SGR"
"Selangor, MY","Shah Alam, SGR","40610, SGR"
"Selangor, MY","Shah Alam, SGR","40612, SGR"
"Selangor, MY","Shah Alam, SGR","40620, SGR"
"Selangor, MY","Shah Alam, SGR","40622, SGR"
"Selangor, MY","Shah Alam, SGR","40626, SGR"
"Selangor, MY","Shah Alam, SGR","40632, SGR"
"Selangor, MY","Shah Alam, SGR","40646, SGR"
"Selangor, MY","Shah Alam, SGR","40648, SGR"
"Selangor, MY","Shah Alam, SGR","40660, SGR"
"Selangor, MY","Shah Alam, SGR","40664, SGR"
"Selangor, MY","Shah Alam, SGR","40670, SGR"
"Selangor, MY","Shah Alam, SGR","40672, SGR"
"Selangor, MY","Shah Alam, SGR","40673, SGR"
"Selangor, MY","Shah Alam, SGR","40674, SGR"
"Selangor, MY","Shah Alam, SGR","40675, SGR"
"Selangor, MY","Shah Alam, SGR","40676, SGR"
"Selangor, MY","Shah Alam, SGR","40680, SGR"
"Selangor, MY","Shah Alam, SGR","40690, SGR"
"Selangor, MY","Shah Alam, SGR","40700, SGR"
"Selangor, MY","Shah Alam, SGR","40702, SGR"
"Selangor, MY","Shah Alam, SGR","40704, SGR"
"Selangor, MY","Shah Alam, SGR","40706, SGR"
"Selangor, MY","Shah Alam, SGR","40708, SGR"
"Selangor, MY","Shah Alam, SGR","40710, SGR"
"Selangor, MY","Shah Alam, SGR","40712, SGR"
"Selangor, MY","Shah Alam, SGR","40714, SGR"
"Selangor, MY","Shah Alam, SGR","40716, SGR"
"Selangor, MY","Shah Alam, SGR","40718, SGR"
"Selangor, MY","Shah Alam, SGR","40720, SGR"
"Selangor, MY","Shah Alam, SGR","40722, SGR"
"Selangor, MY","Shah Alam, SGR","40724, SGR"
"Selangor, MY","Shah Alam, SGR","40726, SGR"
"Selangor, MY","Shah Alam, SGR","40728, SGR"
"Selangor, MY","Shah Alam, SGR","40730, SGR"
"Selangor, MY","Shah Alam, SGR","40732, SGR"
"Selangor, MY","Shah Alam, SGR","40800, SGR"
"Selangor, MY","Shah Alam, SGR","40802, SGR"
"Selangor, MY","Shah Alam, SGR","40804, SGR"
"Selangor, MY","Shah Alam, SGR","40806, SGR"
"Selangor, MY","Shah Alam, SGR","40808, SGR"
"Selangor, MY","Shah Alam, SGR","40810, SGR"
"Selangor, MY","Shah Alam, SGR","40990, SGR"
"Selangor, MY","Klang, SGR","41000, SGR"
"Selangor, MY","Klang, SGR","41050, SGR"
"Selangor, MY","Klang, SGR","41100, SGR"
"Selangor, MY","Klang, SGR","41150, SGR"
"Selangor, MY","Klang, SGR","41200, SGR"
"Selangor, MY","Klang, SGR","41250, SGR"
"Selangor, MY","Klang, SGR","41300, SGR"
"Selangor, MY","Klang, SGR","41400, SGR"
"Selangor, MY","Klang, SGR","41506, SGR"
"Selangor, MY","Klang, SGR","41560, SGR"
"Selangor, MY","Klang, SGR","41586, SGR"
"Selangor, MY","Klang, SGR","41672, SGR"
"Selangor, MY","Klang, SGR","41700, SGR"
"Selangor, MY","Klang, SGR","41710, SGR"
"Selangor, MY","Klang, SGR","41720, SGR"
"Selangor, MY","Klang, SGR","41900, SGR"
"Selangor, MY","Klang, SGR","41902, SGR"
"Selangor, MY","Klang, SGR","41904, SGR"
"Selangor, MY","Klang, SGR","41906, SGR"
"Selangor, MY","Klang, SGR","41908, SGR"
"Selangor, MY","Klang, SGR","41910, SGR"
"Selangor, MY","Klang, SGR","41912, SGR"
"Selangor, MY","Klang, SGR","41914, SGR"
"Selangor, MY","Klang, SGR","41916, SGR"
"Selangor, MY","Klang, SGR","41918, SGR"
"Selangor, MY","Klang, SGR","41990, SGR"
"Selangor, MY","Pelabuhan Klang, SGR","42000, SGR"
"Selangor, MY","Pelabuhan Klang, SGR","42009, SGR"
"Selangor, MY","Klang, SGR","42100, SGR"
"Selangor, MY","Kapar, SGR","42200, SGR"
"Selangor, MY","Bandar Puncak Alam, SGR","42300, SGR"
"Selangor, MY","Telok Panglima Garang, SGR","42425, SGR"
"Selangor, MY","Telok Panglima Garang, SGR","42500, SGR"
"Selangor, MY","Telok Panglima Garang, SGR","42507, SGR"
"Selangor, MY","Telok Panglima Garang, SGR","42509, SGR"
"Selangor, MY","Jenjarom, SGR","42600, SGR"
"Selangor, MY","Jenjarom, SGR","42610, SGR"
"Selangor, MY","Banting, SGR","42700, SGR"
"Selangor, MY","Tanjong Sepat, SGR","42800, SGR"
"Selangor, MY","Pulau Indah, SGR","42920, SGR"
"Selangor, MY","Pelabuhan Klang, SGR","42920, SGR"
"Selangor, MY","Pulau Ketam, SGR","42940, SGR"
"Selangor, MY","Pulau Carey, SGR","42960, SGR"
"Selangor, MY","Kajang, SGR","43000, SGR"
"Selangor, MY","Kajang, SGR","43007, SGR"
"Selangor, MY","Kajang, SGR","43009, SGR"
"Selangor, MY","Hulu Langat, SGR","43100, SGR"
"Selangor, MY","Cheras, SGR","43200, SGR"
"Selangor, MY","Cheras, SGR","43207, SGR"
"Selangor, MY","Seri Kembangan, SGR","43300, SGR"
"Selangor, MY","Serdang, SGR","43400, SGR"
"Selangor, MY","Semenyih, SGR","43500, SGR"
"Selangor, MY","Kajang, SGR","43558, SGR"
"Selangor, MY","Bangi, SGR","43600, SGR"
"Selangor, MY","Bandar Baru Bangi, SGR","43650, SGR"
"Selangor, MY","Beranang, SGR","43700, SGR"
"Selangor, MY","Dengkil, SGR","43800, SGR"
"Selangor, MY","Dengkil, SGR","43807, SGR"
"Selangor, MY","Sepang, SGR","43900, SGR"
"Selangor, MY","Sungai Pelek, SGR","43950, SGR"
"Selangor, MY","Kuala Kubu Baru, SGR","44000, SGR"
"Selangor, MY","Kuala Kubu Baru, SGR","44010, SGR"
"Selangor, MY","Kuala Kubu Baru, SGR","44020, SGR"
"Selangor, MY","Kerling, SGR","44100, SGR"
"Selangor, MY","Kuala Kubu Baru, SGR","44110, SGR"
"Selangor, MY","Rasa, SGR","44200, SGR"
"Selangor, MY","Batang Kali, SGR","44300, SGR"
"Selangor, MY","Batangkali, SGR","44300, SGR"
"Selangor, MY","Kuala Selangor, SGR","45000, SGR"
"Selangor, MY","Sungai Ayer Tawar, SGR","45100, SGR"
"Selangor, MY","Sabak Bernam, SGR","45200, SGR"
"Selangor, MY","Sabak Bernam, SGR","45207, SGR"
"Selangor, MY","Sabak Bernam, SGR","45209, SGR"
"Selangor, MY","Sungai Besar, SGR","45300, SGR"
"Selangor, MY","Sekinchan, SGR","45400, SGR"
"Selangor, MY","Tanjong Karang, SGR","45500, SGR"
"Selangor, MY","Batang Berjuntai, SGR","45600, SGR"
"Selangor, MY","Batang Berjuntai, SGR","45607, SGR"
"Selangor, MY","Batang Berjuntai, SGR","45609, SGR"
"Selangor, MY","Batang Berjuntai, SGR","45620, SGR"
"Selangor, MY","Bukit Rotan, SGR","45700, SGR"
"Selangor, MY","Jeram, SGR","45800, SGR"
"Selangor, MY","Petaling Jaya, SGR","46000, SGR"
"Selangor, MY","Petaling Jaya, SGR","46050, SGR"
"Selangor, MY","Petaling Jaya, SGR","46100, SGR"
"Selangor, MY","Petaling Jaya, SGR","46150, SGR"
"Selangor, MY","Petaling Jaya, SGR","46200, SGR"
"Selangor, MY","Petaling Jaya, SGR","46300, SGR"
"Selangor, MY","Petaling Jaya, SGR","46350, SGR"
"Selangor, MY","Petaling Jaya, SGR","46400, SGR"
"Selangor, MY","Petaling Jaya, SGR","46506, SGR"
"Selangor, MY","Petaling Jaya, SGR","46547, SGR"
"Selangor, MY","Petaling Jaya, SGR","46549, SGR"
"Selangor, MY","Petaling Jaya, SGR","46551, SGR"
"Selangor, MY","Petaling Jaya, SGR","46564, SGR"
"Selangor, MY","Petaling Jaya, SGR","46582, SGR"
"Selangor, MY","Petaling Jaya, SGR","46598, SGR"
"Selangor, MY","Petaling Jaya, SGR","46662, SGR"
"Selangor, MY","Petaling Jaya, SGR","46667, SGR"
"Selangor, MY","Petaling Jaya, SGR","46668, SGR"
"Selangor, MY","Petaling Jaya, SGR","46672, SGR"
"Selangor, MY","Petaling Jaya, SGR","46675, SGR"
"Selangor, MY","Petaling Jaya, SGR","46700, SGR"
"Selangor, MY","Petaling Jaya, SGR","46710, SGR"
"Selangor, MY","Petaling Jaya, SGR","46720, SGR"
"Selangor, MY","Petaling Jaya, SGR","46730, SGR"
"Selangor, MY","Petaling Jaya, SGR","46740, SGR"
"Selangor, MY","Petaling Jaya, SGR","46750, SGR"
"Selangor, MY","Petaling Jaya, SGR","46760, SGR"
"Selangor, MY","Petaling Jaya, SGR","46770, SGR"
"Selangor, MY","Petaling Jaya, SGR","46780, SGR"
"Selangor, MY","Petaling Jaya, SGR","46781, SGR"
"Selangor, MY","Petaling Jaya, SGR","46782, SGR"
"Selangor, MY","Petaling Jaya, SGR","46783, SGR"
"Selangor, MY","Petaling Jaya, SGR","46784, SGR"
"Selangor, MY","Petaling Jaya, SGR","46785, SGR"
"Selangor, MY","Petaling Jaya, SGR","46786, SGR"
"Selangor, MY","Petaling Jaya, SGR","46787, SGR"
"Selangor, MY","Petaling Jaya, SGR","46788, SGR"
"Selangor, MY","Petaling Jaya, SGR","46789, SGR"
"Selangor, MY","Petaling Jaya, SGR","46790, SGR"
"Selangor, MY","Petaling Jaya, SGR","46791, SGR"
"Selangor, MY","Petaling Jaya, SGR","46792, SGR"
"Selangor, MY","Petaling Jaya, SGR","46793, SGR"
"Selangor, MY","Petaling Jaya, SGR","46794, SGR"
"Selangor, MY","Petaling Jaya, SGR","46795, SGR"
"Selangor, MY","Petaling Jaya, SGR","46796, SGR"
"Selangor, MY","Petaling Jaya, SGR","46797, SGR"
"Selangor, MY","Petaling Jaya, SGR","46798, SGR"
"Selangor, MY","Petaling Jaya, SGR","46799, SGR"
"Selangor, MY","Petaling Jaya, SGR","46800, SGR"
"Selangor, MY","Petaling Jaya, SGR","46801, SGR"
"Selangor, MY","Petaling Jaya, SGR","46802, SGR"
"Selangor, MY","Petaling Jaya, SGR","46803, SGR"
"Selangor, MY","Petaling Jaya, SGR","46804, SGR"
"Selangor, MY","Petaling Jaya, SGR","46805, SGR"
"Selangor, MY","Petaling Jaya, SGR","46806, SGR"
"Selangor, MY","Petaling Jaya, SGR","46860, SGR"
"Selangor, MY","Petaling Jaya, SGR","46870, SGR"
"Selangor, MY","Petaling Jaya, SGR","46960, SGR"
"Selangor, MY","Petaling Jaya, SGR","46962, SGR"
"Selangor, MY","Petaling Jaya, SGR","46964, SGR"
"Selangor, MY","Petaling Jaya, SGR","46966, SGR"
"Selangor, MY","Petaling Jaya, SGR","46968, SGR"
"Selangor, MY","Petaling Jaya, SGR","46970, SGR"
"Selangor, MY","Petaling Jaya, SGR","46972, SGR"
"Selangor, MY","Petaling Jaya, SGR","46974, SGR"
"Selangor, MY","Petaling Jaya, SGR","46976, SGR"
"Selangor, MY","Petaling Jaya, SGR","46978, SGR"
"Selangor, MY","Sungai Buloh, SGR","47000, SGR"
"Selangor, MY","Puchong, SGR","47100, SGR"
"Selangor, MY","Sungai Buloh, SGR","47100, SGR"
"Selangor, MY","Puchong, SGR","47110, SGR"
"Selangor, MY","Puchong, SGR","47120, SGR"
"Selangor, MY","Puchong, SGR","47130, SGR"
"Selangor, MY","Puchong, SGR","47140, SGR"
"Selangor, MY","Puchong, SGR","47150, SGR"
"Selangor, MY","Puchong, SGR","47160, SGR"
"Selangor, MY","Puchong, SGR","47170, SGR"
"Selangor, MY","Puchong, SGR","47180, SGR"
"Selangor, MY","Puchong, SGR","47190, SGR"
"Selangor, MY","Subang Airport, SGR","47200, SGR"
"Selangor, MY","Petaling Jaya, SGR","47300, SGR"
"Selangor, MY","Petaling Jaya, SGR","47301, SGR"
"Selangor, MY","Petaling Jaya, SGR","47307, SGR"
"Selangor, MY","Petaling Jaya, SGR","47308, SGR"
"Selangor, MY","Petaling Jaya, SGR","47400, SGR"
"Selangor, MY","Petaling Jaya, SGR","47410, SGR"
"Selangor, MY","Petaling Jaya, SGR","47500, SGR"
"Selangor, MY","Subang Jaya, SGR","47500, SGR"
"Selangor, MY","Subang Jaya, SGR","47507, SGR"
"Selangor, MY","Subang Jaya, SGR","47600, SGR"
"Selangor, MY","Subang Jaya, SGR","47610, SGR"
"Selangor, MY","Subang Jaya, SGR","47620, SGR"
"Selangor, MY","Subang Jaya, SGR","47630, SGR"
"Selangor, MY","Subang Jaya, SGR","47640, SGR"
"Selangor, MY","Subang Jaya, SGR","47650, SGR"
"Selangor, MY","Petaling Jaya, SGR","47800, SGR"
"Selangor, MY","Petaling Jaya, SGR","47810, SGR"
"Selangor, MY","Petaling Jaya, SGR","47820, SGR"
"Selangor, MY","Petaling Jaya, SGR","47830, SGR"
"Selangor, MY","Rawang, SGR","48000, SGR"
"Selangor, MY","Rawang, SGR","48010, SGR"
"Selangor, MY","Rawang, SGR","48020, SGR"
"Selangor, MY","Rawang, SGR","48050, SGR"
"Selangor, MY","Batu Arang, SGR","48100, SGR"
"Selangor, MY","Rawang, SGR","48100, SGR"
"Selangor, MY","Serendah, SGR","48200, SGR"
"Selangor, MY","Rawang, SGR","48300, SGR"
"Selangor, MY","Gombak, SGR","53100, SGR"
"Selangor, MY","Pandan, SGR","55100, SGR"
"Selangor, MY","Cheras, SGR","56000, SGR"
"Selangor, MY","Cheras, SGR","56100, SGR"
"Selangor, MY","Cyberjaya, SGR","63000, SGR"
"Selangor, MY","Cyberjaya, SGR","63100, SGR"
"Selangor, MY","Cyberjaya, SGR","63200, SGR"
"Selangor, MY","Cyberjaya, SGR","63300, SGR"
"Selangor, MY","KLIA, SGR","64000, SGR"
"Selangor, MY","Ampang, SGR","68000, SGR"
"Selangor, MY","Batu Caves, SGR","68100, SGR"
"Sarawak, MY","Kuching, SRW","93000, SRW"
"Sarawak, MY","Kuching, SRW","93010, SRW"
"Sarawak, MY","Kuching, SRW","93050, SRW"
"Sarawak, MY","Kuching, SRW","93100, SRW"
"Sarawak, MY","Kuching, SRW","93150, SRW"
"Sarawak, MY","Kuching, SRW","93200, SRW"
"Sarawak, MY","Kuching, SRW","93250, SRW"
"Sarawak, MY","Kuching, SRW","93300, SRW"
"Sarawak, MY","Kuching, SRW","93350, SRW"
"Sarawak, MY","Kuching, SRW","93400, SRW"
"Sarawak, MY","Kuching, SRW","93450, SRW"
"Sarawak, MY","Kuching, SRW","93500, SRW"
"Sarawak, MY","Kuching, SRW","93502, SRW"
"Sarawak, MY","Kuching, SRW","93503, SRW"
"Sarawak, MY","Kuching, SRW","93504, SRW"
"Sarawak, MY","Kuching, SRW","93505, SRW"
"Sarawak, MY","Kuching, SRW","93506, SRW"
"Sarawak, MY","Kuching, SRW","93507, SRW"
"Sarawak, MY","Kuching, SRW","93508, SRW"
"Sarawak, MY","Kuching, SRW","93514, SRW"
"Sarawak, MY","Kuching, SRW","93516, SRW"
"Sarawak, MY","Kuching, SRW","93517, SRW"
"Sarawak, MY","Kuching, SRW","93518, SRW"
"Sarawak, MY","Kuching, SRW","93519, SRW"
"Sarawak, MY","Kuching, SRW","93520, SRW"
"Sarawak, MY","Kuching, SRW","93527, SRW"
"Sarawak, MY","Kuching, SRW","93529, SRW"
"Sarawak, MY","Kuching, SRW","93532, SRW"
"Sarawak, MY","Kuching, SRW","93540, SRW"
"Sarawak, MY","Kuching, SRW","93550, SRW"
"Sarawak, MY","Kuching, SRW","93551, SRW"
"Sarawak, MY","Kuching, SRW","93552, SRW"
"Sarawak, MY","Kuching, SRW","93554, SRW"
"Sarawak, MY","Kuching, SRW","93556, SRW"
"Sarawak, MY","Kuching, SRW","93558, SRW"
"Sarawak, MY","Kuching, SRW","93560, SRW"
"Sarawak, MY","Kuching, SRW","93564, SRW"
"Sarawak, MY","Kuching, SRW","93566, SRW"
"Sarawak, MY","Kuching, SRW","93570, SRW"
"Sarawak, MY","Kuching, SRW","93572, SRW"
"Sarawak, MY","Kuching, SRW","93576, SRW"
"Sarawak, MY","Kuching, SRW","93578, SRW"
"Sarawak, MY","Kuching, SRW","93582, SRW"
"Sarawak, MY","Kuching, SRW","93586, SRW"
"Sarawak, MY","Kuching, SRW","93590, SRW"
"Sarawak, MY","Kuching, SRW","93592, SRW"
"Sarawak, MY","Kuching, SRW","93594, SRW"
"Sarawak, MY","Kuching, SRW","93596, SRW"
"Sarawak, MY","Kuching, SRW","93600, SRW"
"Sarawak, MY","Kuching, SRW","93604, SRW"
"Sarawak, MY","Kuching, SRW","93606, SRW"
"Sarawak, MY","Kuching, SRW","93608, SRW"
"Sarawak, MY","Kuching, SRW","93609, SRW"
"Sarawak, MY","Kuching, SRW","93610, SRW"
"Sarawak, MY","Kuching, SRW","93612, SRW"
"Sarawak, MY","Kuching, SRW","93614, SRW"
"Sarawak, MY","Kuching, SRW","93618, SRW"
"Sarawak, MY","Kuching, SRW","93619, SRW"
"Sarawak, MY","Kuching, SRW","93620, SRW"
"Sarawak, MY","Kuching, SRW","93626, SRW"
"Sarawak, MY","Kuching, SRW","93628, SRW"
"Sarawak, MY","Kuching, SRW","93632, SRW"
"Sarawak, MY","Kuching, SRW","93634, SRW"
"Sarawak, MY","Kuching, SRW","93648, SRW"
"Sarawak, MY","Kuching, SRW","93658, SRW"
"Sarawak, MY","Kuching, SRW","93660, SRW"
"Sarawak, MY","Kuching, SRW","93661, SRW"
"Sarawak, MY","Kuching, SRW","93662, SRW"
"Sarawak, MY","Kuching, SRW","93670, SRW"
"Sarawak, MY","Kuching, SRW","93672, SRW"
"Sarawak, MY","Kuching, SRW","93677, SRW"
"Sarawak, MY","Kuching, SRW","93690, SRW"
"Sarawak, MY","Kuching, SRW","93694, SRW"
"Sarawak, MY","Kuching, SRW","93700, SRW"
"Sarawak, MY","Kuching, SRW","93702, SRW"
"Sarawak, MY","Kuching, SRW","93704, SRW"
"Sarawak, MY","Kuching, SRW","93706, SRW"
"Sarawak, MY","Kuching, SRW","93708, SRW"
"Sarawak, MY","Kuching, SRW","93710, SRW"
"Sarawak, MY","Kuching, SRW","93712, SRW"
"Sarawak, MY","Kuching, SRW","93714, SRW"
"Sarawak, MY","Kuching, SRW","93716, SRW"
"Sarawak, MY","Kuching, SRW","93718, SRW"
"Sarawak, MY","Kuching, SRW","93720, SRW"
"Sarawak, MY","Kuching, SRW","93722, SRW"
"Sarawak, MY","Kuching, SRW","93724, SRW"
"Sarawak, MY","Kuching, SRW","93726, SRW"
"Sarawak, MY","Kuching, SRW","93728, SRW"
"Sarawak, MY","Kuching, SRW","93730, SRW"
"Sarawak, MY","Kuching, SRW","93732, SRW"
"Sarawak, MY","Kuching, SRW","93734, SRW"
"Sarawak, MY","Kuching, SRW","93736, SRW"
"Sarawak, MY","Kuching, SRW","93738, SRW"
"Sarawak, MY","Kuching, SRW","93740, SRW"
"Sarawak, MY","Kuching, SRW","93742, SRW"
"Sarawak, MY","Kuching, SRW","93744, SRW"
"Sarawak, MY","Kuching, SRW","93746, SRW"
"Sarawak, MY","Kuching, SRW","93748, SRW"
"Sarawak, MY","Kuching, SRW","93750, SRW"
"Sarawak, MY","Kuching, SRW","93752, SRW"
"Sarawak, MY","Kuching, SRW","93754, SRW"
"Sarawak, MY","Kuching, SRW","93756, SRW"
"Sarawak, MY","Kuching, SRW","93758, SRW"
"Sarawak, MY","Kuching, SRW","93760, SRW"
"Sarawak, MY","Kuching, SRW","93762, SRW"
"Sarawak, MY","Kuching, SRW","93764, SRW"
"Sarawak, MY","Kuching, SRW","93900, SRW"
"Sarawak, MY","Kuching, SRW","93902, SRW"
"Sarawak, MY","Kuching, SRW","93904, SRW"
"Sarawak, MY","Kuching, SRW","93906, SRW"
"Sarawak, MY","Kuching, SRW","93908, SRW"
"Sarawak, MY","Kuching, SRW","93910, SRW"
"Sarawak, MY","Kuching, SRW","93912, SRW"
"Sarawak, MY","Kuching, SRW","93914, SRW"
"Sarawak, MY","Kuching, SRW","93916, SRW"
"Sarawak, MY","Kuching, SRW","93990, SRW"
"Sarawak, MY","Bau, SRW","94000, SRW"
"Sarawak, MY","Bau, SRW","94007, SRW"
"Sarawak, MY","Bau, SRW","94009, SRW"
"Sarawak, MY","Siburan, SRW","94200, SRW"
"Sarawak, MY","Kota Samarahan, SRW","94300, SRW"
"Sarawak, MY","Lundu, SRW","94500, SRW"
"Sarawak, MY","Lundu, SRW","94507, SRW"
"Sarawak, MY","Lundu, SRW","94509, SRW"
"Sarawak, MY","Asajaya, SRW","94600, SRW"
"Sarawak, MY","Kabong, SRW","94650, SRW"
"Sarawak, MY","Serian, SRW","94700, SRW"
"Sarawak, MY","Serian, SRW","94707, SRW"
"Sarawak, MY","Serian, SRW","94709, SRW"
"Sarawak, MY","Serian, SRW","94750, SRW"
"Sarawak, MY","Serian, SRW","94760, SRW"
"Sarawak, MY","Simunjan, SRW","94800, SRW"
"Sarawak, MY","Simunjan, SRW","94807, SRW"
"Sarawak, MY","Simunjan, SRW","94809, SRW"
"Sarawak, MY","Sebuyau, SRW","94850, SRW"
"Sarawak, MY","Lingga, SRW","94900, SRW"
"Sarawak, MY","Pusa, SRW","94950, SRW"
"Sarawak, MY","Sri Aman, SRW","95000, SRW"
"Sarawak, MY","Sri Aman, SRW","95007, SRW"
"Sarawak, MY","Sri Aman, SRW","95008, SRW"
"Sarawak, MY","Sri Aman, SRW","95009, SRW"
"Sarawak, MY","Roban, SRW","95300, SRW"
"Sarawak, MY","Saratok, SRW","95400, SRW"
"Sarawak, MY","Saratok, SRW","95407, SRW"
"Sarawak, MY","Saratok, SRW","95409, SRW"
"Sarawak, MY","Debak, SRW","95500, SRW"
"Sarawak, MY","Spaoh, SRW","95600, SRW"
"Sarawak, MY","Betong, SRW","95700, SRW"
"Sarawak, MY","Betong, SRW","95707, SRW"
"Sarawak, MY","Betong, SRW","95709, SRW"
"Sarawak, MY","Engkilili, SRW","95800, SRW"
"Sarawak, MY","Lubok Antu, SRW","95900, SRW"
"Sarawak, MY","Sibu, SRW","96000, SRW"
"Sarawak, MY","Sibu, SRW","96007, SRW"
"Sarawak, MY","Sibu, SRW","96008, SRW"
"Sarawak, MY","Sibu, SRW","96009, SRW"
"Sarawak, MY","Sarikei, SRW","96100, SRW"
"Sarawak, MY","Sarikei, SRW","96107, SRW"
"Sarawak, MY","Sarikei, SRW","96108, SRW"
"Sarawak, MY","Sarikei, SRW","96109, SRW"
"Sarawak, MY","Belawai, SRW","96150, SRW"
"Sarawak, MY","Daro, SRW","96200, SRW"
"Sarawak, MY","Matu, SRW","96250, SRW"
"Sarawak, MY","Dalat, SRW","96300, SRW"
"Sarawak, MY","Dalat, SRW","96307, SRW"
"Sarawak, MY","Dalat, SRW","96309, SRW"
"Sarawak, MY","Balingian, SRW","96350, SRW"
"Sarawak, MY","Mukah, SRW","96400, SRW"
"Sarawak, MY","Mukah, SRW","96410, SRW"
"Sarawak, MY","Bintangor, SRW","96500, SRW"
"Sarawak, MY","Bintangor, SRW","96507, SRW"
"Sarawak, MY","Bintangor, SRW","96508, SRW"
"Sarawak, MY","Bintangor, SRW","96509, SRW"
"Sarawak, MY","Julau, SRW","96600, SRW"
"Sarawak, MY","Kanowit, SRW","96700, SRW"
"Sarawak, MY","Kanowit, SRW","96707, SRW"
"Sarawak, MY","Kanowit, SRW","96709, SRW"
"Sarawak, MY","Kapit, SRW","96800, SRW"
"Sarawak, MY","Kapit, SRW","96807, SRW"
"Sarawak, MY","Kapit, SRW","96809, SRW"
"Sarawak, MY","Song, SRW","96850, SRW"
"Sarawak, MY","Belaga, SRW","96900, SRW"
"Sarawak, MY","Bintulu, SRW","97000, SRW"
"Sarawak, MY","Bintulu, SRW","97007, SRW"
"Sarawak, MY","Bintulu, SRW","97008, SRW"
"Sarawak, MY","Bintulu, SRW","97009, SRW"
"Sarawak, MY","Bintulu, SRW","97010, SRW"
"Sarawak, MY","Bintulu, SRW","97011, SRW"
"Sarawak, MY","Bintulu, SRW","97012, SRW"
"Sarawak, MY","Bintulu, SRW","97013, SRW"
"Sarawak, MY","Bintulu, SRW","97014, SRW"
"Sarawak, MY","Bintulu, SRW","97015, SRW"
"Sarawak, MY","Sebauh, SRW","97100, SRW"
"Sarawak, MY","Tatau, SRW","97200, SRW"
"Sarawak, MY","Bintulu, SRW","97300, SRW"
"Sarawak, MY","Miri, SRW","98000, SRW"
"Sarawak, MY","Miri, SRW","98007, SRW"
"Sarawak, MY","Miri, SRW","98008, SRW"
"Sarawak, MY","Miri, SRW","98009, SRW"
"Sarawak, MY","Baram, SRW","98050, SRW"
"Sarawak, MY","Baram, SRW","98057, SRW"
"Sarawak, MY","Baram, SRW","98058, SRW"
"Sarawak, MY","Baram, SRW","98059, SRW"
"Sarawak, MY","Lutong, SRW","98100, SRW"
"Sarawak, MY","Lutong, SRW","98107, SRW"
"Sarawak, MY","Lutong, SRW","98109, SRW"
"Sarawak, MY","Bekenu, SRW","98150, SRW"
"Sarawak, MY","Bekenu, SRW","98157, SRW"
"Sarawak, MY","Bekenu, SRW","98159, SRW"
"Sarawak, MY","Niah, SRW","98200, SRW"
"Sarawak, MY","Long Lama, SRW","98300, SRW"
"Sarawak, MY","Limbang, SRW","98700, SRW"
"Sarawak, MY","Limbang, SRW","98707, SRW"
"Sarawak, MY","Limbang, SRW","98708, SRW"
"Sarawak, MY","Limbang, SRW","98709, SRW"
"Sarawak, MY","Nanga Medamit, SRW","98750, SRW"
"Sarawak, MY","Sundar, SRW","98800, SRW"
"Sarawak, MY","Lawas, SRW","98850, SRW"
"Sarawak, MY","Lawas, SRW","98857, SRW"
"Sarawak, MY","Lawas, SRW","98859, SRW"
"Terengganu, MY","Kuala Terengganu, TRG","20000, TRG"
"Terengganu, MY","Kuala Terengganu, TRG","20050, TRG"
"Terengganu, MY","Kuala Terengganu, TRG","20100, TRG"
"Terengganu, MY","Kuala Terengganu, TRG","20200, TRG"
"Terengganu, MY","Kuala Terengganu, TRG","20300, TRG"
"Terengganu, MY","Kuala Terengganu, TRG","20400, TRG"
"Terengganu, MY","Kuala Terengganu, TRG","20500, TRG"
"Terengganu, MY","Kuala Terengganu, TRG","20502, TRG"
"Terengganu, MY","Kuala Terengganu, TRG","20503, TRG"
"Terengganu, MY","Kuala Terengganu, TRG","20504, TRG"
"Terengganu, MY","Kuala Terengganu, TRG","20505, TRG"
"Terengganu, MY","Kuala Terengganu, TRG","20506, TRG"
"Terengganu, MY","Kuala Terengganu, TRG","20508, TRG"
"Terengganu, MY","Kuala Terengganu, TRG","20512, TRG"
"Terengganu, MY","Kuala Terengganu, TRG","20514, TRG"
"Terengganu, MY","Kuala Terengganu, TRG","20516, TRG"
"Terengganu, MY","Kuala Terengganu, TRG","20517, TRG"
"Terengganu, MY","Kuala Terengganu, TRG","20518, TRG"
"Terengganu, MY","Kuala Terengganu, TRG","20519, TRG"
"Terengganu, MY","Kuala Terengganu, TRG","20520, TRG"
"Terengganu, MY","Kuala Terengganu, TRG","20532, TRG"
"Terengganu, MY","Kuala Terengganu, TRG","20534, TRG"
"Terengganu, MY","Kuala Terengganu, TRG","20536, TRG"
"Terengganu, MY","Kuala Terengganu, TRG","20538, TRG"
"Terengganu, MY","Kuala Terengganu, TRG","20540, TRG"
"Terengganu, MY","Kuala Terengganu, TRG","20542, TRG"
"Terengganu, MY","Kuala Terengganu, TRG","20546, TRG"
"Terengganu, MY","Kuala Terengganu, TRG","20548, TRG"
"Terengganu, MY","Kuala Terengganu, TRG","20550, TRG"
"Terengganu, MY","Kuala Terengganu, TRG","20551, TRG"
"Terengganu, MY","Kuala Terengganu, TRG","20552, TRG"
"Terengganu, MY","Kuala Terengganu, TRG","20554, TRG"
"Terengganu, MY","Kuala Terengganu, TRG","20556, TRG"
"Terengganu, MY","Kuala Terengganu, TRG","20560, TRG"
"Terengganu, MY","Kuala Terengganu, TRG","20564, TRG"
"Terengganu, MY","Kuala Terengganu, TRG","20566, TRG"
"Terengganu, MY","Kuala Terengganu, TRG","20568, TRG"
"Terengganu, MY","Kuala Terengganu, TRG","20570, TRG"
"Terengganu, MY","Kuala Terengganu, TRG","20572, TRG"
"Terengganu, MY","Kuala Terengganu, TRG","20576, TRG"
"Terengganu, MY","Kuala Terengganu, TRG","20578, TRG"
"Terengganu, MY","Kuala Terengganu, TRG","20582, TRG"
"Terengganu, MY","Kuala Terengganu, TRG","20586, TRG"
"Terengganu, MY","Kuala Terengganu, TRG","20590, TRG"
"Terengganu, MY","Kuala Terengganu, TRG","20592, TRG"
"Terengganu, MY","Kuala Terengganu, TRG","20596, TRG"
"Terengganu, MY","Kuala Terengganu, TRG","20600, TRG"
"Terengganu, MY","Kuala Terengganu, TRG","20604, TRG"
"Terengganu, MY","Kuala Terengganu, TRG","20606, TRG"
"Terengganu, MY","Kuala Terengganu, TRG","20608, TRG"
"Terengganu, MY","Kuala Terengganu, TRG","20609, TRG"
"Terengganu, MY","Kuala Terengganu, TRG","20610, TRG"
"Terengganu, MY","Kuala Terengganu, TRG","20612, TRG"
"Terengganu, MY","Kuala Terengganu, TRG","20614, TRG"
"Terengganu, MY","Kuala Terengganu, TRG","20618, TRG"
"Terengganu, MY","Kuala Terengganu, TRG","20620, TRG"
"Terengganu, MY","Kuala Terengganu, TRG","20622, TRG"
"Terengganu, MY","Kuala Terengganu, TRG","20626, TRG"
"Terengganu, MY","Kuala Terengganu, TRG","20628, TRG"
"Terengganu, MY","Kuala Terengganu, TRG","20630, TRG"
"Terengganu, MY","Kuala Terengganu, TRG","20632, TRG"
"Terengganu, MY","Kuala Terengganu, TRG","20646, TRG"
"Terengganu, MY","Kuala Terengganu, TRG","20648, TRG"
"Terengganu, MY","Kuala Terengganu, TRG","20656, TRG"
"Terengganu, MY","Kuala Terengganu, TRG","20658, TRG"
"Terengganu, MY","Kuala Terengganu, TRG","20660, TRG"
"Terengganu, MY","Kuala Terengganu, TRG","20661, TRG"
"Terengganu, MY","Kuala Terengganu, TRG","20662, TRG"
"Terengganu, MY","Kuala Terengganu, TRG","20664, TRG"
"Terengganu, MY","Kuala Terengganu, TRG","20668, TRG"
"Terengganu, MY","Kuala Terengganu, TRG","20670, TRG"
"Terengganu, MY","Kuala Terengganu, TRG","20672, TRG"
"Terengganu, MY","Kuala Terengganu, TRG","20673, TRG"
"Terengganu, MY","Kuala Terengganu, TRG","20674, TRG"
"Terengganu, MY","Kuala Terengganu, TRG","20676, TRG"
"Terengganu, MY","Kuala Terengganu, TRG","20680, TRG"
"Terengganu, MY","Kuala Terengganu, TRG","20690, TRG"
"Terengganu, MY","Kuala Terengganu, TRG","20698, TRG"
"Terengganu, MY","Kuala Terengganu, TRG","20700, TRG"
"Terengganu, MY","Kuala Terengganu, TRG","20710, TRG"
"Terengganu, MY","Kuala Terengganu, TRG","20720, TRG"
"Terengganu, MY","Kuala Terengganu, TRG","20900, TRG"
"Terengganu, MY","Kuala Terengganu, TRG","20902, TRG"
"Terengganu, MY","Kuala Terengganu, TRG","20904, TRG"
"Terengganu, MY","Kuala Terengganu, TRG","20906, TRG"
"Terengganu, MY","Kuala Terengganu, TRG","20908, TRG"
"Terengganu, MY","Kuala Terengganu, TRG","20910, TRG"
"Terengganu, MY","Kuala Terengganu, TRG","20912, TRG"
"Terengganu, MY","Kuala Terengganu, TRG","20914, TRG"
"Terengganu, MY","Kuala Terengganu, TRG","20916, TRG"
"Terengganu, MY","Kuala Terengganu, TRG","20918, TRG"
"Terengganu, MY","Kuala Terengganu, TRG","20920, TRG"
"Terengganu, MY","Kuala Terengganu, TRG","20922, TRG"
"Terengganu, MY","Kuala Terengganu, TRG","20924, TRG"
"Terengganu, MY","Kuala Terengganu, TRG","20926, TRG"
"Terengganu, MY","Kuala Terengganu, TRG","20928, TRG"
"Terengganu, MY","Kuala Terengganu, TRG","20930, TRG"
"Terengganu, MY","Kuala Terengganu, TRG","20990, TRG"
"Terengganu, MY","Kuala Terengganu, TRG","21000, TRG"
"Terengganu, MY","Kuala Terengganu, TRG","21009, TRG"
"Terengganu, MY","Kuala Terengganu, TRG","21010, TRG"
"Terengganu, MY","Kuala Terengganu, TRG","21020, TRG"
"Terengganu, MY","Kuala Terengganu, TRG","21030, TRG"
"Terengganu, MY","Kuala Terengganu, TRG","21040, TRG"
"Terengganu, MY","Kuala Terengganu, TRG","21060, TRG"
"Terengganu, MY","Kuala Terengganu, TRG","21070, TRG"
"Terengganu, MY","Kuala Terengganu, TRG","21080, TRG"
"Terengganu, MY","Kuala Terengganu, TRG","21090, TRG"
"Terengganu, MY","Kuala Terengganu, TRG","21100, TRG"
"Terengganu, MY","Kuala Terengganu, TRG","21109, TRG"
"Terengganu, MY","Kuala Terengganu, TRG","21200, TRG"
"Terengganu, MY","Kuala Terengganu, TRG","21209, TRG"
"Terengganu, MY","Kuala Terengganu, TRG","21210, TRG"
"Terengganu, MY","Kuala Terengganu, TRG","21220, TRG"
"Terengganu, MY","Kuala Terengganu, TRG","21300, TRG"
"Terengganu, MY","Kuala Terengganu, TRG","21309, TRG"
"Terengganu, MY","Bukit Payong, TRG","21400, TRG"
"Terengganu, MY","Chalok, TRG","21450, TRG"
"Terengganu, MY","Sungai Tong, TRG","21500, TRG"
"Terengganu, MY","Marang, TRG","21600, TRG"
"Terengganu, MY","Marang, TRG","21610, TRG"
"Terengganu, MY","Kuala Berang, TRG","21700, TRG"
"Terengganu, MY","Ajil, TRG","21800, TRG"
"Terengganu, MY","Ajil, TRG","21810, TRG"
"Terengganu, MY","Ajil, TRG","21820, TRG"
"Terengganu, MY","Jerteh, TRG","22000, TRG"
"Terengganu, MY","Jerteh, TRG","22010, TRG"
"Terengganu, MY","Jerteh, TRG","22020, TRG"
"Terengganu, MY","Permaisuri, TRG","22100, TRG"
"Terengganu, MY","Permaisuri, TRG","22107, TRG"
"Terengganu, MY","Permaisuri, TRG","22109, TRG"
"Terengganu, MY","Permaisuri, TRG","22110, TRG"
"Terengganu, MY","Permaisuri, TRG","22120, TRG"
"Terengganu, MY","Kampung Raja, TRG","22200, TRG"
"Terengganu, MY","Kuala Besut, TRG","22300, TRG"
"Terengganu, MY","Kuala Besut, TRG","22307, TRG"
"Terengganu, MY","Kuala Besut, TRG","22309, TRG"
"Terengganu, MY","Dungun, TRG","23000, TRG"
"Terengganu, MY","Dungun, TRG","23007, TRG"
"Terengganu, MY","Dungun, TRG","23009, TRG"
"Terengganu, MY","Dungun, TRG","23050, TRG"
"Terengganu, MY","Paka, TRG","23100, TRG"
"Terengganu, MY","Bukit Besi, TRG","23200, TRG"
"Terengganu, MY","Ketengah Jaya, TRG","23300, TRG"
"Terengganu, MY","Al Muktatfi Billah Shah, TRG","23400, TRG"
"Terengganu, MY","Cukai, TRG","24000, TRG"
"Terengganu, MY","Cukai, TRG","24007, TRG"
"Terengganu, MY","Cukai, TRG","24009, TRG"
"Terengganu, MY","Ceneh, TRG","24050, TRG"
"Terengganu, MY","Ayer Puteh, TRG","24050, TRG"
"Terengganu, MY","Ceneh, TRG","24060, TRG"
"Terengganu, MY","Kijal, TRG","24100, TRG"
"Terengganu, MY","Kijal, TRG","24107, TRG"
"Terengganu, MY","Kijal, TRG","24109, TRG"
"Terengganu, MY","Kemasek, TRG","24200, TRG"
"Terengganu, MY","Kemasek, TRG","24207, TRG"
"Terengganu, MY","Kemasek, TRG","24209, TRG"
"Terengganu, MY","Kerteh, TRG","24300, TRG"
