state,city,zip
"Auckland, NZ","Blockhouse Bay, NZ","600, NZ"
"Auckland, NZ","Kelston, NZ","602, NZ"
"Auckland, NZ","Huia, NZ","604, NZ"
"Auckland, NZ","Te Atatu South, NZ","610, NZ"
"Auckland, NZ","McLaren Park, NZ","612, NZ"
"Auckland, NZ","Swanson, NZ","614, NZ"
"Auckland, NZ","Hobsonville, NZ","618, NZ"
"Auckland, NZ","Forrest Hill, NZ","620, NZ"
"Auckland, NZ","Belmont, NZ","622, NZ"
"Auckland, NZ","Devonport, NZ","624, NZ"
"Auckland, NZ","Chatswood, NZ","626, NZ"
"Auckland, NZ","North Shore, NZ","627, NZ"
"Auckland, NZ","Marlborough, NZ","629, NZ"
"Auckland, NZ","Browns Bay, NZ","630, NZ"
"Auckland, NZ","Greenhithe, NZ","632, NZ"
"Auckland, NZ","New Lynn, NZ","640, NZ"
"Auckland, NZ","Glen Eden, NZ","641, NZ"
"Auckland, NZ","Titirangi, NZ","642, NZ"
"Auckland, NZ","Green Bay, NZ","643, NZ"
"Auckland, NZ","Blockhouse Bay, NZ","644, NZ"
"Auckland, NZ","Glendene, NZ","645, NZ"
"Auckland, NZ","Sunnyvale, NZ","650, NZ"
"Auckland, NZ","Te Atatu, NZ","651, NZ"
"Auckland, NZ","Te Atatu South, NZ","652, NZ"
"Auckland, NZ","Swanson, NZ","653, NZ"
"Auckland, NZ","Te Atatu South, NZ","654, NZ"
"Auckland, NZ","Swanson, NZ","655, NZ"
"Auckland, NZ","Massey East, NZ","656, NZ"
"Auckland, NZ","West Harbour, NZ","657, NZ"
"Auckland, NZ","Waitakere, NZ","660, NZ"
"Auckland, NZ","Te Atatu Peninsula, NZ","661, NZ"
"Auckland, NZ","Brighams Creek, NZ","662, NZ"
"Auckland, NZ","Massey East, NZ","663, NZ"
"Auckland, NZ","Hauraki, NZ","740, NZ"
"Auckland, NZ","Milford, NZ","741, NZ"
"Auckland, NZ","Torbay, NZ","742, NZ"
"Auckland, NZ","Forrest Hill, NZ","743, NZ"
"Auckland, NZ","Devonport, NZ","744, NZ"
"Auckland, NZ","Glenfield, NZ","745, NZ"
"Auckland, NZ","Birkenhead, NZ","746, NZ"
"Auckland, NZ","Marlborough, NZ","747, NZ"
"Auckland, NZ","North Shore, NZ","748, NZ"
"Auckland, NZ","Birkdale, NZ","749, NZ"
"Auckland, NZ","Takapuna, NZ","750, NZ"
"Auckland, NZ","Glenfield, NZ","751, NZ"
"Auckland, NZ","Albany, NZ","752, NZ"
"Auckland, NZ","Browns Bay, NZ","753, NZ"
"Auckland, NZ","Mairangi Bay, NZ","754, NZ"
"Auckland, NZ","Albany, NZ","755, NZ"
"Auckland, NZ","Paremoremo, NZ","756, NZ"
"Auckland, NZ","Forrest Hill, NZ","757, NZ"
"Auckland, NZ","Mairangi Bay, NZ","758, NZ"
"Auckland, NZ","Karekare, NZ","772, NZ"
"Auckland, NZ","Piha, NZ","781, NZ"
"Auckland, NZ","Waitakere, NZ","782, NZ"
"Auckland, NZ","Red Vale, NZ","792, NZ"
"Auckland, NZ","Coatesville, NZ","793, NZ"
"Auckland, NZ","Dairy Flat, NZ","794, NZ"
"Auckland, NZ","Helensville, NZ","800, NZ"
"Auckland, NZ","Huapai, NZ","810, NZ"
"Auckland, NZ","Waimauku, NZ","812, NZ"
"Auckland, NZ","West Harbour, NZ","814, NZ"
"Auckland, NZ","Riverhead, NZ","820, NZ"
"Auckland, NZ","Parakai, NZ","830, NZ"
"Auckland, NZ","Helensville, NZ","840, NZ"
"Auckland, NZ","Huapai, NZ","841, NZ"
"Auckland, NZ","Pahitoa, NZ","842, NZ"
"Auckland, NZ","Kaukapakapa, NZ","843, NZ"
"Auckland, NZ","Kaukapakapa, NZ","871, NZ"
"Auckland, NZ","Parakakau, NZ","873, NZ"
"Auckland, NZ","Parkhurst, NZ","874, NZ"
"Auckland, NZ","Helensville, NZ","875, NZ"
"Auckland, NZ","Woodhill, NZ","881, NZ"
"Auckland, NZ","Waimauku, NZ","882, NZ"
"Auckland, NZ","Pahitoa, NZ","883, NZ"
"Auckland, NZ","Huapai, NZ","891, NZ"
"Auckland, NZ","Kumeu, NZ","892, NZ"
"Auckland, NZ","Wellsford, NZ","900, NZ"
"Auckland, NZ","Warkworth, NZ","910, NZ"
"Auckland, NZ","Leigh, NZ","920, NZ"
"Auckland, NZ","Whangaparaoa, NZ","930, NZ"
"Auckland, NZ","Orewa, NZ","931, NZ"
"Auckland, NZ","Red Beach, NZ","932, NZ"
"Auckland, NZ","Wellsford, NZ","940, NZ"
"Auckland, NZ","Warkworth, NZ","941, NZ"
"Auckland, NZ","Snells Beach, NZ","942, NZ"
"Auckland, NZ","Whangaparaoa, NZ","943, NZ"
"Auckland, NZ","Silverdale, NZ","944, NZ"
"Auckland, NZ","Red Beach, NZ","945, NZ"
"Auckland, NZ","Orewa, NZ","946, NZ"
"Auckland, NZ","Leigh, NZ","947, NZ"
"Auckland, NZ","Matakana, NZ","948, NZ"
"Auckland, NZ","Waiwera, NZ","950, NZ"
"Auckland, NZ","Puhoi, NZ","951, NZ"
"Auckland, NZ","Okiwi, NZ","960, NZ"
"Auckland, NZ","Okupu, NZ","961, NZ"
"Auckland, NZ","Tryphena, NZ","962, NZ"
"Auckland, NZ","Port Fitzroy, NZ","963, NZ"
"Auckland, NZ","Wayby, NZ","972, NZ"
"Auckland, NZ","Wharehine, NZ","973, NZ"
"Auckland, NZ","Te Hana, NZ","974, NZ"
"Auckland, NZ","Wharehine, NZ","977, NZ"
"Auckland, NZ","Woodcocks, NZ","981, NZ"
"Auckland, NZ","Algies Bay, NZ","982, NZ"
"Auckland, NZ","Pohuehue, NZ","983, NZ"
"Auckland, NZ","Ahuroa, NZ","984, NZ"
"Auckland, NZ","Big Omaha, NZ","985, NZ"
"Auckland, NZ","Tawharanui, NZ","986, NZ"
"Auckland, NZ","Whangapara, NZ","991, NZ"
"Auckland, NZ","Silverdale, NZ","992, NZ"
"Auckland, NZ","Red Beach, NZ","993, NZ"
"Auckland, NZ","Auckland, NZ","1010, NZ"
"Auckland, NZ","Herne Bay, NZ","1011, NZ"
"Auckland, NZ","Arch Hill, NZ","1021, NZ"
"Auckland, NZ","Point Chevalier, NZ","1022, NZ"
"Auckland, NZ","Epsom, NZ","1023, NZ"
"Auckland, NZ","Epsom, NZ","1024, NZ"
"Auckland, NZ","Sandringham, NZ","1025, NZ"
"Auckland, NZ","Waterview, NZ","1026, NZ"
"Auckland, NZ","Mount Roskill, NZ","1041, NZ"
"Auckland, NZ","Hillsborough, NZ","1042, NZ"
"Auckland, NZ","Remuera, NZ","1050, NZ"
"Auckland, NZ","Ellerslie, NZ","1051, NZ"
"Auckland, NZ","Point Resolution, NZ","1052, NZ"
"Auckland, NZ","Penrose, NZ","1060, NZ"
"Auckland, NZ","Te Papapa, NZ","1061, NZ"
"Auckland, NZ","OTAHUHU, NZ","1062, NZ"
"Auckland, NZ","Kohimarama, NZ","1071, NZ"
"Auckland, NZ","Tamaki, NZ","1072, NZ"
"Auckland, NZ","Ostend, NZ","1081, NZ"
"Auckland, NZ","Surfdale, NZ","1081, NZ"
"Auckland, NZ","Mechanics Bay, NZ","1140, NZ"
"Auckland, NZ","Newmarket, NZ","1141, NZ"
"Auckland, NZ","Newton, NZ","1142, NZ"
"Auckland, NZ","Mechanics Bay, NZ","1143, NZ"
"Auckland, NZ","Freemans Bay, NZ","1144, NZ"
"Auckland, NZ","Grafton, NZ","1145, NZ"
"Auckland, NZ","Herne Bay, NZ","1147, NZ"
"Auckland, NZ","Auckland, NZ","1148, NZ"
"Auckland, NZ","Parnell, NZ","1149, NZ"
"Auckland, NZ","Auckland, NZ","1150, NZ"
"Auckland, NZ","Point Resolution, NZ","1151, NZ"
"Auckland, NZ","Western Springs, NZ","1245, NZ"
"Auckland, NZ","Mount Albert, NZ","1246, NZ"
"Auckland, NZ","Wesley, NZ","1340, NZ"
"Auckland, NZ","Balmoral, NZ","1342, NZ"
"Auckland, NZ","One Tree Hill, NZ","1344, NZ"
"Auckland, NZ","Royal Oak, NZ","1345, NZ"
"Auckland, NZ","Sandringham, NZ","1346, NZ"
"Auckland, NZ","One Tree Hill, NZ","1347, NZ"
"Auckland, NZ","Avondale, NZ","1348, NZ"
"Auckland, NZ","Epsom, NZ","1349, NZ"
"Auckland, NZ","Owairaka, NZ","1350, NZ"
"Auckland, NZ","Balmoral, NZ","1351, NZ"
"Auckland, NZ","Mount Eden, NZ","1352, NZ"
"Auckland, NZ","Three Kings, NZ","1440, NZ"
"Auckland, NZ","Lynfield, NZ","1443, NZ"
"Auckland, NZ","Waikowhai, NZ","1445, NZ"
"Auckland, NZ","Mount Eden, NZ","1446, NZ"
"Auckland, NZ","Greenlane, NZ","1541, NZ"
"Auckland, NZ","Ellerslie, NZ","1542, NZ"
"Auckland, NZ","Greenlane, NZ","1543, NZ"
"Auckland, NZ","Ellerslie, NZ","1544, NZ"
"Auckland, NZ","Panmure, NZ","1545, NZ"
"Auckland, NZ","Ellerslie, NZ","1546, NZ"
"Auckland, NZ","Otahuhu, NZ","1640, NZ"
"Auckland, NZ","Panmure, NZ","1641, NZ"
"Auckland, NZ","Mount Wellington, NZ","1642, NZ"
"Auckland, NZ","Onehunga, NZ","1643, NZ"
"Auckland, NZ","Saint Heliers, NZ","1740, NZ"
"Auckland, NZ","Panmure, NZ","1741, NZ"
"Auckland, NZ","Meadowbank, NZ","1742, NZ"
"Auckland, NZ","Point England, NZ","1743, NZ"
"Auckland, NZ","Mission Bay, NZ","1744, NZ"
"Auckland, NZ","Orakei, NZ","1745, NZ"
"Auckland, NZ","New Windsor, NZ","1746, NZ"
"Auckland, NZ","Oneroa, NZ","1840, NZ"
"Auckland, NZ","Onetangi, NZ","1841, NZ"
"Auckland, NZ","Blackpool, NZ","1842, NZ"
"Auckland, NZ","Ostend, NZ","1843, NZ"
"Auckland, NZ","Onetangi, NZ","1971, NZ"
"Auckland, NZ","Pakuranga Heights, NZ","2010, NZ"
"Auckland, NZ","Eastern Beach, NZ","2012, NZ"
"Auckland, NZ","East Tamaki, NZ","2013, NZ"
"Auckland, NZ","Shelly Park, NZ","2014, NZ"
"Auckland, NZ","East Tamaki, NZ","2016, NZ"
"Auckland, NZ","Beachlands, NZ","2018, NZ"
"Auckland, NZ","Mangere, NZ","2022, NZ"
"Auckland, NZ","Wiri, NZ","2023, NZ"
"Auckland, NZ","Mangere East, NZ","2024, NZ"
"Auckland, NZ","Wiri, NZ","2025, NZ"
"Auckland, NZ","Manurewa, NZ","2102, NZ"
"Auckland, NZ","Weymouth, NZ","2103, NZ"
"Auckland, NZ","Wiri, NZ","2104, NZ"
"Auckland, NZ","Manurewa East, NZ","2105, NZ"
"Auckland, NZ","Red Hill, NZ","2110, NZ"
"Auckland, NZ","Takanini, NZ","2112, NZ"
"Auckland, NZ","Papakura, NZ","2113, NZ"
"Auckland, NZ","Pukekohe, NZ","2120, NZ"
"Auckland, NZ","Waiau Pa, NZ","2122, NZ"
"Auckland, NZ","Waiuku, NZ","2123, NZ"
"Auckland, NZ","Pakuranga, NZ","2140, NZ"
"Auckland, NZ","East Tamaki, NZ","2141, NZ"
"Auckland, NZ","East Tamaki, NZ","2142, NZ"
"Auckland, NZ","Botany Downs, NZ","2143, NZ"
"Auckland, NZ","Eastern Beach, NZ","2144, NZ"
"Auckland, NZ","Shelly Park, NZ","2145, NZ"
"Auckland, NZ","Shelly Park, NZ","2146, NZ"
"Auckland, NZ","Beachlands, NZ","2147, NZ"
"Auckland, NZ","Maraetai, NZ","2148, NZ"
"Auckland, NZ","Whitford, NZ","2149, NZ"
"Auckland, NZ","Mangere, NZ","2150, NZ"
"Auckland, NZ","Favona, NZ","2151, NZ"
"Auckland, NZ","Mangere, NZ","2153, NZ"
"Auckland, NZ","Mangere, NZ","2154, NZ"
"Auckland, NZ","Papatoetoe, NZ","2155, NZ"
"Auckland, NZ","Papatoetoe, NZ","2156, NZ"
"Auckland, NZ","Wiri, NZ","2157, NZ"
"Auckland, NZ","Mangere East, NZ","2158, NZ"
"Auckland, NZ","Otara, NZ","2159, NZ"
"Auckland, NZ","Wiri, NZ","2160, NZ"
"Auckland, NZ","Homai, NZ","2240, NZ"
"Auckland, NZ","Wiri, NZ","2241, NZ"
"Auckland, NZ","Weymouth, NZ","2242, NZ"
"Auckland, NZ","Manurewa East, NZ","2243, NZ"
"Auckland, NZ","Pahurehure, NZ","2244, NZ"
"Auckland, NZ","Takanini, NZ","2245, NZ"
"Auckland, NZ","Pahurehure, NZ","2246, NZ"
"Auckland, NZ","Drury, NZ","2247, NZ"
"Auckland, NZ","Clevedon, NZ","2248, NZ"
"Auckland, NZ","Pukekohe, NZ","2340, NZ"
"Auckland, NZ","Waiuku, NZ","2341, NZ"
"Auckland, NZ","Bombay, NZ","2343, NZ"
"Auckland, NZ","Patumahoe, NZ","2344, NZ"
"Auckland, NZ","Waiau Pa, NZ","2345, NZ"
"Auckland, NZ","Waikopua, NZ","2571, NZ"
"Auckland, NZ","Whitford, NZ","2576, NZ"
"Auckland, NZ","Drury, NZ","2577, NZ"
"Auckland, NZ","Ramarama, NZ","2578, NZ"
"Auckland, NZ","Ararimu, NZ","2579, NZ"
"Auckland, NZ","Weymouth, NZ","2580, NZ"
"Auckland, NZ","Clevedon, NZ","2582, NZ"
"Auckland, NZ","Paparimu, NZ","2583, NZ"
"Auckland, NZ","Opaheke, NZ","2584, NZ"
"Auckland, NZ","Whakatiri, NZ","2585, NZ"
"Auckland, NZ","Ararimu, NZ","2675, NZ"
"Auckland, NZ","Paerata, NZ","2676, NZ"
"Auckland, NZ","Pukekohe East, NZ","2677, NZ"
"Auckland, NZ","Mauku, NZ","2678, NZ"
"Auckland, NZ","Waiau Pa, NZ","2679, NZ"
"Auckland, NZ","Glenbrook, NZ","2681, NZ"
"Auckland, NZ","Waipipi, NZ","2683, NZ"
"Auckland, NZ","Pollok, NZ","2684, NZ"
"Auckland, NZ","Te Kohanga, NZ","2693, NZ"
"Auckland, NZ","Opuatia, NZ","2696, NZ"
"Auckland, NZ","Te Kohanga, NZ","2697, NZ"
"Bay of Plenty, NZ","Ohinemutu, NZ","3010, NZ"
"Bay of Plenty, NZ","Sunnybrook, NZ","3015, NZ"
"Bay of Plenty, NZ","Mamaku, NZ","3020, NZ"
"Bay of Plenty, NZ","Murupara, NZ","3025, NZ"
"Bay of Plenty, NZ","Ngapuna, NZ","3040, NZ"
"Bay of Plenty, NZ","Ngongotaha, NZ","3041, NZ"
"Bay of Plenty, NZ","Owhata, NZ","3042, NZ"
"Bay of Plenty, NZ","Whakarewarewa, NZ","3043, NZ"
"Bay of Plenty, NZ","Glenholme, NZ","3044, NZ"
"Bay of Plenty, NZ","Ngapuna, NZ","3045, NZ"
"Bay of Plenty, NZ","Koutu, NZ","3046, NZ"
"Bay of Plenty, NZ","Mangakakahi, NZ","3047, NZ"
"Bay of Plenty, NZ","Tihiotonga, NZ","3048, NZ"
"Bay of Plenty, NZ","Mamaku, NZ","3049, NZ"
"Bay of Plenty, NZ","Reporoa, NZ","3060, NZ"
"Bay of Plenty, NZ","Murupara, NZ","3062, NZ"
"Bay of Plenty, NZ","Tarukenga, NZ","3072, NZ"
"Bay of Plenty, NZ","Waimangu, NZ","3073, NZ"
"Bay of Plenty, NZ","Tikitere, NZ","3074, NZ"
"Bay of Plenty, NZ","Guthrie, NZ","3077, NZ"
"Bay of Plenty, NZ","Ruatahuna, NZ","3079, NZ"
"Bay of Plenty, NZ","Tahorakui, NZ","3081, NZ"
"Bay of Plenty, NZ","Tahorakui, NZ","3083, NZ"
"Bay of Plenty, NZ","Tauranga, NZ","3110, NZ"
"Bay of Plenty, NZ","Hairini, NZ","3112, NZ"
"Bay of Plenty, NZ","Omokoroa Beach, NZ","3114, NZ"
"Bay of Plenty, NZ","Omanu, NZ","3116, NZ"
"Bay of Plenty, NZ","Papamoa Beach, NZ","3118, NZ"
"Bay of Plenty, NZ","Te Puke, NZ","3119, NZ"
"Bay of Plenty, NZ","Poroporo, NZ","3120, NZ"
"Bay of Plenty, NZ","Ohope Beach, NZ","3121, NZ"
"Bay of Plenty, NZ","Opotiki, NZ","3122, NZ"
"Bay of Plenty, NZ","Taneatua, NZ","3123, NZ"
"Bay of Plenty, NZ","Kawerau, NZ","3127, NZ"
"Bay of Plenty, NZ","Katikati, NZ","3129, NZ"
"Bay of Plenty, NZ","Tauranga, NZ","3140, NZ"
"Bay of Plenty, NZ","Tauranga, NZ","3141, NZ"
"Bay of Plenty, NZ","Greerton, NZ","3142, NZ"
"Bay of Plenty, NZ","Tauranga, NZ","3143, NZ"
"Bay of Plenty, NZ","Tauranga, NZ","3144, NZ"
"Bay of Plenty, NZ","Otumoetai, NZ","3145, NZ"
"Bay of Plenty, NZ","Judea, NZ","3146, NZ"
"Bay of Plenty, NZ","Bethlehem, NZ","3147, NZ"
"Bay of Plenty, NZ","Hairini, NZ","3148, NZ"
"Bay of Plenty, NZ","Omanu, NZ","3149, NZ"
"Bay of Plenty, NZ","Mount Maunganui, NZ","3150, NZ"
"Bay of Plenty, NZ","Kairua, NZ","3151, NZ"
"Bay of Plenty, NZ","Omanu Beach, NZ","3152, NZ"
"Bay of Plenty, NZ","Te Puke, NZ","3153, NZ"
"Bay of Plenty, NZ","Omokoroa Beach, NZ","3154, NZ"
"Bay of Plenty, NZ","Whakatane, NZ","3158, NZ"
"Bay of Plenty, NZ","Poroporo, NZ","3159, NZ"
"Bay of Plenty, NZ","Edgecumbe, NZ","3160, NZ"
"Bay of Plenty, NZ","Ohope Beach, NZ","3161, NZ"
"Bay of Plenty, NZ","Opotiki, NZ","3162, NZ"
"Bay of Plenty, NZ","Taneatua, NZ","3163, NZ"
"Bay of Plenty, NZ","Waimana, NZ","3164, NZ"
"Bay of Plenty, NZ","Te Teko, NZ","3167, NZ"
"Bay of Plenty, NZ","Matata, NZ","3168, NZ"
"Bay of Plenty, NZ","Kawerau, NZ","3169, NZ"
"Bay of Plenty, NZ","Lower Kaimai, NZ","3171, NZ"
"Bay of Plenty, NZ","Omokoroa Beach, NZ","3172, NZ"
"Bay of Plenty, NZ","Oropi, NZ","3173, NZ"
"Bay of Plenty, NZ","Upper Papamoa, NZ","3175, NZ"
"Bay of Plenty, NZ","Whakamarama, NZ","3176, NZ"
"Bay of Plenty, NZ","Athenree, NZ","3177, NZ"
"Bay of Plenty, NZ","Katikati, NZ","3178, NZ"
"Bay of Plenty, NZ","Te Puke, NZ","3182, NZ"
"Bay of Plenty, NZ","Upper Papamoa, NZ","3183, NZ"
"Bay of Plenty, NZ","Ohinepanea, NZ","3186, NZ"
"Bay of Plenty, NZ","Papamoa, NZ","3187, NZ"
"Bay of Plenty, NZ","Ngawaro, NZ","3188, NZ"
"Bay of Plenty, NZ","Paengaroa, NZ","3189, NZ"
"Bay of Plenty, NZ","Otangihaku, NZ","3191, NZ"
"Bay of Plenty, NZ","Kawerau, NZ","3192, NZ"
"Bay of Plenty, NZ","Edgecumbe, NZ","3193, NZ"
"Bay of Plenty, NZ","Awakaponga, NZ","3194, NZ"
"Bay of Plenty, NZ","Waimana, NZ","3196, NZ"
"Bay of Plenty, NZ","Toatoa, NZ","3197, NZ"
"Bay of Plenty, NZ","Waimana, NZ","3198, NZ"
"Bay of Plenty, NZ","Omaio, NZ","3199, NZ"
"Bay of Plenty, NZ","Kaimai, NZ","3473, NZ"
"Bay of Plenty, NZ","Waihi Beach, NZ","3611, NZ"
"Bay of Plenty, NZ","Waihi Beach, NZ","3642, NZ"
"Canterbury, NZ","Kekerengu, NZ","7260, NZ"
"Canterbury, NZ","Cheviot, NZ","7310, NZ"
"Canterbury, NZ","Waiau, NZ","7332, NZ"
"Canterbury, NZ","Hanmer Springs, NZ","7334, NZ"
"Canterbury, NZ","Kaikoura Suburban, NZ","7340, NZ"
"Canterbury, NZ","Cheviot, NZ","7341, NZ"
"Canterbury, NZ","Waiau, NZ","7343, NZ"
"Canterbury, NZ","Culverden, NZ","7345, NZ"
"Canterbury, NZ","Hawarden, NZ","7348, NZ"
"Canterbury, NZ","Hanmer Springs, NZ","7360, NZ"
"Canterbury, NZ","Charwell Forks, NZ","7373, NZ"
"Canterbury, NZ","Goose Bay, NZ","7374, NZ"
"Canterbury, NZ","Waiau, NZ","7379, NZ"
"Canterbury, NZ","Spotswood, NZ","7381, NZ"
"Canterbury, NZ","Ethelton, NZ","7382, NZ"
"Canterbury, NZ","Domett, NZ","7383, NZ"
"Canterbury, NZ","Hawkeswood, NZ","7384, NZ"
"Canterbury, NZ","Masons Flat, NZ","7385, NZ"
"Canterbury, NZ","Tormore, NZ","7387, NZ"
"Canterbury, NZ","Rotherham, NZ","7391, NZ"
"Canterbury, NZ","Hanmer Springs, NZ","7392, NZ"
"Canterbury, NZ","Hanmer Springs, NZ","7395, NZ"
"Canterbury, NZ","Bells, NZ","7400, NZ"
"Canterbury, NZ","Waikuku Beach, NZ","7402, NZ"
"Canterbury, NZ","Amberley, NZ","7410, NZ"
"Canterbury, NZ","Waikari, NZ","7420, NZ"
"Canterbury, NZ","Oxford, NZ","7430, NZ"
"Canterbury, NZ","Bells, NZ","7440, NZ"
"Canterbury, NZ","Amberley, NZ","7441, NZ"
"Canterbury, NZ","Waikari, NZ","7442, NZ"
"Canterbury, NZ","Oxford, NZ","7443, NZ"
"Canterbury, NZ","Cust, NZ","7444, NZ"
"Canterbury, NZ","Sefton, NZ","7445, NZ"
"Canterbury, NZ","Leithfield, NZ","7446, NZ"
"Canterbury, NZ","Waipara, NZ","7447, NZ"
"Canterbury, NZ","Waikuku Beach, NZ","7448, NZ"
"Canterbury, NZ","West Eyreton, NZ","7471, NZ"
"Canterbury, NZ","North Loburn, NZ","7472, NZ"
"Canterbury, NZ","Waikuku, NZ","7473, NZ"
"Canterbury, NZ","North Loburn, NZ","7474, NZ"
"Canterbury, NZ","Amberley, NZ","7481, NZ"
"Canterbury, NZ","Waipara, NZ","7482, NZ"
"Canterbury, NZ","Omihi, NZ","7483, NZ"
"Canterbury, NZ","Waikari, NZ","7491, NZ"
"Canterbury, NZ","Oxford, NZ","7495, NZ"
"Canterbury, NZ","Sheffield, NZ","7500, NZ"
"Canterbury, NZ","Darfield, NZ","7510, NZ"
"Canterbury, NZ","Akaroa, NZ","7520, NZ"
"Canterbury, NZ","Sheffield, NZ","7540, NZ"
"Canterbury, NZ","Darfield, NZ","7541, NZ"
"Canterbury, NZ","Akaroa, NZ","7542, NZ"
"Canterbury, NZ","Kirwee, NZ","7543, NZ"
"Canterbury, NZ","Hororata, NZ","7544, NZ"
"Canterbury, NZ","Duvauchelle, NZ","7545, NZ"
"Canterbury, NZ","Little River, NZ","7546, NZ"
"Canterbury, NZ","Doyleston, NZ","7548, NZ"
"Canterbury, NZ","Hawkins, NZ","7571, NZ"
"Canterbury, NZ","Lake Coleridge, NZ","7572, NZ"
"Canterbury, NZ","Craigieburn, NZ","7580, NZ"
"Canterbury, NZ","Akaroa, NZ","7581, NZ"
"Canterbury, NZ","Wainui, NZ","7582, NZ"
"Canterbury, NZ","Robinsons Bay, NZ","7583, NZ"
"Canterbury, NZ","Ataahua, NZ","7591, NZ"
"Canterbury, NZ","Burnham, NZ","7600, NZ"
"Canterbury, NZ","Southbridge, NZ","7602, NZ"
"Canterbury, NZ","Prebbleton, NZ","7604, NZ"
"Canterbury, NZ","Lincoln, NZ","7608, NZ"
"Canterbury, NZ","Woodend, NZ","7610, NZ"
"Canterbury, NZ","Rolleston, NZ","7614, NZ"
"Canterbury, NZ","Springston, NZ","7616, NZ"
"Canterbury, NZ","Kaiapoi, NZ","7630, NZ"
"Canterbury, NZ","Leeston, NZ","7632, NZ"
"Canterbury, NZ","Lincoln, NZ","7640, NZ"
"Canterbury, NZ","Woodend, NZ","7641, NZ"
"Canterbury, NZ","Southbridge, NZ","7642, NZ"
"Canterbury, NZ","Rolleston, NZ","7643, NZ"
"Canterbury, NZ","Kaiapoi, NZ","7644, NZ"
"Canterbury, NZ","Tai Tapu, NZ","7645, NZ"
"Canterbury, NZ","Coalgate, NZ","7646, NZ"
"Canterbury, NZ","Lincoln, NZ","7647, NZ"
"Canterbury, NZ","Springfield, NZ","7649, NZ"
"Canterbury, NZ","Leeston, NZ","7656, NZ"
"Canterbury, NZ","Dunsandel, NZ","7657, NZ"
"Canterbury, NZ","Coutts Island, NZ","7670, NZ"
"Canterbury, NZ","Aylesbury, NZ","7671, NZ"
"Canterbury, NZ","Motukarara, NZ","7672, NZ"
"Canterbury, NZ","Whitecliffs, NZ","7673, NZ"
"Canterbury, NZ","Springston South, NZ","7674, NZ"
"Canterbury, NZ","Rolleston, NZ","7675, NZ"
"Canterbury, NZ","Templeton, NZ","7676, NZ"
"Canterbury, NZ","Springfield, NZ","7681, NZ"
"Canterbury, NZ","Dunsandel, NZ","7682, NZ"
"Canterbury, NZ","Southbridge, NZ","7683, NZ"
"Canterbury, NZ","Flaxton, NZ","7691, NZ"
"Canterbury, NZ","Wetheral, NZ","7692, NZ"
"Canterbury, NZ","Allenton, NZ","7700, NZ"
"Canterbury, NZ","Rakaia, NZ","7710, NZ"
"Canterbury, NZ","Methven, NZ","7730, NZ"
"Canterbury, NZ","Hampstead, NZ","7740, NZ"
"Canterbury, NZ","Tinwald, NZ","7741, NZ"
"Canterbury, NZ","Allenton, NZ","7742, NZ"
"Canterbury, NZ","Rakaia, NZ","7743, NZ"
"Canterbury, NZ","Methven, NZ","7745, NZ"
"Canterbury, NZ","Mount Somers, NZ","7746, NZ"
"Canterbury, NZ","Hinds, NZ","7747, NZ"
"Canterbury, NZ","Mayfield, NZ","7748, NZ"
"Canterbury, NZ","Staveley, NZ","7771, NZ"
"Canterbury, NZ","Mitcham, NZ","7772, NZ"
"Canterbury, NZ","Hinds, NZ","7773, NZ"
"Canterbury, NZ","Flemington, NZ","7774, NZ"
"Canterbury, NZ","Lismore, NZ","7775, NZ"
"Canterbury, NZ","Lyndhurst, NZ","7776, NZ"
"Canterbury, NZ","Seafield, NZ","7777, NZ"
"Canterbury, NZ","Mayfield, NZ","7778, NZ"
"Canterbury, NZ","Dorie, NZ","7781, NZ"
"Canterbury, NZ","Highbank, NZ","7782, NZ"
"Canterbury, NZ","Te Pirita, NZ","7783, NZ"
"Canterbury, NZ","Somerton, NZ","7784, NZ"
"Canterbury, NZ","Lake Coleridge, NZ","7791, NZ"
"Canterbury, NZ","Twizel, NZ","7901, NZ"
"Canterbury, NZ","Pleasant Point, NZ","7903, NZ"
"Canterbury, NZ","Seaview, NZ","7910, NZ"
"Canterbury, NZ","Pareora, NZ","7912, NZ"
"Canterbury, NZ","Temuka, NZ","7920, NZ"
"Canterbury, NZ","Waimate, NZ","7924, NZ"
"Canterbury, NZ","Fairlie, NZ","7925, NZ"
"Canterbury, NZ","Geraldine, NZ","7930, NZ"
"Canterbury, NZ","Timaru, NZ","7940, NZ"
"Canterbury, NZ","Puhuka, NZ","7941, NZ"
"Canterbury, NZ","Parkside, NZ","7942, NZ"
"Canterbury, NZ","Kensington, NZ","7943, NZ"
"Canterbury, NZ","Twizel, NZ","7944, NZ"
"Canterbury, NZ","Lake Tekapo, NZ","7945, NZ"
"Canterbury, NZ","Glentanner, NZ","7946, NZ"
"Canterbury, NZ","Pleasant Point, NZ","7947, NZ"
"Canterbury, NZ","Temuka, NZ","7948, NZ"
"Canterbury, NZ","Fairlie, NZ","7949, NZ"
"Canterbury, NZ","Geraldine, NZ","7956, NZ"
"Canterbury, NZ","Cave, NZ","7957, NZ"
"Canterbury, NZ","Winchester, NZ","7958, NZ"
"Canterbury, NZ","Waimate, NZ","7960, NZ"
"Canterbury, NZ","Esk Valley, NZ","7971, NZ"
"Canterbury, NZ","Southburn, NZ","7972, NZ"
"Canterbury, NZ","Seadown, NZ","7973, NZ"
"Canterbury, NZ","Claremont, NZ","7974, NZ"
"Canterbury, NZ","Waihaorunga, NZ","7977, NZ"
"Canterbury, NZ","Waimate, NZ","7978, NZ"
"Canterbury, NZ","Waihao Forks, NZ","7979, NZ"
"Canterbury, NZ","Morven, NZ","7980, NZ"
"Canterbury, NZ","Hazelburn, NZ","7982, NZ"
"Canterbury, NZ","Sutherlands, NZ","7983, NZ"
"Canterbury, NZ","Mawaro, NZ","7984, NZ"
"Canterbury, NZ","Waitohi Flat, NZ","7985, NZ"
"Canterbury, NZ","Orton, NZ","7986, NZ"
"Canterbury, NZ","Waikarua, NZ","7987, NZ"
"Canterbury, NZ","Esk Valley, NZ","7988, NZ"
"Canterbury, NZ","Sherwood Downs, NZ","7990, NZ"
"Canterbury, NZ","Te Moana, NZ","7991, NZ"
"Canterbury, NZ","Arundel, NZ","7992, NZ"
"Canterbury, NZ","Glentanner, NZ","7999, NZ"
"Canterbury, NZ","Christchurch, NZ","8011, NZ"
"Canterbury, NZ","Christchurch, NZ","8013, NZ"
"Canterbury, NZ","Saint Albans, NZ","8014, NZ"
"Canterbury, NZ","Cashmere Hills, NZ","8022, NZ"
"Canterbury, NZ","Hillsborough, NZ","8023, NZ"
"Canterbury, NZ","Spreydon, NZ","8024, NZ"
"Canterbury, NZ","Halswell, NZ","8025, NZ"
"Canterbury, NZ","Fendalton, NZ","8041, NZ"
"Canterbury, NZ","Hei Hei, NZ","8042, NZ"
"Canterbury, NZ","Harewood, NZ","8051, NZ"
"Canterbury, NZ","Papanui, NZ","8052, NZ"
"Canterbury, NZ","Burnside, NZ","8053, NZ"
"Canterbury, NZ","Aranui, NZ","8061, NZ"
"Canterbury, NZ","Bromley, NZ","8062, NZ"
"Canterbury, NZ","Sumner, NZ","8081, NZ"
"Canterbury, NZ","Lyttelton, NZ","8082, NZ"
"Canterbury, NZ","Ouruhia, NZ","8083, NZ"
"Canterbury, NZ","Christchurch, NZ","8140, NZ"
"Canterbury, NZ","Christchurch, NZ","8141, NZ"
"Canterbury, NZ","Christchurch, NZ","8142, NZ"
"Canterbury, NZ","Saint Albans, NZ","8143, NZ"
"Canterbury, NZ","Christchurch, NZ","8144, NZ"
"Canterbury, NZ","Opawa, NZ","8145, NZ"
"Canterbury, NZ","Saint Albans, NZ","8146, NZ"
"Canterbury, NZ","Linwood, NZ","8147, NZ"
"Canterbury, NZ","Avonside, NZ","8148, NZ"
"Canterbury, NZ","Spreydon, NZ","8149, NZ"
"Canterbury, NZ","Sydenham, NZ","8240, NZ"
"Canterbury, NZ","Woolston, NZ","8241, NZ"
"Canterbury, NZ","Beckenham, NZ","8242, NZ"
"Canterbury, NZ","Spreydon, NZ","8243, NZ"
"Canterbury, NZ","Somerfield, NZ","8244, NZ"
"Canterbury, NZ","Halswell, NZ","8245, NZ"
"Canterbury, NZ","Hillsborough, NZ","8246, NZ"
"Canterbury, NZ","Mount Pleasant, NZ","8247, NZ"
"Canterbury, NZ","Riccarton, NZ","8440, NZ"
"Canterbury, NZ","Hornby, NZ","8441, NZ"
"Canterbury, NZ","Upper Riccarton, NZ","8442, NZ"
"Canterbury, NZ","Wigram, NZ","8443, NZ"
"Canterbury, NZ","Ilam, NZ","8444, NZ"
"Canterbury, NZ","Templeton, NZ","8445, NZ"
"Canterbury, NZ","Fendalton, NZ","8540, NZ"
"Canterbury, NZ","Papanui, NZ","8542, NZ"
"Canterbury, NZ","Harewood, NZ","8543, NZ"
"Canterbury, NZ","Harewood, NZ","8544, NZ"
"Canterbury, NZ","Burnside, NZ","8545, NZ"
"Canterbury, NZ","Belfast, NZ","8546, NZ"
"Canterbury, NZ","Dallington, NZ","8640, NZ"
"Canterbury, NZ","New Brighton, NZ","8641, NZ"
"Canterbury, NZ","Bromley, NZ","8642, NZ"
"Canterbury, NZ","Aranui, NZ","8643, NZ"
"Canterbury, NZ","Sumner, NZ","8840, NZ"
"Canterbury, NZ","Lyttelton, NZ","8841, NZ"
"Canterbury, NZ","North New Brighton, NZ","8842, NZ"
"Canterbury, NZ","Diamond Harbour, NZ","8941, NZ"
"Canterbury, NZ","Diamond Harbour, NZ","8942, NZ"
"Canterbury, NZ","Allandale, NZ","8971, NZ"
"Canterbury, NZ","Pigeon Bay, NZ","8972, NZ"
"Canterbury, NZ","Duntroon, NZ","9445, NZ"
"Canterbury, NZ","Kurow, NZ","9446, NZ"
"Canterbury, NZ","Omarama, NZ","9448, NZ"
"Canterbury, NZ","Kaingapai, NZ","9498, NZ"
"Gisborne, NZ","Kaiti, NZ","4010, NZ"
"Gisborne, NZ","Te Karaka, NZ","4022, NZ"
"Gisborne, NZ","Ruatoria, NZ","4032, NZ"
"Gisborne, NZ","Kaiti, NZ","4040, NZ"
"Gisborne, NZ","Tamarau, NZ","4041, NZ"
"Gisborne, NZ","Te Karaka, NZ","4042, NZ"
"Gisborne, NZ","Ruatoria, NZ","4043, NZ"
"Gisborne, NZ","Tiniroto, NZ","4044, NZ"
"Gisborne, NZ","Patutahi, NZ","4045, NZ"
"Gisborne, NZ","Tolaga Bay, NZ","4046, NZ"
"Gisborne, NZ","Tokomaru, NZ","4047, NZ"
"Gisborne, NZ","Te Puia, NZ","4048, NZ"
"Gisborne, NZ","Rangitukia, NZ","4049, NZ"
"Gisborne, NZ","Te Araroa, NZ","4050, NZ"
"Gisborne, NZ","Matawai, NZ","4051, NZ"
"Gisborne, NZ","Motu, NZ","4052, NZ"
"Gisborne, NZ","Waerengaahika, NZ","4071, NZ"
"Gisborne, NZ","Pehiri, NZ","4072, NZ"
"Gisborne, NZ","Whangara, NZ","4073, NZ"
"Gisborne, NZ","Rakauroa, NZ","4075, NZ"
"Gisborne, NZ","Tolaga Bay, NZ","4077, NZ"
"Gisborne, NZ","Tiniroto, NZ","4078, NZ"
"Gisborne, NZ","Tokomaru, NZ","4079, NZ"
"Gisborne, NZ","Waitakaro, NZ","4081, NZ"
"Gisborne, NZ","Ruatoria, NZ","4082, NZ"
"Gisborne, NZ","Pakihiroa, NZ","4083, NZ"
"Gisborne, NZ","Whakaangiangi, NZ","4086, NZ"
"Gisborne, NZ","Te Araroa, NZ","4087, NZ"
"Gisborne, NZ","Ahititi, NZ","4091, NZ"
"Gisborne, NZ","Otoko, NZ","4092, NZ"
"Gisborne, NZ","Te Karaka, NZ","4093, NZ"
"Gisborne, NZ","Whatatutu, NZ","4094, NZ"
"Hawke's Bay, NZ","Tarawera, NZ","3360, NZ"
"Hawke's Bay, NZ","Haumoana, NZ","4102, NZ"
"Hawke's Bay, NZ","Petane, NZ","4104, NZ"
"Hawke's Bay, NZ","North Clyde, NZ","4108, NZ"
"Hawke's Bay, NZ","Onekawa, NZ","4110, NZ"
"Hawke's Bay, NZ","Puk-kura, NZ","4112, NZ"
"Hawke's Bay, NZ","HASTINGS, NZ","4120, NZ"
"Hawke's Bay, NZ","Akina, NZ","4122, NZ"
"Hawke's Bay, NZ","Havelock North, NZ","4130, NZ"
"Hawke's Bay, NZ","Onekawa, NZ","4140, NZ"
"Hawke's Bay, NZ","Taradale, NZ","4141, NZ"
"Hawke's Bay, NZ","Pirimai, NZ","4142, NZ"
"Hawke's Bay, NZ","Napier South, NZ","4143, NZ"
"Hawke's Bay, NZ","Ahuriri, NZ","4144, NZ"
"Hawke's Bay, NZ","Greenmeadows, NZ","4145, NZ"
"Hawke's Bay, NZ","Pirimai, NZ","4146, NZ"
"Hawke's Bay, NZ","Tamatea, NZ","4147, NZ"
"Hawke's Bay, NZ","Clive, NZ","4148, NZ"
"Hawke's Bay, NZ","Petane, NZ","4149, NZ"
"Hawke's Bay, NZ","Saint Leonards, NZ","4153, NZ"
"Hawke's Bay, NZ","Flaxmere, NZ","4154, NZ"
"Hawke's Bay, NZ","Parkvale, NZ","4155, NZ"
"Hawke's Bay, NZ","Parkvale, NZ","4156, NZ"
"Hawke's Bay, NZ","Havelock North, NZ","4157, NZ"
"Hawke's Bay, NZ","Parkvale, NZ","4158, NZ"
"Hawke's Bay, NZ","Mayfair, NZ","4159, NZ"
"Hawke's Bay, NZ","Wairoa, NZ","4160, NZ"
"Hawke's Bay, NZ","Pahowai, NZ","4161, NZ"
"Hawke's Bay, NZ","Tutira, NZ","4162, NZ"
"Hawke's Bay, NZ","Frasertown, NZ","4163, NZ"
"Hawke's Bay, NZ","Tuai, NZ","4164, NZ"
"Hawke's Bay, NZ","Nuhaka, NZ","4165, NZ"
"Hawke's Bay, NZ","Mahia, NZ","4166, NZ"
"Hawke's Bay, NZ","Blackburn, NZ","4171, NZ"
"Hawke's Bay, NZ","Te Awanga, NZ","4172, NZ"
"Hawke's Bay, NZ","Te Hauke, NZ","4174, NZ"
"Hawke's Bay, NZ","Flaxmere, NZ","4175, NZ"
"Hawke's Bay, NZ","Poukawa, NZ","4178, NZ"
"Hawke's Bay, NZ","Puketitiri, NZ","4179, NZ"
"Hawke's Bay, NZ","Tutira, NZ","4181, NZ"
"Hawke's Bay, NZ","Te Pohue, NZ","4182, NZ"
"Hawke's Bay, NZ","Taradale, NZ","4183, NZ"
"Hawke's Bay, NZ","Puketitiri, NZ","4184, NZ"
"Hawke's Bay, NZ","Patoka, NZ","4186, NZ"
"Hawke's Bay, NZ","Kotemaori, NZ","4188, NZ"
"Hawke's Bay, NZ","Kotemaori, NZ","4189, NZ"
"Hawke's Bay, NZ","Raupunga, NZ","4191, NZ"
"Hawke's Bay, NZ","Wairoa, NZ","4193, NZ"
"Hawke's Bay, NZ","Tuai, NZ","4195, NZ"
"Hawke's Bay, NZ","Opoiti, NZ","4196, NZ"
"Hawke's Bay, NZ","Raupunga, NZ","4197, NZ"
"Hawke's Bay, NZ","Waitaniwha, NZ","4198, NZ"
"Hawke's Bay, NZ","Waipukurau, NZ","4200, NZ"
"Hawke's Bay, NZ","Otane, NZ","4202, NZ"
"Hawke's Bay, NZ","Takapau, NZ","4203, NZ"
"Hawke's Bay, NZ","Waipawa, NZ","4210, NZ"
"Hawke's Bay, NZ","Waipawa, NZ","4240, NZ"
"Hawke's Bay, NZ","Otane, NZ","4241, NZ"
"Hawke's Bay, NZ","Waipukurau, NZ","4242, NZ"
"Hawke's Bay, NZ","Takapau, NZ","4243, NZ"
"Hawke's Bay, NZ","Onga Onga, NZ","4244, NZ"
"Hawke's Bay, NZ","Porangahau, NZ","4245, NZ"
"Hawke's Bay, NZ","Patangata, NZ","4271, NZ"
"Hawke's Bay, NZ","Ruataniwha, NZ","4272, NZ"
"Hawke's Bay, NZ","Argyll East, NZ","4273, NZ"
"Hawke's Bay, NZ","Tikokino, NZ","4274, NZ"
"Hawke's Bay, NZ","Waipawa, NZ","4275, NZ"
"Hawke's Bay, NZ","Pukehou, NZ","4276, NZ"
"Hawke's Bay, NZ","Patangata, NZ","4277, NZ"
"Hawke's Bay, NZ","Blackburn, NZ","4278, NZ"
"Hawke's Bay, NZ","Blackburn, NZ","4279, NZ"
"Hawke's Bay, NZ","Maharakeke, NZ","4281, NZ"
"Hawke's Bay, NZ","Wanstead, NZ","4282, NZ"
"Hawke's Bay, NZ","Ruataniwha, NZ","4283, NZ"
"Hawke's Bay, NZ","Wallingford, NZ","4284, NZ"
"Hawke's Bay, NZ","Waipukurau, NZ","4285, NZ"
"Hawke's Bay, NZ","Ashley Clinton, NZ","4286, NZ"
"Hawke's Bay, NZ","Maharakeke, NZ","4288, NZ"
"Hawke's Bay, NZ","Porangahau, NZ","4291, NZ"
"Hawke's Bay, NZ","Porangahau, NZ","4292, NZ"
"Hawke's Bay, NZ","Porangahau, NZ","4293, NZ"
"Hawke's Bay, NZ","Waimarama, NZ","4294, NZ"
"Hawke's Bay, NZ","Elsthorpe, NZ","4295, NZ"
"Manawatu-Wanganui, NZ","Taumarunui, NZ","3920, NZ"
"Manawatu-Wanganui, NZ","Manunui, NZ","3924, NZ"
"Manawatu-Wanganui, NZ","Ohura, NZ","3926, NZ"
"Manawatu-Wanganui, NZ","Taumarunui, NZ","3946, NZ"
"Manawatu-Wanganui, NZ","Ohura, NZ","3947, NZ"
"Manawatu-Wanganui, NZ","National Park, NZ","3948, NZ"
"Manawatu-Wanganui, NZ","Waitewhenua, NZ","3979, NZ"
"Manawatu-Wanganui, NZ","Tatu, NZ","3980, NZ"
"Manawatu-Wanganui, NZ","Oio, NZ","3989, NZ"
"Manawatu-Wanganui, NZ","Upper Ruatiti, NZ","3990, NZ"
"Manawatu-Wanganui, NZ","Aukopae, NZ","3991, NZ"
"Manawatu-Wanganui, NZ","Hikumutu, NZ","3992, NZ"
"Manawatu-Wanganui, NZ","Kirikau, NZ","3993, NZ"
"Manawatu-Wanganui, NZ","Ngapuke, NZ","3994, NZ"
"Manawatu-Wanganui, NZ","Matiere, NZ","3995, NZ"
"Manawatu-Wanganui, NZ","Okahukura, NZ","3996, NZ"
"Manawatu-Wanganui, NZ","Ongarue, NZ","3997, NZ"
"Manawatu-Wanganui, NZ","Waimiha, NZ","3998, NZ"
"Manawatu-Wanganui, NZ","Norsewood, NZ","4287, NZ"
"Manawatu-Wanganui, NZ","Awapuni, NZ","4412, NZ"
"Manawatu-Wanganui, NZ","Kelvin Grove, NZ","4414, NZ"
"Manawatu-Wanganui, NZ","Hokowhitu, NZ","4440, NZ"
"Manawatu-Wanganui, NZ","Terrace End, NZ","4441, NZ"
"Manawatu-Wanganui, NZ","Takaro, NZ","4442, NZ"
"Manawatu-Wanganui, NZ","West End, NZ","4443, NZ"
"Manawatu-Wanganui, NZ","Terrace End, NZ","4444, NZ"
"Manawatu-Wanganui, NZ","Awapuni, NZ","4445, NZ"
"Manawatu-Wanganui, NZ","Hokowhitu, NZ","4446, NZ"
"Manawatu-Wanganui, NZ","Ashhurst, NZ","4470, NZ"
"Manawatu-Wanganui, NZ","Aokautere, NZ","4471, NZ"
"Manawatu-Wanganui, NZ","Carnarvon, NZ","4473, NZ"
"Manawatu-Wanganui, NZ","Tokomaru, NZ","4474, NZ"
"Manawatu-Wanganui, NZ","Kairanga, NZ","4475, NZ"
"Manawatu-Wanganui, NZ","Rongotea, NZ","4476, NZ"
"Manawatu-Wanganui, NZ","Mangawhata, NZ","4477, NZ"
"Manawatu-Wanganui, NZ","Milson, NZ","4478, NZ"
"Manawatu-Wanganui, NZ","Sanson, NZ","4479, NZ"
"Manawatu-Wanganui, NZ","Bunnythorpe, NZ","4481, NZ"
"Manawatu-Wanganui, NZ","Aramoho, NZ","4500, NZ"
"Manawatu-Wanganui, NZ","Gonville, NZ","4501, NZ"
"Manawatu-Wanganui, NZ","Wanganui, NZ","4540, NZ"
"Manawatu-Wanganui, NZ","Wanganui, NZ","4541, NZ"
"Manawatu-Wanganui, NZ","Wanganui East, NZ","4542, NZ"
"Manawatu-Wanganui, NZ","Gonville, NZ","4543, NZ"
"Manawatu-Wanganui, NZ","Turakina South, NZ","4547, NZ"
"Manawatu-Wanganui, NZ","Ratana, NZ","4548, NZ"
"Manawatu-Wanganui, NZ","Brunswick, NZ","4571, NZ"
"Manawatu-Wanganui, NZ","Wiritoa, NZ","4572, NZ"
"Manawatu-Wanganui, NZ","Kakatahi, NZ","4573, NZ"
"Manawatu-Wanganui, NZ","Mowhanau, NZ","4574, NZ"
"Manawatu-Wanganui, NZ","Upokonui, NZ","4575, NZ"
"Manawatu-Wanganui, NZ","Matahiwi, NZ","4576, NZ"
"Manawatu-Wanganui, NZ","Kauangaroa, NZ","4577, NZ"
"Manawatu-Wanganui, NZ","Ahuiti, NZ","4578, NZ"
"Manawatu-Wanganui, NZ","Turakina, NZ","4581, NZ"
"Manawatu-Wanganui, NZ","Okoia, NZ","4582, NZ"
"Manawatu-Wanganui, NZ","Whakaihuwaka, NZ","4584, NZ"
"Manawatu-Wanganui, NZ","Kakatahi, NZ","4585, NZ"
"Manawatu-Wanganui, NZ","Kakatahi, NZ","4586, NZ"
"Manawatu-Wanganui, NZ","Nukumaru, NZ","4587, NZ"
"Manawatu-Wanganui, NZ","Ohakune, NZ","4625, NZ"
"Manawatu-Wanganui, NZ","Raetihi, NZ","4632, NZ"
"Manawatu-Wanganui, NZ","Raetihi, NZ","4646, NZ"
"Manawatu-Wanganui, NZ","Ohakune, NZ","4660, NZ"
"Manawatu-Wanganui, NZ","Rangataua, NZ","4691, NZ"
"Manawatu-Wanganui, NZ","Raetihi, NZ","4694, NZ"
"Manawatu-Wanganui, NZ","Te Ranga, NZ","4696, NZ"
"Manawatu-Wanganui, NZ","FEILDING, NZ","4702, NZ"
"Manawatu-Wanganui, NZ","Marton, NZ","4710, NZ"
"Manawatu-Wanganui, NZ","Taihape, NZ","4720, NZ"
"Manawatu-Wanganui, NZ","Hunterville, NZ","4730, NZ"
"Manawatu-Wanganui, NZ","FEILDING, NZ","4740, NZ"
"Manawatu-Wanganui, NZ","Marton, NZ","4741, NZ"
"Manawatu-Wanganui, NZ","Taihape, NZ","4742, NZ"
"Manawatu-Wanganui, NZ","Kimbolton, NZ","4744, NZ"
"Manawatu-Wanganui, NZ","Hunterville, NZ","4745, NZ"
"Manawatu-Wanganui, NZ","Mangaweka, NZ","4746, NZ"
"Manawatu-Wanganui, NZ","Umutoi, NZ","4771, NZ"
"Manawatu-Wanganui, NZ","Apiti, NZ","4774, NZ"
"Manawatu-Wanganui, NZ","Colyton, NZ","4775, NZ"
"Manawatu-Wanganui, NZ","Kiwitea, NZ","4777, NZ"
"Manawatu-Wanganui, NZ","Waituna West, NZ","4779, NZ"
"Manawatu-Wanganui, NZ","Rewa, NZ","4780, NZ"
"Manawatu-Wanganui, NZ","Silverhope, NZ","4781, NZ"
"Manawatu-Wanganui, NZ","Pukeroa, NZ","4782, NZ"
"Manawatu-Wanganui, NZ","Pakihikura, NZ","4783, NZ"
"Manawatu-Wanganui, NZ","Silverhope, NZ","4784, NZ"
"Manawatu-Wanganui, NZ","Poukiore, NZ","4785, NZ"
"Manawatu-Wanganui, NZ","Rewa, NZ","4786, NZ"
"Manawatu-Wanganui, NZ","Marton, NZ","4788, NZ"
"Manawatu-Wanganui, NZ","Marton, NZ","4789, NZ"
"Manawatu-Wanganui, NZ","Raketapauma, NZ","4791, NZ"
"Manawatu-Wanganui, NZ","Erehwon, NZ","4792, NZ"
"Manawatu-Wanganui, NZ","Ohotu, NZ","4793, NZ"
"Manawatu-Wanganui, NZ","Utiku, NZ","4794, NZ"
"Manawatu-Wanganui, NZ","Waiouru Military Camp, NZ","4795, NZ"
"Manawatu-Wanganui, NZ","Taihape, NZ","4796, NZ"
"Manawatu-Wanganui, NZ","Ruahine, NZ","4797, NZ"
"Manawatu-Wanganui, NZ","Ashhurst, NZ","4810, NZ"
"Manawatu-Wanganui, NZ","Foxton, NZ","4814, NZ"
"Manawatu-Wanganui, NZ","Foxton Beach, NZ","4815, NZ"
"Manawatu-Wanganui, NZ","Ohakea, NZ","4816, NZ"
"Manawatu-Wanganui, NZ","Sanson, NZ","4817, NZ"
"Manawatu-Wanganui, NZ","Bulls, NZ","4818, NZ"
"Manawatu-Wanganui, NZ","Longburn, NZ","4820, NZ"
"Manawatu-Wanganui, NZ","Shannon, NZ","4821, NZ"
"Manawatu-Wanganui, NZ","Tangimoana, NZ","4822, NZ"
"Manawatu-Wanganui, NZ","Ashhurst, NZ","4847, NZ"
"Manawatu-Wanganui, NZ","Foxton, NZ","4848, NZ"
"Manawatu-Wanganui, NZ","Foxton Beach, NZ","4849, NZ"
"Manawatu-Wanganui, NZ","Shannon, NZ","4860, NZ"
"Manawatu-Wanganui, NZ","Sanson, NZ","4862, NZ"
"Manawatu-Wanganui, NZ","Bulls, NZ","4863, NZ"
"Manawatu-Wanganui, NZ","Tokomaru, NZ","4864, NZ"
"Manawatu-Wanganui, NZ","Rongotea, NZ","4865, NZ"
"Manawatu-Wanganui, NZ","Longburn, NZ","4866, NZ"
"Manawatu-Wanganui, NZ","Bunnythorpe, NZ","4867, NZ"
"Manawatu-Wanganui, NZ","Pohangina, NZ","4884, NZ"
"Manawatu-Wanganui, NZ","Himatangi, NZ","4891, NZ"
"Manawatu-Wanganui, NZ","Marotiri, NZ","4893, NZ"
"Manawatu-Wanganui, NZ","Bulls, NZ","4894, NZ"
"Manawatu-Wanganui, NZ","Eketahuna, NZ","4900, NZ"
"Manawatu-Wanganui, NZ","Pahiatua, NZ","4910, NZ"
"Manawatu-Wanganui, NZ","Woodville, NZ","4920, NZ"
"Manawatu-Wanganui, NZ","Dannevirke, NZ","4930, NZ"
"Manawatu-Wanganui, NZ","Eketahuna, NZ","4940, NZ"
"Manawatu-Wanganui, NZ","Pahiatua, NZ","4941, NZ"
"Manawatu-Wanganui, NZ","Dannevirke, NZ","4942, NZ"
"Manawatu-Wanganui, NZ","Norsewood, NZ","4943, NZ"
"Manawatu-Wanganui, NZ","Pongaroa, NZ","4944, NZ"
"Manawatu-Wanganui, NZ","Woodville, NZ","4945, NZ"
"Manawatu-Wanganui, NZ","Ti-tree Point, NZ","4970, NZ"
"Manawatu-Wanganui, NZ","Waipatiki, NZ","4971, NZ"
"Manawatu-Wanganui, NZ","Kiritaki, NZ","4972, NZ"
"Manawatu-Wanganui, NZ","Waipatiki, NZ","4973, NZ"
"Manawatu-Wanganui, NZ","Ngamoko, NZ","4974, NZ"
"Manawatu-Wanganui, NZ","Tahoraiti, NZ","4975, NZ"
"Manawatu-Wanganui, NZ","Raumati, NZ","4976, NZ"
"Manawatu-Wanganui, NZ","Makotuku, NZ","4977, NZ"
"Manawatu-Wanganui, NZ","Piripiri, NZ","4978, NZ"
"Manawatu-Wanganui, NZ","Waione, NZ","4979, NZ"
"Manawatu-Wanganui, NZ","Kaitawa, NZ","4981, NZ"
"Manawatu-Wanganui, NZ","Ngaturi, NZ","4982, NZ"
"Manawatu-Wanganui, NZ","Ballance, NZ","4983, NZ"
"Manawatu-Wanganui, NZ","Konini, NZ","4984, NZ"
"Manawatu-Wanganui, NZ","Makuri, NZ","4985, NZ"
"Manawatu-Wanganui, NZ","Haunui, NZ","4986, NZ"
"Manawatu-Wanganui, NZ","Konini, NZ","4987, NZ"
"Manawatu-Wanganui, NZ","Mangamaire, NZ","4988, NZ"
"Manawatu-Wanganui, NZ","Makuri, NZ","4989, NZ"
"Manawatu-Wanganui, NZ","Waimiro, NZ","4990, NZ"
"Manawatu-Wanganui, NZ","Waione, NZ","4992, NZ"
"Manawatu-Wanganui, NZ","Tane, NZ","4993, NZ"
"Manawatu-Wanganui, NZ","Eketahuna, NZ","4994, NZ"
"Manawatu-Wanganui, NZ","Nireaha, NZ","4995, NZ"
"Manawatu-Wanganui, NZ","Tiraumea, NZ","4996, NZ"
"Manawatu-Wanganui, NZ","Hopelands, NZ","4997, NZ"
"Manawatu-Wanganui, NZ","Papatawa, NZ","4998, NZ"
"Manawatu-Wanganui, NZ","Woodville, NZ","4999, NZ"
"Manawatu-Wanganui, NZ","Levin, NZ","5510, NZ"
"Manawatu-Wanganui, NZ","Levin, NZ","5540, NZ"
"Manawatu-Wanganui, NZ","Manakau, NZ","5541, NZ"
"Manawatu-Wanganui, NZ","Ohau, NZ","5570, NZ"
"Manawatu-Wanganui, NZ","Levin, NZ","5571, NZ"
"Manawatu-Wanganui, NZ","Waitarere, NZ","5572, NZ"
"Manawatu-Wanganui, NZ","Manakau, NZ","5573, NZ"
"Manawatu-Wanganui, NZ","Waitarere, NZ","5574, NZ"
"Manawatu-Wanganui, NZ","Koputaroa, NZ","5575, NZ"
"Manawatu-Wanganui, NZ","Manakau, NZ","5581, NZ"
"Marlborough, NZ","Havelock, NZ","7100, NZ"
"Marlborough, NZ","Rai Valley, NZ","7145, NZ"
"Marlborough, NZ","Havelock, NZ","7150, NZ"
"Marlborough, NZ","Havelock, NZ","7178, NZ"
"Marlborough, NZ","Tinline, NZ","7192, NZ"
"Marlborough, NZ","Kapowai, NZ","7193, NZ"
"Marlborough, NZ","Rai Valley, NZ","7194, NZ"
"Marlborough, NZ","Tira-ora, NZ","7195, NZ"
"Marlborough, NZ","Witherlea, NZ","7201, NZ"
"Marlborough, NZ","Grovetown, NZ","7202, NZ"
"Marlborough, NZ","Renwick, NZ","7204, NZ"
"Marlborough, NZ","Renwick, NZ","7206, NZ"
"Marlborough, NZ","Seddon, NZ","7210, NZ"
"Marlborough, NZ","Picton, NZ","7220, NZ"
"Marlborough, NZ","Witherlea, NZ","7240, NZ"
"Marlborough, NZ","Blenheim, NZ","7241, NZ"
"Marlborough, NZ","Witherlea, NZ","7242, NZ"
"Marlborough, NZ","Renwick, NZ","7243, NZ"
"Marlborough, NZ","Spring Creek, NZ","7244, NZ"
"Marlborough, NZ","Tuamarina, NZ","7246, NZ"
"Marlborough, NZ","Seddon, NZ","7247, NZ"
"Marlborough, NZ","Ward, NZ","7248, NZ"
"Marlborough, NZ","Picton, NZ","7250, NZ"
"Marlborough, NZ","Waikawa, NZ","7251, NZ"
"Marlborough, NZ","Hillersden, NZ","7271, NZ"
"Marlborough, NZ","Renwick, NZ","7272, NZ"
"Marlborough, NZ","Tuamarina, NZ","7273, NZ"
"Marlborough, NZ","Upcot, NZ","7274, NZ"
"Marlborough, NZ","Te Rou, NZ","7275, NZ"
"Marlborough, NZ","Avondale, NZ","7276, NZ"
"Marlborough, NZ","Waikawa, NZ","7281, NZ"
"Marlborough, NZ","Manaroa, NZ","7282, NZ"
"Marlborough, NZ","Whakatahuri, NZ","7284, NZ"
"Marlborough, NZ","Taimate, NZ","7285, NZ"
"Marlborough, NZ","Langridge, NZ","7371, NZ"
"Nelson, NZ","Nelson East, NZ","7010, NZ"
"Nelson, NZ","Stoke, NZ","7011, NZ"
"Nelson, NZ","Nelson East, NZ","7040, NZ"
"Nelson, NZ","Stoke, NZ","7041, NZ"
"Nelson, NZ","Nelson South, NZ","7042, NZ"
"Nelson, NZ","Port Nelson, NZ","7043, NZ"
"Nelson, NZ","Wakatu, NZ","7044, NZ"
"Nelson, NZ","Nelson, NZ","7045, NZ"
"Nelson, NZ","Nelson South, NZ","7046, NZ"
"Nelson, NZ","Nelson East, NZ","7047, NZ"
"Nelson, NZ","Hira, NZ","7071, NZ"
"Northland, NZ","Woodhill, NZ","110, NZ"
"Northland, NZ","Whau Valley, NZ","112, NZ"
"Northland, NZ","Waro, NZ","114, NZ"
"Northland, NZ","Ruakaka, NZ","116, NZ"
"Northland, NZ","Riverside, NZ","140, NZ"
"Northland, NZ","Otangarei, NZ","141, NZ"
"Northland, NZ","Sherwood Rise, NZ","142, NZ"
"Northland, NZ","Morningside, NZ","143, NZ"
"Northland, NZ","Tikipunga, NZ","144, NZ"
"Northland, NZ","Kensington, NZ","145, NZ"
"Northland, NZ","Maungakaramea, NZ","146, NZ"
"Northland, NZ","Woodhill, NZ","147, NZ"
"Northland, NZ","Woodhill, NZ","148, NZ"
"Northland, NZ","Riverside, NZ","149, NZ"
"Northland, NZ","Hikurangi, NZ","150, NZ"
"Northland, NZ","Ruakaka, NZ","151, NZ"
"Northland, NZ","Maungatapere, NZ","152, NZ"
"Northland, NZ","Tutukaka, NZ","153, NZ"
"Northland, NZ","Ngunguru, NZ","154, NZ"
"Northland, NZ","Puwera, NZ","170, NZ"
"Northland, NZ","Mata, NZ","171, NZ"
"Northland, NZ","Parakao, NZ","172, NZ"
"Northland, NZ","Kiripaka, NZ","173, NZ"
"Northland, NZ","Whangarei Heads, NZ","174, NZ"
"Northland, NZ","Tahere, NZ","175, NZ"
"Northland, NZ","Moengawahine, NZ","176, NZ"
"Northland, NZ","Maungakaramea, NZ","178, NZ"
"Northland, NZ","Maungatapere, NZ","179, NZ"
"Northland, NZ","Marua, NZ","181, NZ"
"Northland, NZ","Hukerenui, NZ","182, NZ"
"Northland, NZ","Whangaruru North, NZ","184, NZ"
"Northland, NZ","Ruatangata East, NZ","185, NZ"
"Northland, NZ","Rukuwai, NZ","192, NZ"
"Northland, NZ","Waiotira, NZ","193, NZ"
"Northland, NZ","Opua, NZ","200, NZ"
"Northland, NZ","Russell, NZ","202, NZ"
"Northland, NZ","Kawakawa, NZ","210, NZ"
"Northland, NZ","Moerewa, NZ","211, NZ"
"Northland, NZ","Kerikeri, NZ","230, NZ"
"Northland, NZ","Opua, NZ","241, NZ"
"Northland, NZ","Russell, NZ","242, NZ"
"Northland, NZ","Kawakawa, NZ","243, NZ"
"Northland, NZ","Moerewa, NZ","244, NZ"
"Northland, NZ","Kerikeri, NZ","245, NZ"
"Northland, NZ","Waipapa, NZ","246, NZ"
"Northland, NZ","Paihia, NZ","247, NZ"
"Northland, NZ","Haruru, NZ","271, NZ"
"Northland, NZ","Manawaora, NZ","272, NZ"
"Northland, NZ","Pokere, NZ","281, NZ"
"Northland, NZ","Karetu, NZ","282, NZ"
"Northland, NZ","Waihaha, NZ","283, NZ"
"Northland, NZ","Puketona, NZ","293, NZ"
"Northland, NZ","Purerua, NZ","294, NZ"
"Northland, NZ","Waipapa, NZ","295, NZ"
"Northland, NZ","Dargaville, NZ","310, NZ"
"Northland, NZ","Dargaville, NZ","340, NZ"
"Northland, NZ","Te Kopura, NZ","341, NZ"
"Northland, NZ","Arapohue, NZ","370, NZ"
"Northland, NZ","Redhill, NZ","371, NZ"
"Northland, NZ","Kairara, NZ","372, NZ"
"Northland, NZ","Mamaranui, NZ","373, NZ"
"Northland, NZ","Arapohue, NZ","374, NZ"
"Northland, NZ","Tutamoe, NZ","376, NZ"
"Northland, NZ","Baylys Beach, NZ","377, NZ"
"Northland, NZ","Whatoro, NZ","379, NZ"
"Northland, NZ","Kirikopuni, NZ","381, NZ"
"Northland, NZ","Tangaihe, NZ","391, NZ"
"Northland, NZ","Kaikohe, NZ","405, NZ"
"Northland, NZ","Kaitaia, NZ","410, NZ"
"Northland, NZ","Taipa, NZ","420, NZ"
"Northland, NZ","Kaikohe, NZ","440, NZ"
"Northland, NZ","Kaitaia, NZ","441, NZ"
"Northland, NZ","Mangonui, NZ","442, NZ"
"Northland, NZ","Rawene, NZ","443, NZ"
"Northland, NZ","Omapere, NZ","444, NZ"
"Northland, NZ","Opononi, NZ","445, NZ"
"Northland, NZ","Waimamaku, NZ","446, NZ"
"Northland, NZ","Okaihau, NZ","447, NZ"
"Northland, NZ","Kaeo, NZ","448, NZ"
"Northland, NZ","Ahipara, NZ","449, NZ"
"Northland, NZ","Awanui, NZ","451, NZ"
"Northland, NZ","Kohukohu, NZ","453, NZ"
"Northland, NZ","Pukenui, NZ","460, NZ"
"Northland, NZ","Broadwood, NZ","462, NZ"
"Northland, NZ","Pakaraka, NZ","472, NZ"
"Northland, NZ","Waima, NZ","473, NZ"
"Northland, NZ","Tautoro, NZ","474, NZ"
"Northland, NZ","Marangai, NZ","475, NZ"
"Northland, NZ","Umawera, NZ","476, NZ"
"Northland, NZ","Kaeo, NZ","478, NZ"
"Northland, NZ","Saies, NZ","479, NZ"
"Northland, NZ","Manukau, NZ","481, NZ"
"Northland, NZ","Kaiaka, NZ","482, NZ"
"Northland, NZ","Lake Ohia, NZ","483, NZ"
"Northland, NZ","Te Kao, NZ","484, NZ"
"Northland, NZ","Waiharera, NZ","486, NZ"
"Northland, NZ","Broadwood, NZ","491, NZ"
"Northland, NZ","Panguru, NZ","492, NZ"
"Northland, NZ","Paraoanui, NZ","494, NZ"
"Northland, NZ","Pawarenga, NZ","496, NZ"
"Northland, NZ","Mangawhai Heads, NZ","505, NZ"
"Northland, NZ","Waipu, NZ","510, NZ"
"Northland, NZ","Rowsells, NZ","520, NZ"
"Northland, NZ","Ruawai, NZ","530, NZ"
"Northland, NZ","Mangawhai, NZ","540, NZ"
"Northland, NZ","Mangawhai Heads, NZ","541, NZ"
"Northland, NZ","Kaiwaka, NZ","542, NZ"
"Northland, NZ","Paparoa, NZ","543, NZ"
"Northland, NZ","Waipu, NZ","545, NZ"
"Northland, NZ","Rowsells, NZ","547, NZ"
"Northland, NZ","Ruawai, NZ","549, NZ"
"Northland, NZ","Matakohe, NZ","550, NZ"
"Northland, NZ","Mareretu, NZ","571, NZ"
"Northland, NZ","Kaiwaka, NZ","573, NZ"
"Northland, NZ","Waipu, NZ","582, NZ"
"Northland, NZ","Marohemo, NZ","583, NZ"
"Northland, NZ","Ranganui, NZ","587, NZ"
"Northland, NZ","Maungaturoto, NZ","588, NZ"
"Northland, NZ","Huarau, NZ","589, NZ"
"Northland, NZ","Ruawai, NZ","591, NZ"
"Northland, NZ","Rehia, NZ","592, NZ"
"Northland, NZ","Pahi, NZ","593, NZ"
"Northland, NZ","Matakohe, NZ","594, NZ"
"Northland, NZ","Topuni, NZ","975, NZ"
"Otago, NZ","Liberton, NZ","9010, NZ"
"Otago, NZ","Mornington, NZ","9011, NZ"
"Otago, NZ","Saint Kilda, NZ","9012, NZ"
"Otago, NZ","Ocean Grove, NZ","9013, NZ"
"Otago, NZ","Broad Bay, NZ","9014, NZ"
"Otago, NZ","Waverley, NZ","9016, NZ"
"Otago, NZ","Sunnyvale, NZ","9018, NZ"
"Otago, NZ","Outram, NZ","9019, NZ"
"Otago, NZ","Maia, NZ","9022, NZ"
"Otago, NZ","Sawyers Bay, NZ","9023, NZ"
"Otago, NZ","Mosgiel, NZ","9024, NZ"
"Otago, NZ","Brighton, NZ","9035, NZ"
"Otago, NZ","Maryhill, NZ","9040, NZ"
"Otago, NZ","Opoho, NZ","9041, NZ"
"Otago, NZ","Kaikorai, NZ","9042, NZ"
"Otago, NZ","North Dunedin, NZ","9043, NZ"
"Otago, NZ","Saint Kilda, NZ","9044, NZ"
"Otago, NZ","Caversham, NZ","9045, NZ"
"Otago, NZ","Tainui, NZ","9046, NZ"
"Otago, NZ","Saint Clair, NZ","9047, NZ"
"Otago, NZ","Portobello, NZ","9048, NZ"
"Otago, NZ","Saint Kilda, NZ","9049, NZ"
"Otago, NZ","Port Chalmers, NZ","9050, NZ"
"Otago, NZ","Green Island, NZ","9052, NZ"
"Otago, NZ","Mosgiel, NZ","9053, NZ"
"Otago, NZ","Dunedin, NZ","9054, NZ"
"Otago, NZ","Dunedin, NZ","9058, NZ"
"Otago, NZ","Dunedin, NZ","9059, NZ"
"Otago, NZ","Outram, NZ","9062, NZ"
"Otago, NZ","Middlemarch, NZ","9067, NZ"
"Otago, NZ","Waitati, NZ","9069, NZ"
"Otago, NZ","Berwick, NZ","9073, NZ"
"Otago, NZ","Clarks, NZ","9074, NZ"
"Otago, NZ","Wingatui, NZ","9076, NZ"
"Otago, NZ","Portobello, NZ","9077, NZ"
"Otago, NZ","Mihiwaka, NZ","9081, NZ"
"Otago, NZ","Aramoana, NZ","9082, NZ"
"Otago, NZ","Mount Cargill, NZ","9085, NZ"
"Otago, NZ","Kuri Bush, NZ","9091, NZ"
"Otago, NZ","Mosgiel, NZ","9092, NZ"
"Otago, NZ","Kaitangata, NZ","9210, NZ"
"Otago, NZ","Milton, NZ","9220, NZ"
"Otago, NZ","Balclutha, NZ","9230, NZ"
"Otago, NZ","Stirling, NZ","9231, NZ"
"Otago, NZ","Balclutha, NZ","9240, NZ"
"Otago, NZ","Milton, NZ","9241, NZ"
"Otago, NZ","Clydevale, NZ","9242, NZ"
"Otago, NZ","Glenomaru, NZ","9271, NZ"
"Otago, NZ","Hillend, NZ","9272, NZ"
"Otago, NZ","Warepa, NZ","9273, NZ"
"Otago, NZ","Greenfield, NZ","9274, NZ"
"Otago, NZ","Kaitangata, NZ","9281, NZ"
"Otago, NZ","Wangaloa, NZ","9282, NZ"
"Otago, NZ","Milburn, NZ","9291, NZ"
"Otago, NZ","Tokoiti, NZ","9292, NZ"
"Otago, NZ","Frankton, NZ","9300, NZ"
"Otago, NZ","Arrowtown, NZ","9302, NZ"
"Otago, NZ","Lower Shotover, NZ","9304, NZ"
"Otago, NZ","Wanaka, NZ","9305, NZ"
"Otago, NZ","Cromwell, NZ","9310, NZ"
"Otago, NZ","Bridge Hill, NZ","9320, NZ"
"Otago, NZ","Clyde, NZ","9330, NZ"
"Otago, NZ","Ranfurly, NZ","9332, NZ"
"Otago, NZ","Bridge Hill, NZ","9340, NZ"
"Otago, NZ","Clyde, NZ","9341, NZ"
"Otago, NZ","Cromwell, NZ","9342, NZ"
"Otago, NZ","Wanaka, NZ","9343, NZ"
"Otago, NZ","Albert Town, NZ","9344, NZ"
"Otago, NZ","Lake Hawea, NZ","9345, NZ"
"Otago, NZ","Makarora, NZ","9346, NZ"
"Otago, NZ","Tarras, NZ","9347, NZ"
"Otago, NZ","Queenstown, NZ","9348, NZ"
"Otago, NZ","Frankton, NZ","9349, NZ"
"Otago, NZ","Glenorchy, NZ","9350, NZ"
"Otago, NZ","Arrowtown, NZ","9351, NZ"
"Otago, NZ","Omakau, NZ","9352, NZ"
"Otago, NZ","Ranfurly, NZ","9353, NZ"
"Otago, NZ","Naseby, NZ","9354, NZ"
"Otago, NZ","Wedderburn, NZ","9355, NZ"
"Otago, NZ","Upper Shotover, NZ","9371, NZ"
"Otago, NZ","Glenorchy, NZ","9372, NZ"
"Otago, NZ","Matakanui, NZ","9376, NZ"
"Otago, NZ","Becks, NZ","9377, NZ"
"Otago, NZ","Glendhu, NZ","9381, NZ"
"Otago, NZ","Makarora Wharf, NZ","9382, NZ"
"Otago, NZ","Lindis Crossing, NZ","9383, NZ"
"Otago, NZ","Gibbston, NZ","9384, NZ"
"Otago, NZ","Saint Bathans, NZ","9386, NZ"
"Otago, NZ","Moa Creek, NZ","9387, NZ"
"Otago, NZ","Clyde, NZ","9391, NZ"
"Otago, NZ","Fruitlands, NZ","9392, NZ"
"Otago, NZ","Chatto Creek, NZ","9393, NZ"
"Otago, NZ","Gimmerburn, NZ","9395, NZ"
"Otago, NZ","Naseby, NZ","9396, NZ"
"Otago, NZ","Kokonga, NZ","9397, NZ"
"Otago, NZ","Paerau, NZ","9398, NZ"
"Otago, NZ","Oamaru, NZ","9400, NZ"
"Otago, NZ","Waiareka Junction, NZ","9401, NZ"
"Otago, NZ","Hampden, NZ","9410, NZ"
"Otago, NZ","Hampden, NZ","9442, NZ"
"Otago, NZ","Palmerston, NZ","9443, NZ"
"Otago, NZ","Oamaru, NZ","9444, NZ"
"Otago, NZ","Otematata, NZ","9447, NZ"
"Otago, NZ","Seacliff, NZ","9471, NZ"
"Otago, NZ","Waikouaiti, NZ","9472, NZ"
"Otago, NZ","Stoneburn, NZ","9481, NZ"
"Otago, NZ","Katiki, NZ","9482, NZ"
"Otago, NZ","Macraes Flat, NZ","9483, NZ"
"Otago, NZ","Tokarahi, NZ","9491, NZ"
"Otago, NZ","Kauru Hill, NZ","9492, NZ"
"Otago, NZ","Hilderthorpe, NZ","9493, NZ"
"Otago, NZ","Island Cliff, NZ","9494, NZ"
"Otago, NZ","Herbert, NZ","9495, NZ"
"Otago, NZ","Roxburgh, NZ","9500, NZ"
"Otago, NZ","Tapanui, NZ","9522, NZ"
"Otago, NZ","Lawrence, NZ","9532, NZ"
"Otago, NZ","Clinton, NZ","9534, NZ"
"Otago, NZ","Owaka, NZ","9535, NZ"
"Otago, NZ","Tapanui, NZ","9542, NZ"
"Otago, NZ","Lawrence, NZ","9543, NZ"
"Otago, NZ","Millers Flat, NZ","9544, NZ"
"Otago, NZ","Owaka, NZ","9546, NZ"
"Otago, NZ","Clinton, NZ","9548, NZ"
"Otago, NZ","Roxburgh Hydro, NZ","9571, NZ"
"Otago, NZ","Millers Flat, NZ","9572, NZ"
"Otago, NZ","Clinton, NZ","9583, NZ"
"Otago, NZ","Clinton, NZ","9584, NZ"
"Otago, NZ","New Haven, NZ","9585, NZ"
"Otago, NZ","Puketiro, NZ","9586, NZ"
"Otago, NZ","Park Hill, NZ","9587, NZ"
"Otago, NZ","Raes Junction, NZ","9588, NZ"
"Otago, NZ","Beaumont, NZ","9591, NZ"
"Otago, NZ","Waitahuna, NZ","9593, NZ"
"Otago, NZ","Ngapuna, NZ","9596, NZ"
"Otago, NZ","Rocklands, NZ","9597, NZ"
"Otago, NZ","Ngapuna, NZ","9598, NZ"
"Otago, NZ","Kingston, NZ","9748, NZ"
"Otago, NZ","Conical Hills, NZ","9771, NZ"
"Otago, NZ","Waikoikoi, NZ","9775, NZ"
"Otago, NZ","Kingston, NZ","9793, NZ"
"Southland, NZ","Te Anau, NZ","9600, NZ"
"Southland, NZ","Otautau, NZ","9610, NZ"
"Southland, NZ","Tuatapere, NZ","9620, NZ"
"Southland, NZ","Nightcaps, NZ","9630, NZ"
"Southland, NZ","Ohai, NZ","9635, NZ"
"Southland, NZ","Te Anau, NZ","9640, NZ"
"Southland, NZ","Otautau, NZ","9641, NZ"
"Southland, NZ","Tuatapere, NZ","9642, NZ"
"Southland, NZ","Manapouri, NZ","9643, NZ"
"Southland, NZ","Nightcaps, NZ","9644, NZ"
"Southland, NZ","Ohai, NZ","9645, NZ"
"Southland, NZ","The Key, NZ","9672, NZ"
"Southland, NZ","Te Anau, NZ","9679, NZ"
"Southland, NZ","Eastern Bush, NZ","9682, NZ"
"Southland, NZ","Fairfax, NZ","9683, NZ"
"Southland, NZ","Ngaro, NZ","9689, NZ"
"Southland, NZ","Wairoto, NZ","9691, NZ"
"Southland, NZ","East Gore, NZ","9710, NZ"
"Southland, NZ","Mataura, NZ","9712, NZ"
"Southland, NZ","Winton, NZ","9720, NZ"
"Southland, NZ","Lumsden, NZ","9730, NZ"
"Southland, NZ","East Gore, NZ","9740, NZ"
"Southland, NZ","Winton, NZ","9741, NZ"
"Southland, NZ","Lumsden, NZ","9742, NZ"
"Southland, NZ","Waikaka, NZ","9743, NZ"
"Southland, NZ","Riversdale, NZ","9744, NZ"
"Southland, NZ","Waikaia, NZ","9745, NZ"
"Southland, NZ","Balfour, NZ","9746, NZ"
"Southland, NZ","Mossburn, NZ","9747, NZ"
"Southland, NZ","Athol, NZ","9749, NZ"
"Southland, NZ","Garston, NZ","9750, NZ"
"Southland, NZ","Dipton, NZ","9752, NZ"
"Southland, NZ","Pukerau, NZ","9772, NZ"
"Southland, NZ","Wendon Valley, NZ","9773, NZ"
"Southland, NZ","Mataura, NZ","9774, NZ"
"Southland, NZ","Riversdale, NZ","9776, NZ"
"Southland, NZ","Waipounamu, NZ","9777, NZ"
"Southland, NZ","Garston, NZ","9778, NZ"
"Southland, NZ","Balfour, NZ","9779, NZ"
"Southland, NZ","Lochiel, NZ","9781, NZ"
"Southland, NZ","Otapiri Gorge, NZ","9782, NZ"
"Southland, NZ","South Hillend, NZ","9783, NZ"
"Southland, NZ","Dipton, NZ","9791, NZ"
"Southland, NZ","Mossburn, NZ","9792, NZ"
"Southland, NZ","Lumsden, NZ","9794, NZ"
"Southland, NZ","Waverley, NZ","9810, NZ"
"Southland, NZ","Tisbury, NZ","9812, NZ"
"Southland, NZ","Bluff, NZ","9814, NZ"
"Southland, NZ","Wallacetown, NZ","9816, NZ"
"Southland, NZ","Halfmoon Bay (Oban), NZ","9818, NZ"
"Southland, NZ","Riverton, NZ","9822, NZ"
"Southland, NZ","Edendale, NZ","9825, NZ"
"Southland, NZ","Wyndham, NZ","9831, NZ"
"Southland, NZ","Richmond, NZ","9840, NZ"
"Southland, NZ","Glengarry, NZ","9841, NZ"
"Southland, NZ","East End, NZ","9842, NZ"
"Southland, NZ","Waikiwi, NZ","9843, NZ"
"Southland, NZ","Strathern, NZ","9844, NZ"
"Southland, NZ","Hawthorndale, NZ","9845, NZ"
"Southland, NZ","Riverton, NZ","9847, NZ"
"Southland, NZ","Edendale, NZ","9848, NZ"
"Southland, NZ","Wyndham, NZ","9849, NZ"
"Southland, NZ","Woodlands, NZ","9871, NZ"
"Southland, NZ","Mabel Bush, NZ","9872, NZ"
"Southland, NZ","Waianiwa, NZ","9874, NZ"
"Southland, NZ","Fortrose, NZ","9875, NZ"
"Southland, NZ","Makarewa, NZ","9876, NZ"
"Southland, NZ","Awarua Plains, NZ","9877, NZ"
"Southland, NZ","Otatara, NZ","9879, NZ"
"Southland, NZ","Round Hill, NZ","9881, NZ"
"Southland, NZ","Gummies Bush, NZ","9883, NZ"
"Southland, NZ","Niagara, NZ","9884, NZ"
"Southland, NZ","Glenham, NZ","9891, NZ"
"Southland, NZ","Mokoreta, NZ","9892, NZ"
"Southland, NZ","Kamahi, NZ","9893, NZ"
"Taranaki, NZ","Westown, NZ","4310, NZ"
"Taranaki, NZ","Fitzroy, NZ","4312, NZ"
"Taranaki, NZ","Oakura, NZ","4314, NZ"
"Taranaki, NZ","Waitara, NZ","4320, NZ"
"Taranaki, NZ","Eltham, NZ","4322, NZ"
"Taranaki, NZ","Inglewood, NZ","4330, NZ"
"Taranaki, NZ","Stratford, NZ","4332, NZ"
"Taranaki, NZ","Okato, NZ","4335, NZ"
"Taranaki, NZ","Brooklands, NZ","4340, NZ"
"Taranaki, NZ","Fitzroy, NZ","4341, NZ"
"Taranaki, NZ","New Plymouth, NZ","4342, NZ"
"Taranaki, NZ","Frankleigh Park, NZ","4343, NZ"
"Taranaki, NZ","Moturoa, NZ","4344, NZ"
"Taranaki, NZ","Oakura, NZ","4345, NZ"
"Taranaki, NZ","Waitara, NZ","4346, NZ"
"Taranaki, NZ","Inglewood, NZ","4347, NZ"
"Taranaki, NZ","Okato, NZ","4348, NZ"
"Taranaki, NZ","Urenui, NZ","4349, NZ"
"Taranaki, NZ","Bell Block, NZ","4351, NZ"
"Taranaki, NZ","Stratford, NZ","4352, NZ"
"Taranaki, NZ","Eltham, NZ","4353, NZ"
"Taranaki, NZ","Merrilands, NZ","4360, NZ"
"Taranaki, NZ","Mangorei, NZ","4371, NZ"
"Taranaki, NZ","Hillsborough, NZ","4372, NZ"
"Taranaki, NZ","Lepperton, NZ","4373, NZ"
"Taranaki, NZ","Oakura, NZ","4374, NZ"
"Taranaki, NZ","Okoki, NZ","4375, NZ"
"Taranaki, NZ","Uruti, NZ","4377, NZ"
"Taranaki, NZ","Okau, NZ","4378, NZ"
"Taranaki, NZ","Uruti, NZ","4379, NZ"
"Taranaki, NZ","Okato, NZ","4381, NZ"
"Taranaki, NZ","Sentry Hill, NZ","4382, NZ"
"Taranaki, NZ","Tikorangi, NZ","4383, NZ"
"Taranaki, NZ","Kaimiro, NZ","4386, NZ"
"Taranaki, NZ","Tarata, NZ","4387, NZ"
"Taranaki, NZ","Te Tawa, NZ","4388, NZ"
"Taranaki, NZ","Waiongona, NZ","4389, NZ"
"Taranaki, NZ","Ratapiko, NZ","4390, NZ"
"Taranaki, NZ","Dawson Falls, NZ","4391, NZ"
"Taranaki, NZ","Puniwhakau, NZ","4392, NZ"
"Taranaki, NZ","Huinga, NZ","4393, NZ"
"Taranaki, NZ","Tuna, NZ","4394, NZ"
"Taranaki, NZ","Matau, NZ","4395, NZ"
"Taranaki, NZ","Tahora, NZ","4396, NZ"
"Taranaki, NZ","Tahora, NZ","4397, NZ"
"Taranaki, NZ","Eltham, NZ","4398, NZ"
"Taranaki, NZ","Moeroa, NZ","4399, NZ"
"Taranaki, NZ","Waverley, NZ","4510, NZ"
"Taranaki, NZ","White Tank, NZ","4520, NZ"
"Taranaki, NZ","Waverley, NZ","4544, NZ"
"Taranaki, NZ","White Tank, NZ","4545, NZ"
"Taranaki, NZ","Waitotara, NZ","4549, NZ"
"Taranaki, NZ","Tawhiwhi, NZ","4588, NZ"
"Taranaki, NZ","Nukuhau, NZ","4591, NZ"
"Taranaki, NZ","Mangawhio, NZ","4592, NZ"
"Taranaki, NZ","Matukuroa, NZ","4597, NZ"
"Taranaki, NZ","Hurleyville, NZ","4598, NZ"
"Taranaki, NZ","Hawera, NZ","4610, NZ"
"Taranaki, NZ","Manaia, NZ","4612, NZ"
"Taranaki, NZ","Normanby, NZ","4614, NZ"
"Taranaki, NZ","Opunake, NZ","4616, NZ"
"Taranaki, NZ","Hawera, NZ","4640, NZ"
"Taranaki, NZ","Manaia, NZ","4641, NZ"
"Taranaki, NZ","Kaponga, NZ","4642, NZ"
"Taranaki, NZ","Opunake, NZ","4645, NZ"
"Taranaki, NZ","Okaiawa, NZ","4671, NZ"
"Taranaki, NZ","Meremere, NZ","4672, NZ"
"Taranaki, NZ","Te Roti, NZ","4673, NZ"
"Taranaki, NZ","Ararata, NZ","4674, NZ"
"Taranaki, NZ","Matapu, NZ","4675, NZ"
"Taranaki, NZ","Kaupokonui, NZ","4678, NZ"
"Taranaki, NZ","Riverlea, NZ","4679, NZ"
"Taranaki, NZ","Oaonui, NZ","4681, NZ"
"Taranaki, NZ","Waiteika, NZ","4682, NZ"
"Taranaki, NZ","Upper Kahui, NZ","4684, NZ"
"Taranaki, NZ","Parihaka Pa, NZ","4685, NZ"
"Waikato, NZ","Tuakau, NZ","2121, NZ"
"Waikato, NZ","Tuakau, NZ","2342, NZ"
"Waikato, NZ","Pokeno, NZ","2440, NZ"
"Waikato, NZ","Meremere, NZ","2441, NZ"
"Waikato, NZ","Kopuku, NZ","2471, NZ"
"Waikato, NZ","Pokeno, NZ","2472, NZ"
"Waikato, NZ","Kaiaua, NZ","2473, NZ"
"Waikato, NZ","Mercer, NZ","2474, NZ"
"Waikato, NZ","Otaua, NZ","2682, NZ"
"Waikato, NZ","Tuakau, NZ","2694, NZ"
"Waikato, NZ","Kaawa, NZ","2695, NZ"
"Waikato, NZ","Atiamuri, NZ","3078, NZ"
"Waikato, NZ","Te Rapa, NZ","3200, NZ"
"Waikato, NZ","Frankton Junction, NZ","3204, NZ"
"Waikato, NZ","Melville, NZ","3206, NZ"
"Waikato, NZ","Claudelands, NZ","3210, NZ"
"Waikato, NZ","Hamilton, NZ","3214, NZ"
"Waikato, NZ","Hamilton East, NZ","3216, NZ"
"Waikato, NZ","Temple View, NZ","3218, NZ"
"Waikato, NZ","Raglan, NZ","3225, NZ"
"Waikato, NZ","Hamilton West, NZ","3240, NZ"
"Waikato, NZ","Te Rapa, NZ","3241, NZ"
"Waikato, NZ","Hamilton West, NZ","3242, NZ"
"Waikato, NZ","Frankton Junction, NZ","3243, NZ"
"Waikato, NZ","Hamilton, NZ","3244, NZ"
"Waikato, NZ","Melville, NZ","3245, NZ"
"Waikato, NZ","Melville, NZ","3246, NZ"
"Waikato, NZ","Hamilton East, NZ","3247, NZ"
"Waikato, NZ","Claudelands, NZ","3248, NZ"
"Waikato, NZ","Te Rapa, NZ","3249, NZ"
"Waikato, NZ","Hamilton East, NZ","3251, NZ"
"Waikato, NZ","Claudelands, NZ","3252, NZ"
"Waikato, NZ","Newstead, NZ","3253, NZ"
"Waikato, NZ","Newstead, NZ","3254, NZ"
"Waikato, NZ","Hamilton East, NZ","3255, NZ"
"Waikato, NZ","Claudelands, NZ","3256, NZ"
"Waikato, NZ","Claudelands, NZ","3257, NZ"
"Waikato, NZ","Matangi, NZ","3260, NZ"
"Waikato, NZ","Whatawhata, NZ","3261, NZ"
"Waikato, NZ","Horotiu, NZ","3262, NZ"
"Waikato, NZ","Te Kowhai, NZ","3263, NZ"
"Waikato, NZ","Gordonton, NZ","3264, NZ"
"Waikato, NZ","Raglan, NZ","3265, NZ"
"Waikato, NZ","Te Uku, NZ","3266, NZ"
"Waikato, NZ","Gordonton, NZ","3281, NZ"
"Waikato, NZ","Rukuhia, NZ","3282, NZ"
"Waikato, NZ","Tamahere, NZ","3283, NZ"
"Waikato, NZ","Eureka, NZ","3284, NZ"
"Waikato, NZ","Aramiro, NZ","3285, NZ"
"Waikato, NZ","Te Kowhai, NZ","3288, NZ"
"Waikato, NZ","Whatawhata, NZ","3289, NZ"
"Waikato, NZ","Temple View, NZ","3290, NZ"
"Waikato, NZ","Waitetuna, NZ","3293, NZ"
"Waikato, NZ","Te Uku, NZ","3295, NZ"
"Waikato, NZ","Ruapuke, NZ","3296, NZ"
"Waikato, NZ","Raglan, NZ","3297, NZ"
"Waikato, NZ","Morrinsville, NZ","3300, NZ"
"Waikato, NZ","Waitoa, NZ","3310, NZ"
"Waikato, NZ","Te Aroha, NZ","3320, NZ"
"Waikato, NZ","Wharewaka, NZ","3330, NZ"
"Waikato, NZ","Wairakei, NZ","3332, NZ"
"Waikato, NZ","Turangi, NZ","3334, NZ"
"Waikato, NZ","Morrinsville, NZ","3340, NZ"
"Waikato, NZ","Waitoa, NZ","3341, NZ"
"Waikato, NZ","Te Aroha, NZ","3342, NZ"
"Waikato, NZ","Te Aroha, NZ","3343, NZ"
"Waikato, NZ","Taupo, NZ","3351, NZ"
"Waikato, NZ","Taupo, NZ","3352, NZ"
"Waikato, NZ","Turangi, NZ","3353, NZ"
"Waikato, NZ","Kiwitahi, NZ","3371, NZ"
"Waikato, NZ","Motumaoho, NZ","3372, NZ"
"Waikato, NZ","Tahuna, NZ","3373, NZ"
"Waikato, NZ","Te Puninga, NZ","3374, NZ"
"Waikato, NZ","Morrinsville, NZ","3375, NZ"
"Waikato, NZ","Oruanui, NZ","3377, NZ"
"Waikato, NZ","Waipahihi, NZ","3378, NZ"
"Waikato, NZ","Rangitaiki, NZ","3379, NZ"
"Waikato, NZ","Kuratau, NZ","3381, NZ"
"Waikato, NZ","Turangi, NZ","3382, NZ"
"Waikato, NZ","Manawaru, NZ","3391, NZ"
"Waikato, NZ","Mangaiti, NZ","3392, NZ"
"Waikato, NZ","Mangaiti, NZ","3393, NZ"
"Waikato, NZ","Matamata, NZ","3400, NZ"
"Waikato, NZ","Waharoa, NZ","3401, NZ"
"Waikato, NZ","Tirau, NZ","3410, NZ"
"Waikato, NZ","Putaruru, NZ","3411, NZ"
"Waikato, NZ","Arapuni, NZ","3415, NZ"
"Waikato, NZ","Tokoroa, NZ","3420, NZ"
"Waikato, NZ","Mangakino, NZ","3421, NZ"
"Waikato, NZ","Leamington, NZ","3432, NZ"
"Waikato, NZ","Leamington, NZ","3434, NZ"
"Waikato, NZ","Matamata, NZ","3440, NZ"
"Waikato, NZ","Waharoa, NZ","3441, NZ"
"Waikato, NZ","Tirau, NZ","3442, NZ"
"Waikato, NZ","Putaruru, NZ","3443, NZ"
"Waikato, NZ","Tokoroa, NZ","3444, NZ"
"Waikato, NZ","Mangakino, NZ","3445, NZ"
"Waikato, NZ","Leamington, NZ","3450, NZ"
"Waikato, NZ","Hautapu, NZ","3451, NZ"
"Waikato, NZ","Okauia, NZ","3471, NZ"
"Waikato, NZ","Hinuera, NZ","3472, NZ"
"Waikato, NZ","Waharoa, NZ","3474, NZ"
"Waikato, NZ","Walton, NZ","3475, NZ"
"Waikato, NZ","Te Waotu, NZ","3481, NZ"
"Waikato, NZ","Ngatira, NZ","3482, NZ"
"Waikato, NZ","Putaruru, NZ","3483, NZ"
"Waikato, NZ","Tirau, NZ","3484, NZ"
"Waikato, NZ","Okoroire, NZ","3485, NZ"
"Waikato, NZ","Kinleith, NZ","3491, NZ"
"Waikato, NZ","Mangakino, NZ","3492, NZ"
"Waikato, NZ","Bruntwood, NZ","3493, NZ"
"Waikato, NZ","Pukeatua, NZ","3494, NZ"
"Waikato, NZ","Leamington, NZ","3495, NZ"
"Waikato, NZ","Whitehall, NZ","3496, NZ"
"Waikato, NZ","Thames, NZ","3500, NZ"
"Waikato, NZ","Ngatea, NZ","3503, NZ"
"Waikato, NZ","Whangapoua, NZ","3506, NZ"
"Waikato, NZ","Tairua, NZ","3508, NZ"
"Waikato, NZ","Whitianga, NZ","3510, NZ"
"Waikato, NZ","Thames, NZ","3540, NZ"
"Waikato, NZ","Ngatea, NZ","3541, NZ"
"Waikato, NZ","Whitianga, NZ","3542, NZ"
"Waikato, NZ","Coromandel, NZ","3543, NZ"
"Waikato, NZ","Tairua, NZ","3544, NZ"
"Waikato, NZ","Turua, NZ","3545, NZ"
"Waikato, NZ","Pauanui, NZ","3546, NZ"
"Waikato, NZ","Colville, NZ","3547, NZ"
"Waikato, NZ","Turua, NZ","3574, NZ"
"Waikato, NZ","Tapu, NZ","3575, NZ"
"Waikato, NZ","Waitakaruru, NZ","3576, NZ"
"Waikato, NZ","Parawai, NZ","3577, NZ"
"Waikato, NZ","Nevesville, NZ","3578, NZ"
"Waikato, NZ","Hikuai, NZ","3579, NZ"
"Waikato, NZ","Ahimia, NZ","3581, NZ"
"Waikato, NZ","Te Rerenga, NZ","3582, NZ"
"Waikato, NZ","Kennedys Bay, NZ","3583, NZ"
"Waikato, NZ","Colville, NZ","3584, NZ"
"Waikato, NZ","Coroglen, NZ","3591, NZ"
"Waikato, NZ","Coroglen, NZ","3592, NZ"
"Waikato, NZ","Ngatea, NZ","3597, NZ"
"Waikato, NZ","Paeroa, NZ","3600, NZ"
"Waikato, NZ","Waihi, NZ","3610, NZ"
"Waikato, NZ","Whangamata, NZ","3620, NZ"
"Waikato, NZ","Paeroa, NZ","3640, NZ"
"Waikato, NZ","Waihi, NZ","3641, NZ"
"Waikato, NZ","Whangamata, NZ","3643, NZ"
"Waikato, NZ","Netherton, NZ","3671, NZ"
"Waikato, NZ","Netherton, NZ","3672, NZ"
"Waikato, NZ","Tirohia, NZ","3673, NZ"
"Waikato, NZ","Komata, NZ","3674, NZ"
"Waikato, NZ","Waihi, NZ","3681, NZ"
"Waikato, NZ","Waihi, NZ","3682, NZ"
"Waikato, NZ","Whangamata, NZ","3691, NZ"
"Waikato, NZ","Starrtown, NZ","3700, NZ"
"Waikato, NZ","Te Kauwhata, NZ","3710, NZ"
"Waikato, NZ","Ngaruawahia, NZ","3720, NZ"
"Waikato, NZ","Taupiri, NZ","3721, NZ"
"Waikato, NZ","Starrtown, NZ","3740, NZ"
"Waikato, NZ","Te Kauwhata, NZ","3741, NZ"
"Waikato, NZ","Ngaruawahia, NZ","3742, NZ"
"Waikato, NZ","Pukekapia, NZ","3771, NZ"
"Waikato, NZ","Ruawaro, NZ","3772, NZ"
"Waikato, NZ","Waerenga, NZ","3781, NZ"
"Waikato, NZ","Whangamarino, NZ","3782, NZ"
"Waikato, NZ","Waiterimu, NZ","3784, NZ"
"Waikato, NZ","Komakorau, NZ","3791, NZ"
"Waikato, NZ","Orini, NZ","3792, NZ"
"Waikato, NZ","Waingaro, NZ","3793, NZ"
"Waikato, NZ","Pepepe, NZ","3794, NZ"
"Waikato, NZ","Te Awamutu, NZ","3800, NZ"
"Waikato, NZ","Pirongia, NZ","3802, NZ"
"Waikato, NZ","Ohaupo, NZ","3803, NZ"
"Waikato, NZ","Te Awamutu, NZ","3840, NZ"
"Waikato, NZ","Kihikihi, NZ","3841, NZ"
"Waikato, NZ","Kawhia, NZ","3843, NZ"
"Waikato, NZ","Wharepuhunga, NZ","3872, NZ"
"Waikato, NZ","Te Kawa, NZ","3873, NZ"
"Waikato, NZ","Matapara, NZ","3874, NZ"
"Waikato, NZ","Te Mawhai, NZ","3875, NZ"
"Waikato, NZ","Pirongia, NZ","3876, NZ"
"Waikato, NZ","Matapara, NZ","3877, NZ"
"Waikato, NZ","Hauturu, NZ","3878, NZ"
"Waikato, NZ","Kihikihi, NZ","3879, NZ"
"Waikato, NZ","Pukeatua, NZ","3880, NZ"
"Waikato, NZ","Ohaupo, NZ","3881, NZ"
"Waikato, NZ","Rukuhia, NZ","3882, NZ"
"Waikato, NZ","Ngaroto, NZ","3883, NZ"
"Waikato, NZ","Oparau, NZ","3885, NZ"
"Waikato, NZ","Owhiro, NZ","3886, NZ"
"Waikato, NZ","Kawhia, NZ","3889, NZ"
"Waikato, NZ","Te Papatapu, NZ","3894, NZ"
"Waikato, NZ","Moerangi, NZ","3895, NZ"
"Waikato, NZ","Otorohanga, NZ","3900, NZ"
"Waikato, NZ","Te Kuiti, NZ","3910, NZ"
"Waikato, NZ","Piopio, NZ","3912, NZ"
"Waikato, NZ","Otorohanga, NZ","3940, NZ"
"Waikato, NZ","Te Kuiti, NZ","3941, NZ"
"Waikato, NZ","Piopio, NZ","3942, NZ"
"Waikato, NZ","Hangatiki, NZ","3943, NZ"
"Waikato, NZ","Benneydale, NZ","3944, NZ"
"Waikato, NZ","Mahoenui, NZ","3945, NZ"
"Waikato, NZ","Tongariro, NZ","3949, NZ"
"Waikato, NZ","Wairere Falls, NZ","3970, NZ"
"Waikato, NZ","Waitanguru, NZ","3971, NZ"
"Waikato, NZ","Maihiihi, NZ","3972, NZ"
"Waikato, NZ","Honikiwi, NZ","3973, NZ"
"Waikato, NZ","Te Kawa, NZ","3974, NZ"
"Waikato, NZ","Maihiihi, NZ","3975, NZ"
"Waikato, NZ","Hangatiki, NZ","3976, NZ"
"Waikato, NZ","Hangatiki, NZ","3977, NZ"
"Waikato, NZ","Mahoenui, NZ","3978, NZ"
"Waikato, NZ","Arapae, NZ","3981, NZ"
"Waikato, NZ","Puketutu, NZ","3982, NZ"
"Waikato, NZ","Kopaki, NZ","3983, NZ"
"Waikato, NZ","Waitanguru, NZ","3985, NZ"
"Waikato, NZ","Te Kuiti, NZ","3986, NZ"
"Waikato, NZ","Benneydale, NZ","3987, NZ"
"Waikato, NZ","Owhiro, NZ","3988, NZ"
"Waikato, NZ","Mokau, NZ","4350, NZ"
"Waikato, NZ","Awakino, NZ","4376, NZ"
"Wellington, NZ","Avalon, NZ","5010, NZ"
"Wellington, NZ","Taita, NZ","5011, NZ"
"Wellington, NZ","Petone, NZ","5012, NZ"
"Wellington, NZ","Muritai, NZ","5013, NZ"
"Wellington, NZ","Wainuiomata, NZ","5014, NZ"
"Wellington, NZ","Korokoro, NZ","5016, NZ"
"Wellington, NZ","Maoribank, NZ","5018, NZ"
"Wellington, NZ","Pinehaven, NZ","5019, NZ"
"Wellington, NZ","Elsdon, NZ","5022, NZ"
"Wellington, NZ","Waitangirua, NZ","5024, NZ"
"Wellington, NZ","Karehana Bay, NZ","5026, NZ"
"Wellington, NZ","Grenada North, NZ","5028, NZ"
"Wellington, NZ","Paraparaumu Beach, NZ","5032, NZ"
"Wellington, NZ","Paekakariki, NZ","5034, NZ"
"Wellington, NZ","Waikanae, NZ","5036, NZ"
"Wellington, NZ","Alicetown, NZ","5040, NZ"
"Wellington, NZ","Taita, NZ","5041, NZ"
"Wellington, NZ","Lower Hutt, NZ","5042, NZ"
"Wellington, NZ","Gracefield, NZ","5043, NZ"
"Wellington, NZ","Naenae, NZ","5044, NZ"
"Wellington, NZ","Petone, NZ","5045, NZ"
"Wellington, NZ","Petone, NZ","5046, NZ"
"Wellington, NZ","Eastbourne, NZ","5047, NZ"
"Wellington, NZ","Wainuiomata, NZ","5048, NZ"
"Wellington, NZ","Homedale, NZ","5049, NZ"
"Wellington, NZ","Maungaraki, NZ","5050, NZ"
"Wellington, NZ","Kingsley Heights, NZ","5140, NZ"
"Wellington, NZ","Stokes Valley, NZ","5141, NZ"
"Wellington, NZ","Silverstream, NZ","5142, NZ"
"Wellington, NZ","Trentham, NZ","5143, NZ"
"Wellington, NZ","Ranui Heights, NZ","5240, NZ"
"Wellington, NZ","Onepoto, NZ","5242, NZ"
"Wellington, NZ","Cannons Creek, NZ","5243, NZ"
"Wellington, NZ","Whitby, NZ","5245, NZ"
"Wellington, NZ","Paremata, NZ","5247, NZ"
"Wellington, NZ","Linden, NZ","5249, NZ"
"Wellington, NZ","Waikanae, NZ","5250, NZ"
"Wellington, NZ","Paraparaumu Beach, NZ","5252, NZ"
"Wellington, NZ","Paraparaumu, NZ","5254, NZ"
"Wellington, NZ","Raumati Beach, NZ","5255, NZ"
"Wellington, NZ","Paekakariki, NZ","5258, NZ"
"Wellington, NZ","Upper Hutt, NZ","5371, NZ"
"Wellington, NZ","Kaitoke, NZ","5372, NZ"
"Wellington, NZ","Homedale, NZ","5373, NZ"
"Wellington, NZ","Pukerua Bay, NZ","5381, NZ"
"Wellington, NZ","Reikorangi, NZ","5391, NZ"
"Wellington, NZ","Otaki, NZ","5512, NZ"
"Wellington, NZ","Otaki, NZ","5542, NZ"
"Wellington, NZ","Otaki, NZ","5543, NZ"
"Wellington, NZ","Te Horo, NZ","5544, NZ"
"Wellington, NZ","Featherston, NZ","5710, NZ"
"Wellington, NZ","Martinborough, NZ","5711, NZ"
"Wellington, NZ","Greytown, NZ","5712, NZ"
"Wellington, NZ","Carterton, NZ","5713, NZ"
"Wellington, NZ","Featherston, NZ","5740, NZ"
"Wellington, NZ","Martinborough, NZ","5741, NZ"
"Wellington, NZ","Greytown, NZ","5742, NZ"
"Wellington, NZ","Carterton, NZ","5743, NZ"
"Wellington, NZ","Kahutara, NZ","5771, NZ"
"Wellington, NZ","Pirinoa, NZ","5772, NZ"
"Wellington, NZ","Cross Creek, NZ","5773, NZ"
"Wellington, NZ","Pahautea, NZ","5781, NZ"
"Wellington, NZ","Waipawa, NZ","5782, NZ"
"Wellington, NZ","Martinborough, NZ","5783, NZ"
"Wellington, NZ","Hinakura, NZ","5784, NZ"
"Wellington, NZ","Carterton, NZ","5791, NZ"
"Wellington, NZ","Parkvale, NZ","5792, NZ"
"Wellington, NZ","Greytown, NZ","5794, NZ"
"Wellington, NZ","Masterton, NZ","5810, NZ"
"Wellington, NZ","Masterton, NZ","5840, NZ"
"Wellington, NZ","Masterton, NZ","5842, NZ"
"Wellington, NZ","Bideford, NZ","5871, NZ"
"Wellington, NZ","Riversdale Beach, NZ","5872, NZ"
"Wellington, NZ","Kopuaranga, NZ","5881, NZ"
"Wellington, NZ","Mauriceville, NZ","5882, NZ"
"Wellington, NZ","Homewood, NZ","5883, NZ"
"Wellington, NZ","Gladstone, NZ","5884, NZ"
"Wellington, NZ","Masterton, NZ","5885, NZ"
"Wellington, NZ","Upper Tauheru, NZ","5886, NZ"
"Wellington, NZ","Clareville, NZ","5887, NZ"
"Wellington, NZ","Solway, NZ","5888, NZ"
"Wellington, NZ","Tinui, NZ","5889, NZ"
"Wellington, NZ","Tauweru, NZ","5890, NZ"
"Wellington, NZ","Tinui, NZ","5894, NZ"
"Wellington, NZ","Mount Victoria, NZ","6011, NZ"
"Wellington, NZ","Karori, NZ","6012, NZ"
"Wellington, NZ","Wellington, NZ","6021, NZ"
"Wellington, NZ","Miramar, NZ","6022, NZ"
"Wellington, NZ","Owhiro Bay, NZ","6023, NZ"
"Wellington, NZ","Khandallah, NZ","6035, NZ"
"Wellington, NZ","Ohariu, NZ","6037, NZ"
"Wellington, NZ","Mount Victoria, NZ","6140, NZ"
"Wellington, NZ","Mount Victoria, NZ","6141, NZ"
"Wellington, NZ","Mount Victoria, NZ","6142, NZ"
"Wellington, NZ","Kelburn, NZ","6143, NZ"
"Wellington, NZ","Kaiwharawhara, NZ","6144, NZ"
"Wellington, NZ","Kelburn, NZ","6145, NZ"
"Wellington, NZ","Mount Victoria, NZ","6146, NZ"
"Wellington, NZ","Karori, NZ","6147, NZ"
"Wellington, NZ","Mount Victoria, NZ","6148, NZ"
"Wellington, NZ","Wellington, NZ","6149, NZ"
"Wellington, NZ","Kelburn, NZ","6150, NZ"
"Wellington, NZ","Kelburn, NZ","6160, NZ"
"Wellington, NZ","Rongotai, NZ","6241, NZ"
"Wellington, NZ","Berhampore, NZ","6242, NZ"
"Wellington, NZ","Miramar, NZ","6243, NZ"
"Wellington, NZ","Strathmore Park, NZ","6244, NZ"
"Wellington, NZ","Newlands, NZ","6440, NZ"
"Wellington, NZ","Ngaio, NZ","6441, NZ"
"Wellington, NZ","Newlands, NZ","6442, NZ"
"Wellington, NZ","Ngaio, NZ","6443, NZ"
"Wellington, NZ","Karori West, NZ","6972, NZ"
"West Coast, NZ","Runanga, NZ","7802, NZ"
"West Coast, NZ","Rewanui, NZ","7803, NZ"
"West Coast, NZ","Roa, NZ","7804, NZ"
"West Coast, NZ","Marsden, NZ","7805, NZ"
"West Coast, NZ","Hokitika, NZ","7810, NZ"
"West Coast, NZ","Kaniere, NZ","7811, NZ"
"West Coast, NZ","Ross, NZ","7812, NZ"
"West Coast, NZ","Hector, NZ","7822, NZ"
"West Coast, NZ","Granity, NZ","7823, NZ"
"West Coast, NZ","Carters Beach, NZ","7825, NZ"
"West Coast, NZ","Reefton, NZ","7830, NZ"
"West Coast, NZ","Kumara, NZ","7832, NZ"
"West Coast, NZ","Cobden, NZ","7840, NZ"
"West Coast, NZ","Runanga, NZ","7841, NZ"
"West Coast, NZ","Hokitika, NZ","7842, NZ"
"West Coast, NZ","Ahaura, NZ","7843, NZ"
"West Coast, NZ","Moana, NZ","7845, NZ"
"West Coast, NZ","Ikamatua, NZ","7846, NZ"
"West Coast, NZ","Springs Junction, NZ","7847, NZ"
"West Coast, NZ","Waimangaroa, NZ","7848, NZ"
"West Coast, NZ","Reefton, NZ","7851, NZ"
"West Coast, NZ","Franz Josef/Waiau, NZ","7856, NZ"
"West Coast, NZ","Whataroa, NZ","7857, NZ"
"West Coast, NZ","Weheka, NZ","7859, NZ"
"West Coast, NZ","Ross, NZ","7860, NZ"
"West Coast, NZ","Kumara, NZ","7861, NZ"
"West Coast, NZ","Charleston, NZ","7865, NZ"
"West Coast, NZ","Carters Beach, NZ","7866, NZ"
"West Coast, NZ","Hector, NZ","7867, NZ"
"West Coast, NZ","Ikamatua, NZ","7871, NZ"
"West Coast, NZ","Bell Hill, NZ","7872, NZ"
"West Coast, NZ","Barrytown, NZ","7873, NZ"
"West Coast, NZ","Aickens, NZ","7875, NZ"
"West Coast, NZ","Kowhitirangi, NZ","7881, NZ"
"West Coast, NZ","Goldsborough, NZ","7882, NZ"
"West Coast, NZ","Kowhitirangi, NZ","7883, NZ"
"West Coast, NZ","Harihari, NZ","7884, NZ"
"West Coast, NZ","Fergusons, NZ","7885, NZ"
"West Coast, NZ","Mokihinui Mine, NZ","7891, NZ"
"West Coast, NZ","Te Kuha, NZ","7892, NZ"
"West Coast, NZ","Oparara, NZ","7893, NZ"
"West Coast, NZ","Crushington, NZ","7895, NZ"
"Tasman, NZ","Mapua, NZ","7005, NZ"
"Tasman, NZ","Richmond, NZ","7020, NZ"
"Tasman, NZ","Brightwater, NZ","7022, NZ"
"Tasman, NZ","Wakefield, NZ","7025, NZ"
"Tasman, NZ","Mapua, NZ","7048, NZ"
"Tasman, NZ","Richmond, NZ","7050, NZ"
"Tasman, NZ","Brightwater, NZ","7051, NZ"
"Tasman, NZ","Wakefield, NZ","7052, NZ"
"Tasman, NZ","Saint Arnaud, NZ","7053, NZ"
"Tasman, NZ","Collingwood, NZ","7054, NZ"
"Tasman, NZ","Tapawera, NZ","7055, NZ"
"Tasman, NZ","Lake Rotoroa, NZ","7072, NZ"
"Tasman, NZ","Baton, NZ","7073, NZ"
"Tasman, NZ","Matakitaki, NZ","7077, NZ"
"Tasman, NZ","Richmond, NZ","7081, NZ"
"Tasman, NZ","Brightwater, NZ","7091, NZ"
"Tasman, NZ","Hiwipango, NZ","7095, NZ"
"Tasman, NZ","Motupiko, NZ","7096, NZ"
"Tasman, NZ","Takaka, NZ","7110, NZ"
"Tasman, NZ","Takaka, NZ","7142, NZ"
"Tasman, NZ","Upper Moutere, NZ","7144, NZ"
"Tasman, NZ","Riwaka, NZ","7146, NZ"
"Tasman, NZ","Mahana, NZ","7173, NZ"
"Tasman, NZ","Braeburn, NZ","7175, NZ"
"Tasman, NZ","Onekaka, NZ","7182, NZ"
"Tasman, NZ","East Takaka, NZ","7183, NZ"
"Tasman, NZ","Ngatimoti, NZ","7196, NZ"
"Tasman, NZ","Sandy Bay, NZ","7197, NZ"
"Tasman, NZ","Kairuru, NZ","7198, NZ"
"Tasman, NZ","Punaroma, NZ","3076, NZ"
"Tasman, NZ","Katikati, NZ","3166, NZ"
"Tasman, NZ","Waitoa, NZ","3380, NZ"
"Tasman, NZ","Summerhill, NZ","4410, NZ"
"Tasman, NZ","Summerhill, NZ","4448, NZ"
"Tasman, NZ","Cliff Road, NZ","4787, NZ"
"Tasman, NZ","Waiouru Military Camp, NZ","4825, NZ"
"Tasman, NZ","Waiouru Military Camp, NZ","4826, NZ"
"Tasman, NZ","Waiouru, NZ","4861, NZ"
"Tasman, NZ","Aohanga, NZ","4991, NZ"
"Tasman, NZ","Murchison, NZ","7007, NZ"
"Tasman, NZ","Murchison, NZ","7049, NZ"
"Tasman, NZ","Port Motueka, NZ","7120, NZ"
"Tasman, NZ","Port Motueka, NZ","7143, NZ"
"Tasman, NZ","Waioruarangi, NZ","7300, NZ"
"Tasman, NZ","Haast, NZ","7844, NZ"
"Tasman, NZ","Maruia, NZ","7862, NZ"
"Tasman, NZ","Harihari, NZ","7863, NZ"
"Tasman, NZ","Market Cross, NZ","7864, NZ"
"Tasman, NZ","Mahitahi, NZ","7886, NZ"
"Tasman, NZ","Mataura, NZ","9356, NZ"
"Tasman, NZ","Berwen, NZ","9412, NZ"
"Tasman, NZ","Palmerston, NZ","9430, NZ"
"Tasman, NZ","Wharekuri, NZ","9435, NZ"
"Tasman, NZ","Roxburgh, NZ","9441, NZ"
"Tasman, NZ","Waikouaiti, NZ","9510, NZ"
"Tasman, NZ","Waikouaiti, NZ","9541, NZ"
"Tasman, NZ","Half-moon Bay, NZ","9846, NZ"
