state,city,zip
"Balochistan, PK","Sui Gas Field Sibi, PK","80000, PK"
"Balochistan, PK","Dera Bugti, PK","80100, PK"
"Balochistan, PK","Manjhi Pur, PK","80200, PK"
"Balochistan, PK","Usta Muhammad, PK","80300, PK"
"Balochistan, PK","Dr.Azizullah Salakzai, PK","80310, PK"
"Balochistan, PK","Gandakha, PK","80400, PK"
"Balochistan, PK","Dera Allayyar, PK","80500, PK"
"Balochistan, PK","Sohbat Pur, PK","80600, PK"
"Balochistan, PK","Dear Murad Jamali, PK","80700, PK"
"Balochistan, PK","Chattar, PK","80800, PK"
"Balochistan, PK","Sardar Changez Khan, PK","80810, PK"
"Balochistan, PK","Abdul Ghafoor Lehri, PK","80820, PK"
"Balochistan, PK","Gandawa, PK","81050, PK"
"Balochistan, PK","Jhal Magsi, PK","81100, PK"
"Balochistan, PK","Bukhtarabad Domki, PK","81150, PK"
"Balochistan, PK","Lehri, PK","81200, PK"
"Balochistan, PK","Bhag, PK","81250, PK"
"Balochistan, PK","Khattan, PK","81260, PK"
"Balochistan, PK","Manjho Shori, PK","81270, PK"
"Balochistan, PK","Haji Shaher, PK","81300, PK"
"Balochistan, PK","Mithri Village, PK","81350, PK"
"Balochistan, PK","Dhadar, PK","81400, PK"
"Balochistan, PK","Rind Ali, PK","81410, PK"
"Balochistan, PK","Sanni, PK","81450, PK"
"Balochistan, PK","Kolpur, PK","81550, PK"
"Balochistan, PK","Sibi Gpo, PK","82000, PK"
"Balochistan, PK","Talli, PK","82010, PK"
"Balochistan, PK","Sibi Railway Colony, PK","82100, PK"
"Balochistan, PK","Sibi Petrol Pump, PK","82200, PK"
"Balochistan, PK","Harnai, PK","82300, PK"
"Balochistan, PK","Khost, PK","82310, PK"
"Balochistan, PK","Sharigh, PK","82400, PK"
"Balochistan, PK","Kohlu, PK","83000, PK"
"Balochistan, PK","Maiwand, PK","83100, PK"
"Balochistan, PK","Chutiali Shafir, PK","84100, PK"
"Balochistan, PK","Dukki, PK","84200, PK"
"Balochistan, PK","Sinjawi, PK","84300, PK"
"Balochistan, PK","Barkhan, PK","84400, PK"
"Balochistan, PK","Rakhni, PK","84500, PK"
"Balochistan, PK","Rara Sham, PK","84600, PK"
"Balochistan, PK","Drug, PK","84690, PK"
"Balochistan, PK","Musa Kel, PK","84700, PK"
"Balochistan, PK","Mekhtar, PK","84710, PK"
"Balochistan, PK","Loralai Gpo, PK","84800, PK"
"Balochistan, PK","Mohsinabad, PK","84810, PK"
"Balochistan, PK","Loralai Cantt., PK","84820, PK"
"Balochistan, PK","Nahar Kot, PK","84830, PK"
"Balochistan, PK","Kach Jamal Bagar, PK","84840, PK"
"Balochistan, PK","Shah Karez, PK","84850, PK"
"Balochistan, PK","Rar Kan, PK","84900, PK"
"Balochistan, PK","Murgha, PK","85100, PK"
"Balochistan, PK","Zhob, PK","85200, PK"
"Balochistan, PK","Sherani, PK","85210, PK"
"Balochistan, PK","Sherani Bazar, PK","85220, PK"
"Balochistan, PK","Ganj Mohalla, PK","85230, PK"
"Balochistan, PK","Appozai, PK","85240, PK"
"Balochistan, PK","Qamar-Ud-Din Karez, PK","85300, PK"
"Balochistan, PK","Killa Saifullah, PK","85400, PK"
"Balochistan, PK","Muslim Bagh, PK","85500, PK"
"Balochistan, PK","Chaman, PK","86000, PK"
"Balochistan, PK","Killa Abadulllah, PK","86200, PK"
"Balochistan, PK","Killi Abdul Rehmanzai, PK","86210, PK"
"Balochistan, PK","Habibabad, PK","86220, PK"
"Balochistan, PK","Saranan, PK","86400, PK"
"Balochistan, PK","Killi Abdur Rehman Zai, PK","86410, PK"
"Balochistan, PK","Bostan, PK","86500, PK"
"Balochistan, PK","Khanozai, PK","86600, PK"
"Balochistan, PK","Killi Verchoom, PK","86650, PK"
"Balochistan, PK","Pishin, PK","86700, PK"
"Balochistan, PK","Hurram Zai, PK","86710, PK"
"Balochistan, PK","Manzari, PK","86720, PK"
"Balochistan, PK","Killi Malakyar, PK","86730, PK"
"Balochistan, PK","Barshore, PK","86800, PK"
"Balochistan, PK","Kuchlak, PK","87000, PK"
"Balochistan, PK","Baleli, PK","87100, PK"
"Balochistan, PK","Killi Minhas, PK","87110, PK"
"Balochistan, PK","Killi Tirkha, PK","87290, PK"
"Balochistan, PK","Quetta Gpo, PK","87300, PK"
"Balochistan, PK","Jinnah Town, Queeta, PK","87312, PK"
"Balochistan, PK","Hazar Gangi, PK","87320, PK"
"Balochistan, PK","Ali Town, PK","87340, PK"
"Balochistan, PK","Satellite Town Quetta, PK","87500, PK"
"Balochistan, PK","Sariab Road, PK","87550, PK"
"Balochistan, PK","Samungali, PK","87600, PK"
"Balochistan, PK","Quetta Air Port, PK","87650, PK"
"Balochistan, PK","Nawan Killi, PK","87710, PK"
"Balochistan, PK","Nasirabad, PK","87720, PK"
"Balochistan, PK","Infantory School, PK","87750, PK"
"Balochistan, PK","Staff College Quetta, PK","87800, PK"
"Balochistan, PK","Sariab, PK","87900, PK"
"Balochistan, PK","Sorange, PK","88050, PK"
"Balochistan, PK","Mastung Road, PK","88100, PK"
"Balochistan, PK","Digari, PK","88150, PK"
"Balochistan, PK","Mastung, PK","88200, PK"
"Balochistan, PK","Khad Kucha, PK","88210, PK"
"Balochistan, PK","Kirdgap, PK","88220, PK"
"Balochistan, PK","Dringarh, PK","88230, PK"
"Balochistan, PK","Kanak, PK","88240, PK"
"Balochistan, PK","Manochar, PK","88250, PK"
"Balochistan, PK","Johan, PK","88260, PK"
"Balochistan, PK","Kalat, PK","88300, PK"
"Balochistan, PK","Kalat Petrol Pump, PK","88310, PK"
"Balochistan, PK","Moola, PK","88320, PK"
"Balochistan, PK","Nichara, PK","88350, PK"
"Balochistan, PK","Pidran, PK","88360, PK"
"Balochistan, PK","Sorab Croos, PK","88370, PK"
"Balochistan, PK","Sorab, PK","88400, PK"
"Balochistan, PK","Umerabad Gidder, PK","88410, PK"
"Balochistan, PK","Basima, PK","88420, PK"
"Balochistan, PK","Nag, PK","88430, PK"
"Balochistan, PK","Zehri, PK","88450, PK"
"Balochistan, PK","Khuzdar Gpo, PK","89100, PK"
"Balochistan, PK","Buet, PK","89120, PK"
"Balochistan, PK","Chamrok, PK","89130, PK"
"Balochistan, PK","Tootak, PK","89140, PK"
"Balochistan, PK","Khuzdar Cantt., PK","89150, PK"
"Balochistan, PK","Kuzdar Bazar, PK","89160, PK"
"Balochistan, PK","Khattan, PK","89170, PK"
"Balochistan, PK","Mashkey, PK","89200, PK"
"Balochistan, PK","Zeedi, PK","89230, PK"
"Balochistan, PK","Jinnah Camp, PK","89240, PK"
"Balochistan, PK","Wadh, PK","89250, PK"
"Balochistan, PK","Jibri, PK","89260, PK"
"Balochistan, PK","Ornach, PK","89270, PK"
"Balochistan, PK","Kalwan, PK","89300, PK"
"Balochistan, PK","Karakh, PK","89350, PK"
"Balochistan, PK","Bela, PK","90050, PK"
"Balochistan, PK","Uthal, PK","90150, PK"
"Balochistan, PK","Lakhra, PK","90160, PK"
"Balochistan, PK","Miani Beach, PK","90200, PK"
"Balochistan, PK","Sommiani (Winder), PK","90210, PK"
"Balochistan, PK","Hub Chowki, PK","90250, PK"
"Balochistan, PK","Civic Centre Hub, PK","90260, PK"
"Balochistan, PK","Gadani, PK","90300, PK"
"Balochistan, PK","Balicha, PK","90350, PK"
"Balochistan, PK","Jiwani, PK","91100, PK"
"Balochistan, PK","Gawadar, PK","91200, PK"
"Balochistan, PK","Surbandar, PK","91210, PK"
"Balochistan, PK","Peshkan, PK","91220, PK"
"Balochistan, PK","Pasni, PK","91300, PK"
"Balochistan, PK","Ormara, PK","91400, PK"
"Balochistan, PK","Mand, PK","92100, PK"
"Balochistan, PK","Tump, PK","92300, PK"
"Balochistan, PK","Kalatuk, PK","92400, PK"
"Balochistan, PK","Shahi Tump, PK","92500, PK"
"Balochistan, PK","Turbat Gpo, PK","92600, PK"
"Balochistan, PK","Asiabad, PK","92610, PK"
"Balochistan, PK","Kuddan, PK","92650, PK"
"Balochistan, PK","Buleda, PK","92800, PK"
"Balochistan, PK","Solo Buleda, PK","92810, PK"
"Balochistan, PK","Nasirabad, PK","92900, PK"
"Balochistan, PK","Hoshab, PK","92910, PK"
"Balochistan, PK","Panjgur, PK","93000, PK"
"Balochistan, PK","Patak, PK","93100, PK"
"Balochistan, PK","Katagari, PK","93200, PK"
"Balochistan, PK","Washbood, PK","93210, PK"
"Balochistan, PK","Khudabandan, PK","93220, PK"
"Balochistan, PK","Tasap, PK","93230, PK"
"Balochistan, PK","Basima, PK","94050, PK"
"Balochistan, PK","Kharan, PK","94100, PK"
"Balochistan, PK","Washuk, PK","94110, PK"
"Balochistan, PK","Ladgasht, PK","94150, PK"
"Balochistan, PK","Koh Taftan, PK","95000, PK"
"Balochistan, PK","Yak Mach, PK","95040, PK"
"Balochistan, PK","Nokundi, PK","95050, PK"
"Balochistan, PK","Amori, PK","95060, PK"
"Balochistan, PK","Dalbandin, PK","95100, PK"
"Balochistan, PK","Padag, PK","95110, PK"
"Balochistan, PK","Chaghi, PK","95120, PK"
"Balochistan, PK","Brapcha, PK","95130, PK"
"Balochistan, PK","Ahmedwal, PK","95150, PK"
"Balochistan, PK","Nushki Gpo, PK","95200, PK"
"Balochistan, PK","Sar Mall, PK","95210, PK"
"Balochistan, PK","Ziarat, PK","96000, PK"
"Balochistan, PK","Ahmadoon, PK","96100, PK"
"Khyber Pakhtunkhwa, PK","Mera Gram, PK","17000, PK"
"Khyber Pakhtunkhwa, PK","Brep, PK","17010, PK"
"Khyber Pakhtunkhwa, PK","Mastaj, PK","17020, PK"
"Khyber Pakhtunkhwa, PK","Harichin, PK","17030, PK"
"Khyber Pakhtunkhwa, PK","Booni, PK","17050, PK"
"Khyber Pakhtunkhwa, PK","Booni Main Bazar, PK","17054, PK"
"Khyber Pakhtunkhwa, PK","Darason, PK","17060, PK"
"Khyber Pakhtunkhwa, PK","Gohkeer, PK","17070, PK"
"Khyber Pakhtunkhwa, PK","Shah Gram, PK","17080, PK"
"Khyber Pakhtunkhwa, PK","Shot Khara, PK","17090, PK"
"Khyber Pakhtunkhwa, PK","Kosht, PK","17100, PK"
"Khyber Pakhtunkhwa, PK","Reshun, PK","17110, PK"
"Khyber Pakhtunkhwa, PK","Kaghuzai, PK","17120, PK"
"Khyber Pakhtunkhwa, PK","Garam Chashma, PK","17130, PK"
"Khyber Pakhtunkhwa, PK","Para Beg, PK","17140, PK"
"Khyber Pakhtunkhwa, PK","Chitral Gpo, PK","17200, PK"
"Khyber Pakhtunkhwa, PK","Ayun, PK","17210, PK"
"Khyber Pakhtunkhwa, PK","Drosh, PK","17220, PK"
"Khyber Pakhtunkhwa, PK","Broz, PK","17230, PK"
"Khyber Pakhtunkhwa, PK","Sair Door, PK","17234, PK"
"Khyber Pakhtunkhwa, PK","Nagar, PK","17240, PK"
"Khyber Pakhtunkhwa, PK","Aranda, PK","17250, PK"
"Khyber Pakhtunkhwa, PK","Ashrit, PK","17260, PK"
"Khyber Pakhtunkhwa, PK","Daggar, PK","17290, PK"
"Khyber Pakhtunkhwa, PK","Dir, PK","18000, PK"
"Khyber Pakhtunkhwa, PK","Sharingal, PK","18050, PK"
"Khyber Pakhtunkhwa, PK","Barawal Bandi, PK","18100, PK"
"Khyber Pakhtunkhwa, PK","Darora, PK","18150, PK"
"Khyber Pakhtunkhwa, PK","Wari, PK","18200, PK"
"Khyber Pakhtunkhwa, PK","Shahibabad, PK","18210, PK"
"Khyber Pakhtunkhwa, PK","Khall, PK","18250, PK"
"Khyber Pakhtunkhwa, PK","Timargara, PK","18300, PK"
"Khyber Pakhtunkhwa, PK","Lal Qilla, PK","18350, PK"
"Khyber Pakhtunkhwa, PK","Dara Manial, PK","18400, PK"
"Khyber Pakhtunkhwa, PK","Zaimdara, PK","18450, PK"
"Khyber Pakhtunkhwa, PK","Munda, PK","18500, PK"
"Khyber Pakhtunkhwa, PK","Mayar Jandol, PK","18550, PK"
"Khyber Pakhtunkhwa, PK","Samar Bagh, PK","18600, PK"
"Khyber Pakhtunkhwa, PK","Khar (Bajaur Agency), PK","18650, PK"
"Khyber Pakhtunkhwa, PK","Ziarat (Dir), PK","18700, PK"
"Khyber Pakhtunkhwa, PK","Ouch (Dir), PK","18750, PK"
"Khyber Pakhtunkhwa, PK","Pir Khel, PK","18760, PK"
"Khyber Pakhtunkhwa, PK","Chakdara, PK","18800, PK"
"Khyber Pakhtunkhwa, PK","Bahrain, PK","19010, PK"
"Khyber Pakhtunkhwa, PK","Madyan, PK","19020, PK"
"Khyber Pakhtunkhwa, PK","Fatehpur, PK","19030, PK"
"Khyber Pakhtunkhwa, PK","Matta, PK","19040, PK"
"Khyber Pakhtunkhwa, PK","Chuprial, PK","19044, PK"
"Khyber Pakhtunkhwa, PK","Bara Darwesh Khela, PK","19050, PK"
"Khyber Pakhtunkhwa, PK","Kabal, PK","19060, PK"
"Khyber Pakhtunkhwa, PK","Davlai, PK","19070, PK"
"Khyber Pakhtunkhwa, PK","Kana, PK","19080, PK"
"Khyber Pakhtunkhwa, PK","Chakisar, PK","19090, PK"
"Khyber Pakhtunkhwa, PK","Alpurai, PK","19100, PK"
"Khyber Pakhtunkhwa, PK","Khawaza Khela, PK","19110, PK"
"Khyber Pakhtunkhwa, PK","Charbagh, PK","19120, PK"
"Khyber Pakhtunkhwa, PK","Mangora, PK","19130, PK"
"Khyber Pakhtunkhwa, PK","Gulkada (Distt. Court), PK","19132, PK"
"Khyber Pakhtunkhwa, PK","Aman Kot, PK","19140, PK"
"Khyber Pakhtunkhwa, PK","Aloch, PK","19150, PK"
"Khyber Pakhtunkhwa, PK","Saidu Sharif Gpo, PK","19200, PK"
"Khyber Pakhtunkhwa, PK","Damori, PK","19204, PK"
"Khyber Pakhtunkhwa, PK","Rahim Abad, PK","19210, PK"
"Khyber Pakhtunkhwa, PK","Hodigram, PK","19220, PK"
"Khyber Pakhtunkhwa, PK","Ghalegi, PK","19230, PK"
"Khyber Pakhtunkhwa, PK","Barikot, PK","19240, PK"
"Khyber Pakhtunkhwa, PK","Zara Khela, PK","19250, PK"
"Khyber Pakhtunkhwa, PK","Jewar, PK","19260, PK"
"Khyber Pakhtunkhwa, PK","Tor Warsak, PK","19270, PK"
"Khyber Pakhtunkhwa, PK","Pipal Bazar, PK","19280, PK"
"Khyber Pakhtunkhwa, PK","Dassu, PK","20100, PK"
"Khyber Pakhtunkhwa, PK","Pattan, PK","20200, PK"
"Khyber Pakhtunkhwa, PK","Ranolia, PK","20300, PK"
"Khyber Pakhtunkhwa, PK","Sholgaraha, PK","20400, PK"
"Khyber Pakhtunkhwa, PK","Besham, PK","20500, PK"
"Khyber Pakhtunkhwa, PK","Biari Ayub Khan, PK","21010, PK"
"Khyber Pakhtunkhwa, PK","Muslim Abad, PK","21020, PK"
"Khyber Pakhtunkhwa, PK","Thakot, PK","21030, PK"
"Khyber Pakhtunkhwa, PK","Banna, PK","21032, PK"
"Khyber Pakhtunkhwa, PK","Rashang, PK","21036, PK"
"Khyber Pakhtunkhwa, PK","Battagram, PK","21040, PK"
"Khyber Pakhtunkhwa, PK","Peshora, PK","21042, PK"
"Khyber Pakhtunkhwa, PK","Batamohri, PK","21044, PK"
"Khyber Pakhtunkhwa, PK","Saden Mira, PK","21046, PK"
"Khyber Pakhtunkhwa, PK","Bansair, PK","21050, PK"
"Khyber Pakhtunkhwa, PK","Koza Banda, PK","21060, PK"
"Khyber Pakhtunkhwa, PK","Chohan, PK","21062, PK"
"Khyber Pakhtunkhwa, PK","Chatar Plain, PK","21070, PK"
"Khyber Pakhtunkhwa, PK","Bali Mang, PK","21080, PK"
"Khyber Pakhtunkhwa, PK","Battal, PK","21090, PK"
"Khyber Pakhtunkhwa, PK","Haji Abad, PK","21100, PK"
"Khyber Pakhtunkhwa, PK","Baffa, PK","21110, PK"
"Khyber Pakhtunkhwa, PK","Hazara University, PK","21120, PK"
"Khyber Pakhtunkhwa, PK","Dhudial (Mansehra), PK","21130, PK"
"Khyber Pakhtunkhwa, PK","Shinkiari, PK","21140, PK"
"Khyber Pakhtunkhwa, PK","Shinkiari Camp, PK","21150, PK"
"Khyber Pakhtunkhwa, PK","Dadar, PK","21160, PK"
"Khyber Pakhtunkhwa, PK","Jabori, PK","21170, PK"
"Khyber Pakhtunkhwa, PK","Naran, PK","21200, PK"
"Khyber Pakhtunkhwa, PK","Kaghan, PK","21210, PK"
"Khyber Pakhtunkhwa, PK","Mohandri Bazar, PK","21220, PK"
"Khyber Pakhtunkhwa, PK","Balakot, PK","21230, PK"
"Khyber Pakhtunkhwa, PK","Ghari Habibullah, PK","21240, PK"
"Khyber Pakhtunkhwa, PK","Batrasi Camp, PK","21250, PK"
"Khyber Pakhtunkhwa, PK","Chakia, PK","21270, PK"
"Khyber Pakhtunkhwa, PK","Mansehra Gpo, PK","21300, PK"
"Khyber Pakhtunkhwa, PK","Chitta Batta, PK","21304, PK"
"Khyber Pakhtunkhwa, PK","Mansehra City, PK","21310, PK"
"Khyber Pakhtunkhwa, PK","Manglore, PK","21330, PK"
"Khyber Pakhtunkhwa, PK","Bher Kund, PK","21340, PK"
"Khyber Pakhtunkhwa, PK","Khaki, PK","21350, PK"
"Khyber Pakhtunkhwa, PK","Muradpur, PK","21360, PK"
"Khyber Pakhtunkhwa, PK","Parhena, PK","21370, PK"
"Khyber Pakhtunkhwa, PK","Phulra, PK","21380, PK"
"Khyber Pakhtunkhwa, PK","Lassan Nawab, PK","21390, PK"
"Khyber Pakhtunkhwa, PK","Oghi, PK","21400, PK"
"Khyber Pakhtunkhwa, PK","Sham Dhera, PK","21410, PK"
"Khyber Pakhtunkhwa, PK","Qilagay, PK","21420, PK"
"Khyber Pakhtunkhwa, PK","Dilbori, PK","21430, PK"
"Khyber Pakhtunkhwa, PK","Belian, PK","21440, PK"
"Khyber Pakhtunkhwa, PK","Sher Garh (Mansehra), PK","21450, PK"
"Khyber Pakhtunkhwa, PK","Darband, PK","21460, PK"
"Khyber Pakhtunkhwa, PK","Qalanderabad, PK","22000, PK"
"Khyber Pakhtunkhwa, PK","Abbottabad Gpo, PK","22010, PK"
"Khyber Pakhtunkhwa, PK","Abbottabad Public School, PK","22030, PK"
"Khyber Pakhtunkhwa, PK","Ayub Medical College Abbottabad, PK","22040, PK"
"Khyber Pakhtunkhwa, PK","Mandian, PK","22044, PK"
"Khyber Pakhtunkhwa, PK","Jhangi, PK","22050, PK"
"Khyber Pakhtunkhwa, PK","Toba Camp, PK","22060, PK"
"Khyber Pakhtunkhwa, PK","Kakul, PK","22070, PK"
"Khyber Pakhtunkhwa, PK","Nawan Shahr, PK","22080, PK"
"Khyber Pakhtunkhwa, PK","Sheikhul Bandi, PK","22090, PK"
"Khyber Pakhtunkhwa, PK","Kuthiala, PK","22100, PK"
"Khyber Pakhtunkhwa, PK","Richh Bhan, PK","22106, PK"
"Khyber Pakhtunkhwa, PK","Pind Kargo Khan, PK","22110, PK"
"Khyber Pakhtunkhwa, PK","Sherwan, PK","22120, PK"
"Khyber Pakhtunkhwa, PK","Chamatti, PK","22130, PK"
"Khyber Pakhtunkhwa, PK","Thandayani, PK","22150, PK"
"Khyber Pakhtunkhwa, PK","Chamyali, PK","22160, PK"
"Khyber Pakhtunkhwa, PK","Gamang, PK","22170, PK"
"Khyber Pakhtunkhwa, PK","Boi, PK","22180, PK"
"Khyber Pakhtunkhwa, PK","Dalola, PK","22190, PK"
"Khyber Pakhtunkhwa, PK","Dhamtaur, PK","22200, PK"
"Khyber Pakhtunkhwa, PK","Bagnotar, PK","22210, PK"
"Khyber Pakhtunkhwa, PK","Tharyati, PK","22220, PK"
"Khyber Pakhtunkhwa, PK","Biran Gali, PK","22230, PK"
"Khyber Pakhtunkhwa, PK","Namli Maira, PK","22250, PK"
"Khyber Pakhtunkhwa, PK","Nagri Bala, PK","22260, PK"
"Khyber Pakhtunkhwa, PK","Kala Bagh (Hazara), PK","22270, PK"
"Khyber Pakhtunkhwa, PK","Nathia Gali, PK","22280, PK"
"Khyber Pakhtunkhwa, PK","Bagan, PK","22290, PK"
"Khyber Pakhtunkhwa, PK","Dunga Gali, PK","22300, PK"
"Khyber Pakhtunkhwa, PK","Ayubia, PK","22310, PK"
"Khyber Pakhtunkhwa, PK","Changla Gali, PK","22320, PK"
"Khyber Pakhtunkhwa, PK","Khaira Gali, PK","22330, PK"
"Khyber Pakhtunkhwa, PK","Nagri Totlial, PK","22350, PK"
"Khyber Pakhtunkhwa, PK","Lora, PK","22360, PK"
"Khyber Pakhtunkhwa, PK","Gambeer, PK","22370, PK"
"Khyber Pakhtunkhwa, PK","Havelian, PK","22500, PK"
"Khyber Pakhtunkhwa, PK","Pak Ordinance Factories Havilian, PK","22510, PK"
"Khyber Pakhtunkhwa, PK","Havelian Ammunation Depot, PK","22520, PK"
"Khyber Pakhtunkhwa, PK","Rajoya, PK","22530, PK"
"Khyber Pakhtunkhwa, PK","Chando Maira, PK","22540, PK"
"Khyber Pakhtunkhwa, PK","Nara, PK","22550, PK"
"Khyber Pakhtunkhwa, PK","Maira Bala, PK","22560, PK"
"Khyber Pakhtunkhwa, PK","Satura, PK","22570, PK"
"Khyber Pakhtunkhwa, PK","Halli, PK","22580, PK"
"Khyber Pakhtunkhwa, PK","Baldher, PK","22584, PK"
"Khyber Pakhtunkhwa, PK","Sarai Saleh, PK","22590, PK"
"Khyber Pakhtunkhwa, PK","Rehana, PK","22600, PK"
"Khyber Pakhtunkhwa, PK","Hattar Industrial Estate, PK","22610, PK"
"Khyber Pakhtunkhwa, PK","Haripur Gpo, PK","22620, PK"
"Khyber Pakhtunkhwa, PK","Haripur Telephone Factory, PK","22630, PK"
"Khyber Pakhtunkhwa, PK","Haripur Central Jail, PK","22640, PK"
"Khyber Pakhtunkhwa, PK","Khanpur (Hazara), PK","22650, PK"
"Khyber Pakhtunkhwa, PK","Baghpur Dheri, PK","22652, PK"
"Khyber Pakhtunkhwa, PK","Kot Najibullah, PK","22660, PK"
"Khyber Pakhtunkhwa, PK","Kangra Township, PK","22680, PK"
"Khyber Pakhtunkhwa, PK","Panian, PK","22690, PK"
"Khyber Pakhtunkhwa, PK","Sarai Gaddai, PK","22694, PK"
"Khyber Pakhtunkhwa, PK","Mankarai, PK","22700, PK"
"Khyber Pakhtunkhwa, PK","Pind Hasham Khan, PK","22710, PK"
"Khyber Pakhtunkhwa, PK","Sarai Niamat Khan, PK","22720, PK"
"Khyber Pakhtunkhwa, PK","Chamhad, PK","22730, PK"
"Khyber Pakhtunkhwa, PK","Kakotri, PK","22750, PK"
"Khyber Pakhtunkhwa, PK","Jarral, PK","22760, PK"
"Khyber Pakhtunkhwa, PK","Bir, PK","22770, PK"
"Khyber Pakhtunkhwa, PK","Badhora, PK","22780, PK"
"Khyber Pakhtunkhwa, PK","Khalabat Township, PK","22800, PK"
"Khyber Pakhtunkhwa, PK","Kalangar, PK","22810, PK"
"Khyber Pakhtunkhwa, PK","Gudwalian, PK","22830, PK"
"Khyber Pakhtunkhwa, PK","Sirikot, PK","22840, PK"
"Khyber Pakhtunkhwa, PK","Kandi Umer Khan, PK","22844, PK"
"Khyber Pakhtunkhwa, PK","Tarbela Dam Colony, PK","22850, PK"
"Khyber Pakhtunkhwa, PK","Ghazi, PK","22860, PK"
"Khyber Pakhtunkhwa, PK","Dewan Suleman Farooq Industrial Area, PK","22870, PK"
"Khyber Pakhtunkhwa, PK","Thana, PK","23000, PK"
"Khyber Pakhtunkhwa, PK","Dheri Alla Dhand, PK","23010, PK"
"Khyber Pakhtunkhwa, PK","Batkhela Gpo, PK","23020, PK"
"Khyber Pakhtunkhwa, PK","Totakan, PK","23030, PK"
"Khyber Pakhtunkhwa, PK","Gamseer, PK","23040, PK"
"Khyber Pakhtunkhwa, PK","Malakand, PK","23050, PK"
"Khyber Pakhtunkhwa, PK","Dargai, PK","23060, PK"
"Khyber Pakhtunkhwa, PK","Baizu Kharki, PK","23090, PK"
"Khyber Pakhtunkhwa, PK","Sher Garh, PK","23100, PK"
"Khyber Pakhtunkhwa, PK","Hathian, PK","23120, PK"
"Khyber Pakhtunkhwa, PK","Lund Khawar, PK","23130, PK"
"Khyber Pakhtunkhwa, PK","Tazagram, PK","23140, PK"
"Khyber Pakhtunkhwa, PK","Jalala, PK","23150, PK"
"Khyber Pakhtunkhwa, PK","Umarabad, PK","23154, PK"
"Khyber Pakhtunkhwa, PK","Takkar, PK","23164, PK"
"Khyber Pakhtunkhwa, PK","Gharibabad, PK","23166, PK"
"Khyber Pakhtunkhwa, PK","Gujar Garhi, PK","23170, PK"
"Khyber Pakhtunkhwa, PK","Mardan Gpo, PK","23200, PK"
"Khyber Pakhtunkhwa, PK","Mardan Sugar Research Institute, PK","23210, PK"
"Khyber Pakhtunkhwa, PK","Bakhshali, PK","23220, PK"
"Khyber Pakhtunkhwa, PK","Jamal Garhi, PK","23230, PK"
"Khyber Pakhtunkhwa, PK","Katlang, PK","23240, PK"
"Khyber Pakhtunkhwa, PK","Babu Zai, PK","23250, PK"
"Khyber Pakhtunkhwa, PK","Kohi Barmol, PK","23260, PK"
"Khyber Pakhtunkhwa, PK","Plai, PK","23270, PK"
"Khyber Pakhtunkhwa, PK","Sattar Khan Colony, PK","23280, PK"
"Khyber Pakhtunkhwa, PK","Mayar, PK","23290, PK"
"Khyber Pakhtunkhwa, PK","Toru, PK","23300, PK"
"Khyber Pakhtunkhwa, PK","Garhi Kapura, PK","23310, PK"
"Khyber Pakhtunkhwa, PK","Yar Hussain, PK","23320, PK"
"Khyber Pakhtunkhwa, PK","Dobian, PK","23330, PK"
"Khyber Pakhtunkhwa, PK","Dogai, PK","23340, PK"
"Khyber Pakhtunkhwa, PK","Gujrat (Mardan), PK","23350, PK"
"Khyber Pakhtunkhwa, PK","Sawal Dher, PK","23360, PK"
"Khyber Pakhtunkhwa, PK","Rustam, PK","23370, PK"
"Khyber Pakhtunkhwa, PK","Palo Dheri, PK","23380, PK"
"Khyber Pakhtunkhwa, PK","Shah Baz Garhi, PK","23390, PK"
"Khyber Pakhtunkhwa, PK","Ismaila, PK","23400, PK"
"Khyber Pakhtunkhwa, PK","Kalu Khan, PK","23410, PK"
"Khyber Pakhtunkhwa, PK","Nawan Killi, PK","23420, PK"
"Khyber Pakhtunkhwa, PK","Sheikh Jana, PK","23422, PK"
"Khyber Pakhtunkhwa, PK","Shewa, PK","23424, PK"
"Khyber Pakhtunkhwa, PK","Sawabi, PK","23430, PK"
"Khyber Pakhtunkhwa, PK","Totlai, PK","23434, PK"
"Khyber Pakhtunkhwa, PK","Bamkhel, PK","23440, PK"
"Khyber Pakhtunkhwa, PK","Maini, PK","23450, PK"
"Khyber Pakhtunkhwa, PK","Gadoon Amazai, PK","23454, PK"
"Khyber Pakhtunkhwa, PK","Topi, PK","23460, PK"
"Khyber Pakhtunkhwa, PK","Right Bank (Tarbella), PK","23470, PK"
"Khyber Pakhtunkhwa, PK","Gandaf, PK","23480, PK"
"Khyber Pakhtunkhwa, PK","Deval, PK","23490, PK"
"Khyber Pakhtunkhwa, PK","Kotha, PK","23500, PK"
"Khyber Pakhtunkhwa, PK","Zarobi, PK","23510, PK"
"Khyber Pakhtunkhwa, PK","Kalabat, PK","23520, PK"
"Khyber Pakhtunkhwa, PK","Marghuz, PK","23530, PK"
"Khyber Pakhtunkhwa, PK","Zaida, PK","23540, PK"
"Khyber Pakhtunkhwa, PK","Garmanara, PK","23550, PK"
"Khyber Pakhtunkhwa, PK","Khunda, PK","23560, PK"
"Khyber Pakhtunkhwa, PK","Lahor Chhota (Mardan), PK","23570, PK"
"Khyber Pakhtunkhwa, PK","Jalsai, PK","23580, PK"
"Khyber Pakhtunkhwa, PK","Jalbai, PK","23600, PK"
"Khyber Pakhtunkhwa, PK","Tordher, PK","23610, PK"
"Khyber Pakhtunkhwa, PK","Jehan Gira, PK","23620, PK"
"Khyber Pakhtunkhwa, PK","Panjpir, PK","23630, PK"
"Khyber Pakhtunkhwa, PK","Ghulam Ishaq Khan Institute, PK","23640, PK"
"Khyber Pakhtunkhwa, PK","Shah Mansoor, PK","23650, PK"
"Khyber Pakhtunkhwa, PK","Mohabatabad, PK","23660, PK"
"Khyber Pakhtunkhwa, PK","Khair Abad, PK","24000, PK"
"Khyber Pakhtunkhwa, PK","Nizam Pur, PK","24010, PK"
"Khyber Pakhtunkhwa, PK","Allah Bakhash Colony, PK","24020, PK"
"Khyber Pakhtunkhwa, PK","Shaidu, PK","24030, PK"
"Khyber Pakhtunkhwa, PK","Akora Khattak, PK","24040, PK"
"Khyber Pakhtunkhwa, PK","Zara Miana, PK","24044, PK"
"Khyber Pakhtunkhwa, PK","Pir Sabaq, PK","24050, PK"
"Khyber Pakhtunkhwa, PK","Misri Banda, PK","24060, PK"
"Khyber Pakhtunkhwa, PK","Raskai, PK","24070, PK"
"Khyber Pakhtunkhwa, PK","Risal Pur, PK","24080, PK"
"Khyber Pakhtunkhwa, PK","Risal Pur P.A.F, PK","24090, PK"
"Khyber Pakhtunkhwa, PK","Nowshera Gpo, PK","24100, PK"
"Khyber Pakhtunkhwa, PK","Nowshera City, PK","24110, PK"
"Khyber Pakhtunkhwa, PK","Kheshki Payan, PK","24120, PK"
"Khyber Pakhtunkhwa, PK","Ziarat Kaka Sahib, PK","24130, PK"
"Khyber Pakhtunkhwa, PK","Manki Sharif, PK","24140, PK"
"Khyber Pakhtunkhwa, PK","Feroz Sons Nowshera, PK","24160, PK"
"Khyber Pakhtunkhwa, PK","Adamjee Paper Board Mills Nowshera, PK","24170, PK"
"Khyber Pakhtunkhwa, PK","Pirpai, PK","24180, PK"
"Khyber Pakhtunkhwa, PK","Aza Khel Payan, PK","24182, PK"
"Khyber Pakhtunkhwa, PK","Aza Khel Bala, PK","24190, PK"
"Khyber Pakhtunkhwa, PK","Dagai Banda, PK","24200, PK"
"Khyber Pakhtunkhwa, PK","Pabbi, PK","24210, PK"
"Khyber Pakhtunkhwa, PK","Pabbi Railway Station, PK","24220, PK"
"Khyber Pakhtunkhwa, PK","Banda Mohib, PK","24230, PK"
"Khyber Pakhtunkhwa, PK","Jallozai, PK","24240, PK"
"Khyber Pakhtunkhwa, PK","Spin Khak, PK","24250, PK"
"Khyber Pakhtunkhwa, PK","Dak Ismail Khel, PK","24260, PK"
"Khyber Pakhtunkhwa, PK","Saleh Khana, PK","24270, PK"
"Khyber Pakhtunkhwa, PK","Cherat, PK","24280, PK"
"Khyber Pakhtunkhwa, PK","Urmar Payan, PK","24300, PK"
"Khyber Pakhtunkhwa, PK","Banda Sheikh Ismail, PK","24302, PK"
"Khyber Pakhtunkhwa, PK","Tarru Jabba, PK","24310, PK"
"Khyber Pakhtunkhwa, PK","Akbar Pura, PK","24320, PK"
"Khyber Pakhtunkhwa, PK","Tarnab Farm, PK","24330, PK"
"Khyber Pakhtunkhwa, PK","Chamkani, PK","24350, PK"
"Khyber Pakhtunkhwa, PK","Musa Zai, PK","24360, PK"
"Khyber Pakhtunkhwa, PK","Pakha Ghulam, PK","24370, PK"
"Khyber Pakhtunkhwa, PK","Daud Zai, PK","24400, PK"
"Khyber Pakhtunkhwa, PK","Charsadda Gpo, PK","24420, PK"
"Khyber Pakhtunkhwa, PK","Kamran Kalay, PK","24424, PK"
"Khyber Pakhtunkhwa, PK","Nisatta, PK","24450, PK"
"Khyber Pakhtunkhwa, PK","Sardheri Bazar, PK","24460, PK"
"Khyber Pakhtunkhwa, PK","Sheikhabad, PK","24470, PK"
"Khyber Pakhtunkhwa, PK","Rajjar, PK","24480, PK"
"Khyber Pakhtunkhwa, PK","Taurangzai, PK","24490, PK"
"Khyber Pakhtunkhwa, PK","Utmanzai, PK","24500, PK"
"Khyber Pakhtunkhwa, PK","Amirabad, PK","24502, PK"
"Khyber Pakhtunkhwa, PK","Mandori, PK","24504, PK"
"Khyber Pakhtunkhwa, PK","Dhakhi, PK","24506, PK"
"Khyber Pakhtunkhwa, PK","Shakoor, PK","24508, PK"
"Khyber Pakhtunkhwa, PK","Umarzai, PK","24510, PK"
"Khyber Pakhtunkhwa, PK","Hari Chand, PK","24520, PK"
"Khyber Pakhtunkhwa, PK","Sherpao, PK","24530, PK"
"Khyber Pakhtunkhwa, PK","Tangi, PK","24540, PK"
"Khyber Pakhtunkhwa, PK","Abazai, PK","24550, PK"
"Khyber Pakhtunkhwa, PK","Tarnab Cheena, PK","24600, PK"
"Khyber Pakhtunkhwa, PK","Amba Dher, PK","24610, PK"
"Khyber Pakhtunkhwa, PK","Kangra, PK","24620, PK"
"Khyber Pakhtunkhwa, PK","Shabqadar Fort, PK","24630, PK"
"Khyber Pakhtunkhwa, PK","Matta Mughal Khel, PK","24640, PK"
"Khyber Pakhtunkhwa, PK","Ghalnai, PK","24650, PK"
"Khyber Pakhtunkhwa, PK","Warsak Colony, PK","24680, PK"
"Khyber Pakhtunkhwa, PK","Nasir Bagh, PK","24700, PK"
"Khyber Pakhtunkhwa, PK","Regi, PK","24710, PK"
"Khyber Pakhtunkhwa, PK","Peshawar Industrial Estate, PK","24720, PK"
"Khyber Pakhtunkhwa, PK","Jamrud, PK","24730, PK"
"Khyber Pakhtunkhwa, PK","Landi Kotal, PK","24740, PK"
"Khyber Pakhtunkhwa, PK","Bara Fort, PK","24800, PK"
"Khyber Pakhtunkhwa, PK","Mashoo Khel, PK","24810, PK"
"Khyber Pakhtunkhwa, PK","Pawaka, PK","24820, PK"
"Khyber Pakhtunkhwa, PK","Badhber Paf Camp, PK","24830, PK"
"Khyber Pakhtunkhwa, PK","Badbher, PK","24840, PK"
"Khyber Pakhtunkhwa, PK","Mathani, PK","24850, PK"
"Khyber Pakhtunkhwa, PK","Sherkira, PK","24860, PK"
"Khyber Pakhtunkhwa, PK","Peshawar Gpo, PK","25000, PK"
"Khyber Pakhtunkhwa, PK","Hayatabad (Phase-I), PK","25100, PK"
"Khyber Pakhtunkhwa, PK","Peshawar Education Board, PK","25110, PK"
"Khyber Pakhtunkhwa, PK","Peshawar University, PK","25120, PK"
"Khyber Pakhtunkhwa, PK","Hayatabad Phase-Ii, PK","25124, PK"
"Khyber Pakhtunkhwa, PK","Pak Forest Institute Peshawar, PK","25130, PK"
"Khyber Pakhtunkhwa, PK","Tehkal Bala, PK","25140, PK"
"Khyber Pakhtunkhwa, PK","Tehkal Payan, PK","25150, PK"
"Khyber Pakhtunkhwa, PK","Peshawar C.T. Training School, PK","25160, PK"
"Khyber Pakhtunkhwa, PK","Sakhi Chashma, PK","25170, PK"
"Khyber Pakhtunkhwa, PK","Yaka Toot, PK","25200, PK"
"Khyber Pakhtunkhwa, PK","Peshawar Poly Technical College, PK","25210, PK"
"Khyber Pakhtunkhwa, PK","Landi Arbab, PK","25220, PK"
"Khyber Pakhtunkhwa, PK","Sar Band, PK","25230, PK"
"Khyber Pakhtunkhwa, PK","Kohat Gpo, PK","26000, PK"
"Khyber Pakhtunkhwa, PK","Togh Bala, PK","26010, PK"
"Khyber Pakhtunkhwa, PK","Sher Kot, PK","26014, PK"
"Khyber Pakhtunkhwa, PK","Kohat Police Recruit Training Centre, PK","26020, PK"
"Khyber Pakhtunkhwa, PK","Kohat Cadet College, PK","26030, PK"
"Khyber Pakhtunkhwa, PK","Kohat Gunners Line, PK","26050, PK"
"Khyber Pakhtunkhwa, PK","Kohat Satellite Town, PK","26054, PK"
"Khyber Pakhtunkhwa, PK","Habib Abad, PK","26060, PK"
"Khyber Pakhtunkhwa, PK","Kohat Board Of Education, PK","26064, PK"
"Khyber Pakhtunkhwa, PK","Kohat J.D.M.T.Mills, PK","26070, PK"
"Khyber Pakhtunkhwa, PK","Kohat P.A.F., PK","26080, PK"
"Khyber Pakhtunkhwa, PK","Kohat Officers Training School, PK","26090, PK"
"Khyber Pakhtunkhwa, PK","Dara Adam Khel, PK","26100, PK"
"Khyber Pakhtunkhwa, PK","Billi Tang, PK","26110, PK"
"Khyber Pakhtunkhwa, PK","Seni Gumbat, PK","26120, PK"
"Khyber Pakhtunkhwa, PK","Nasrat Khel, PK","26160, PK"
"Khyber Pakhtunkhwa, PK","Uster Zai Payan, PK","26170, PK"
"Khyber Pakhtunkhwa, PK","Hangu Police Training School, PK","26180, PK"
"Khyber Pakhtunkhwa, PK","Hangu, PK","26190, PK"
"Khyber Pakhtunkhwa, PK","Raisan, PK","26196, PK"
"Khyber Pakhtunkhwa, PK","Togh Sarai, PK","26200, PK"
"Khyber Pakhtunkhwa, PK","Zargeri, PK","26210, PK"
"Khyber Pakhtunkhwa, PK","Kahi, PK","26220, PK"
"Khyber Pakhtunkhwa, PK","Naryab, PK","26230, PK"
"Khyber Pakhtunkhwa, PK","Doaba, PK","26240, PK"
"Khyber Pakhtunkhwa, PK","Sarozai, PK","26250, PK"
"Khyber Pakhtunkhwa, PK","Thull Fort, PK","26260, PK"
"Khyber Pakhtunkhwa, PK","Thull City, PK","26270, PK"
"Khyber Pakhtunkhwa, PK","Alizai, PK","26280, PK"
"Khyber Pakhtunkhwa, PK","Sadda, PK","26290, PK"
"Khyber Pakhtunkhwa, PK","Parachinar, PK","26300, PK"
"Khyber Pakhtunkhwa, PK","Surgul, PK","26350, PK"
"Khyber Pakhtunkhwa, PK","Gada Khel, PK","26352, PK"
"Khyber Pakhtunkhwa, PK","Lachi, PK","26360, PK"
"Khyber Pakhtunkhwa, PK","Shakar Dara, PK","26380, PK"
"Khyber Pakhtunkhwa, PK","Teri, PK","26390, PK"
"Khyber Pakhtunkhwa, PK","Banda Daud Shah, PK","26400, PK"
"Khyber Pakhtunkhwa, PK","Dagar Nari, PK","26410, PK"
"Khyber Pakhtunkhwa, PK","Sabir Abad, PK","27000, PK"
"Khyber Pakhtunkhwa, PK","Mitha Khel, PK","27100, PK"
"Khyber Pakhtunkhwa, PK","Karak Gpo, PK","27200, PK"
"Khyber Pakhtunkhwa, PK","Mohabati Killa, PK","27210, PK"
"Khyber Pakhtunkhwa, PK","Ghundi Mir Khan, PK","27220, PK"
"Khyber Pakhtunkhwa, PK","Chokara, PK","27300, PK"
"Khyber Pakhtunkhwa, PK","Thatti Nasrati, PK","27400, PK"
"Khyber Pakhtunkhwa, PK","Bahadur Khel, PK","27410, PK"
"Khyber Pakhtunkhwa, PK","Inzar Banda, PK","27500, PK"
"Khyber Pakhtunkhwa, PK","Land Kamar, PK","27600, PK"
"Khyber Pakhtunkhwa, PK","Latamber, PK","27800, PK"
"Khyber Pakhtunkhwa, PK","Warana, PK","27810, PK"
"Khyber Pakhtunkhwa, PK","Dab Begu Khel, PK","27900, PK"
"Khyber Pakhtunkhwa, PK","Domel (Bannu), PK","28010, PK"
"Khyber Pakhtunkhwa, PK","Khadar Khan Khel, PK","28020, PK"
"Khyber Pakhtunkhwa, PK","Nizam Bazar, PK","28030, PK"
"Khyber Pakhtunkhwa, PK","Torka, PK","28040, PK"
"Khyber Pakhtunkhwa, PK","Miryan, PK","28050, PK"
"Khyber Pakhtunkhwa, PK","Bannu Gpo, PK","28100, PK"
"Khyber Pakhtunkhwa, PK","Skindar Khel Bala, PK","28106, PK"
"Khyber Pakhtunkhwa, PK","Hussainabad, PK","28108, PK"
"Khyber Pakhtunkhwa, PK","Shabaz Azmat Khel, PK","28120, PK"
"Khyber Pakhtunkhwa, PK","Awan Ghambeer, PK","28122, PK"
"Khyber Pakhtunkhwa, PK","Mamesh Khel, PK","28140, PK"
"Khyber Pakhtunkhwa, PK","Baka Khel, PK","28142, PK"
"Khyber Pakhtunkhwa, PK","Pipal Bazar, PK","28150, PK"
"Khyber Pakhtunkhwa, PK","Mir Ali, PK","28170, PK"
"Khyber Pakhtunkhwa, PK","Mir Ali Adda, PK","28180, PK"
"Khyber Pakhtunkhwa, PK","Sarai Miranshah, PK","28200, PK"
"Khyber Pakhtunkhwa, PK","Boya, PK","28210, PK"
"Khyber Pakhtunkhwa, PK","Data Khel, PK","28220, PK"
"Khyber Pakhtunkhwa, PK","District Court Lakki, PK","28250, PK"
"Khyber Pakhtunkhwa, PK","Razkak Cadet College, PK","28260, PK"
"Khyber Pakhtunkhwa, PK","Razmak, PK","28270, PK"
"Khyber Pakhtunkhwa, PK","Adda Mir Abbas, PK","28300, PK"
"Khyber Pakhtunkhwa, PK","Bharat, PK","28310, PK"
"Khyber Pakhtunkhwa, PK","Kakki, PK","28320, PK"
"Khyber Pakhtunkhwa, PK","Takhti Khel, PK","28322, PK"
"Khyber Pakhtunkhwa, PK","Ghori Wala, PK","28330, PK"
"Khyber Pakhtunkhwa, PK","Bannu Al.Markaz Islami, PK","28334, PK"
"Khyber Pakhtunkhwa, PK","Nar Muzaffar Khan, PK","28340, PK"
"Khyber Pakhtunkhwa, PK","Sarai Naurang, PK","28350, PK"
"Khyber Pakhtunkhwa, PK","Sarai Naurang Main Bazar, PK","28352, PK"
"Khyber Pakhtunkhwa, PK","Sultanabad, PK","28354, PK"
"Khyber Pakhtunkhwa, PK","Taja Zai, PK","28360, PK"
"Khyber Pakhtunkhwa, PK","Titer Khel, PK","28364, PK"
"Khyber Pakhtunkhwa, PK","Sarai Gambila, PK","28370, PK"
"Khyber Pakhtunkhwa, PK","Tajori, PK","28380, PK"
"Khyber Pakhtunkhwa, PK","Lande Wah, PK","28410, PK"
"Khyber Pakhtunkhwa, PK","Lakki Marwat Gpo, PK","28420, PK"
"Khyber Pakhtunkhwa, PK","Isa Khel, PK","28424, PK"
"Khyber Pakhtunkhwa, PK","Shahbaz Khel, PK","28426, PK"
"Khyber Pakhtunkhwa, PK","Abba Khel, PK","28440, PK"
"Khyber Pakhtunkhwa, PK","Ghazni Khel, PK","28450, PK"
"Khyber Pakhtunkhwa, PK","Dara Pezu, PK","28470, PK"
"Khyber Pakhtunkhwa, PK","Bakka Khel, PK","28480, PK"
"Khyber Pakhtunkhwa, PK","Chak Dadan, PK","28490, PK"
"Khyber Pakhtunkhwa, PK","Lakki Headquarter Complex, PK","28500, PK"
"Khyber Pakhtunkhwa, PK","Lakki Marwat Main Lorry Adda, PK","28510, PK"
"Khyber Pakhtunkhwa, PK","Michan Khel Adda Lakki Marwat, PK","28520, PK"
"Khyber Pakhtunkhwa, PK","Dalu Khel, PK","28530, PK"
"Khyber Pakhtunkhwa, PK","Paniala, PK","29000, PK"
"Khyber Pakhtunkhwa, PK","Wanda Khan Muhammad, PK","29010, PK"
"Khyber Pakhtunkhwa, PK","Rehmani Khel, PK","29012, PK"
"Khyber Pakhtunkhwa, PK","Yarik, PK","29020, PK"
"Khyber Pakhtunkhwa, PK","Dera Ismail Khan Gpo, PK","29050, PK"
"Khyber Pakhtunkhwa, PK","Dera Town Ship, PK","29060, PK"
"Khyber Pakhtunkhwa, PK","Muryali, PK","29080, PK"
"Khyber Pakhtunkhwa, PK","D.I Khan Polytechnical Institute, PK","29090, PK"
"Khyber Pakhtunkhwa, PK","Din Pur, PK","29100, PK"
"Khyber Pakhtunkhwa, PK","D.I Khan Agricultural Research Center, PK","29120, PK"
"Khyber Pakhtunkhwa, PK","Kachi Paind Khan, PK","29130, PK"
"Khyber Pakhtunkhwa, PK","Saddar Bazar Dera Ismail Khan, PK","29140, PK"
"Khyber Pakhtunkhwa, PK","Fort Iqbal Garh, PK","29150, PK"
"Khyber Pakhtunkhwa, PK","Paharpur, PK","29160, PK"
"Khyber Pakhtunkhwa, PK","Band Kurai, PK","29162, PK"
"Khyber Pakhtunkhwa, PK","Bilot, PK","29170, PK"
"Khyber Pakhtunkhwa, PK","Kirri Khaisor, PK","29180, PK"
"Khyber Pakhtunkhwa, PK","Kachamali Khel, PK","29184, PK"
"Khyber Pakhtunkhwa, PK","Chishma Right Bank Canal D.I Khan, PK","29190, PK"
"Khyber Pakhtunkhwa, PK","Mandhara, PK","29200, PK"
"Khyber Pakhtunkhwa, PK","Rangpur, PK","29206, PK"
"Khyber Pakhtunkhwa, PK","Kot Jai, PK","29210, PK"
"Khyber Pakhtunkhwa, PK","Gomal University New Campus, PK","29220, PK"
"Khyber Pakhtunkhwa, PK","Paroa, PK","29230, PK"
"Khyber Pakhtunkhwa, PK","Ramak, PK","29232, PK"
"Khyber Pakhtunkhwa, PK","Kiri Shamozai, PK","29240, PK"
"Khyber Pakhtunkhwa, PK","Daraban, PK","29310, PK"
"Khyber Pakhtunkhwa, PK","Musa Zai, PK","29320, PK"
"Khyber Pakhtunkhwa, PK","Choudhwan, PK","29330, PK"
"Khyber Pakhtunkhwa, PK","Darazinda, PK","29340, PK"
"Khyber Pakhtunkhwa, PK","Kulachi, PK","29350, PK"
"Khyber Pakhtunkhwa, PK","Takwara, PK","29380, PK"
"Khyber Pakhtunkhwa, PK","Tank Gpo, PK","29400, PK"
"Khyber Pakhtunkhwa, PK","Gomal Bazar, PK","29410, PK"
"Khyber Pakhtunkhwa, PK","Gul Imam, PK","29420, PK"
"Khyber Pakhtunkhwa, PK","Pai, PK","29430, PK"
"Khyber Pakhtunkhwa, PK","Ama Khel, PK","29432, PK"
"Khyber Pakhtunkhwa, PK","Mullazai, PK","29440, PK"
"Khyber Pakhtunkhwa, PK","Manzai, PK","29460, PK"
"Khyber Pakhtunkhwa, PK","Jandola, PK","29470, PK"
"Khyber Pakhtunkhwa, PK","Sararogha, PK","29480, PK"
"Khyber Pakhtunkhwa, PK","Ladha, PK","29490, PK"
"Khyber Pakhtunkhwa, PK","Sarwakai, PK","29510, PK"
"Khyber Pakhtunkhwa, PK","Wana, PK","29540, PK"
"Punjab, PK","Mulaya, PK","22420, PK"
"Punjab, PK","Bhakkar Gpo, PK","30000, PK"
"Punjab, PK","Chak-186, PK","30004, PK"
"Punjab, PK","Sial, PK","30010, PK"
"Punjab, PK","Sarai Mohajir, PK","30020, PK"
"Punjab, PK","Haiderabad (Bhakkar), PK","30030, PK"
"Punjab, PK","Behal, PK","30040, PK"
"Punjab, PK","Yousaf Shah, PK","30046, PK"
"Punjab, PK","Chak 47/T.D.A., PK","30050, PK"
"Punjab, PK","Chak 67 Ml, PK","30052, PK"
"Punjab, PK","Mankera, PK","30060, PK"
"Punjab, PK","Darya Khan Railway Station, PK","30100, PK"
"Punjab, PK","Dullewala, PK","30110, PK"
"Punjab, PK","Panj Girain, PK","30120, PK"
"Punjab, PK","Tibba Nainam Wala, PK","30130, PK"
"Punjab, PK","Kallur Kot, PK","30140, PK"
"Punjab, PK","Jandan Wala, PK","30150, PK"
"Punjab, PK","Rodi, PK","30160, PK"
"Punjab, PK","Chak 90/Ml, PK","31000, PK"
"Punjab, PK","Fateh Pur, PK","31050, PK"
"Punjab, PK","Karor, PK","31100, PK"
"Punjab, PK","Shah Pur, PK","31150, PK"
"Punjab, PK","Layyah Gpo, PK","31200, PK"
"Punjab, PK","Chak No.270 Tda, PK","31250, PK"
"Punjab, PK","Layyah Sugar Mills, PK","31300, PK"
"Punjab, PK","Ladhana, PK","31350, PK"
"Punjab, PK","Chak No.279 Tda, PK","31400, PK"
"Punjab, PK","Chawk Azam, PK","31450, PK"
"Punjab, PK","Choubara, PK","31500, PK"
"Punjab, PK","Juman Shah, PK","31600, PK"
"Punjab, PK","Kot Sultan, PK","31650, PK"
"Punjab, PK","Karim Abad, PK","31660, PK"
"Punjab, PK","Latra, PK","32000, PK"
"Punjab, PK","Vehoa, PK","32010, PK"
"Punjab, PK","Nutkani, PK","32020, PK"
"Punjab, PK","Tibbi Qaisrani, PK","32030, PK"
"Punjab, PK","Retra, PK","32040, PK"
"Punjab, PK","Nari, PK","32050, PK"
"Punjab, PK","Taunsa Sharif, PK","32100, PK"
"Punjab, PK","Basti Buzdar, PK","32110, PK"
"Punjab, PK","Mangrotha, PK","32120, PK"
"Punjab, PK","Barthi, PK","32124, PK"
"Punjab, PK","Kot Qaisrani, PK","32130, PK"
"Punjab, PK","Sokar, PK","32140, PK"
"Punjab, PK","Shadan Lund, PK","32150, PK"
"Punjab, PK","Kala, PK","32160, PK"
"Punjab, PK","Shah Saddar Din, PK","32170, PK"
"Punjab, PK","Dera Ghazi Khan Gpo, PK","32200, PK"
"Punjab, PK","Khyaban-E-Sarwar, PK","32210, PK"
"Punjab, PK","Samina, PK","32230, PK"
"Punjab, PK","D.G.Khan Cement Factory, PK","32250, PK"
"Punjab, PK","D.G Khan Secondary Board, PK","32260, PK"
"Punjab, PK","Sakhi Sarwar, PK","32300, PK"
"Punjab, PK","Bughal Char, PK","32310, PK"
"Punjab, PK","Fort Munroo, PK","32320, PK"
"Punjab, PK","Kot Chutta, PK","32350, PK"
"Punjab, PK","Choti, PK","32380, PK"
"Punjab, PK","Mana, PK","32400, PK"
"Punjab, PK","Basti Malana, PK","32410, PK"
"Punjab, PK","Jalbani, PK","32420, PK"
"Punjab, PK","Jhoke Utra, PK","32430, PK"
"Punjab, PK","Jam Pur, PK","33000, PK"
"Punjab, PK","Dajal, PK","33100, PK"
"Punjab, PK","Muhammad Pur, PK","33300, PK"
"Punjab, PK","Rajan Pur, PK","33500, PK"
"Punjab, PK","Mithan Kot, PK","33600, PK"
"Punjab, PK","Rojhan, PK","33700, PK"
"Punjab, PK","Ahsan Pur, PK","34000, PK"
"Punjab, PK","Dera Din Panah, PK","34010, PK"
"Punjab, PK","Ch0wk Sarwar Shaheed, PK","34030, PK"
"Punjab, PK","Kot Adu, PK","34050, PK"
"Punjab, PK","Gas Tarbine Power Muzaffargarh, PK","34060, PK"
"Punjab, PK","Sinawan, PK","34100, PK"
"Punjab, PK","Mehmood Kot, PK","34110, PK"
"Punjab, PK","Tharmal Power Station Muzaffargarh, PK","34114, PK"
"Punjab, PK","Gujrat (Muzaffargarh), PK","34120, PK"
"Punjab, PK","Fazal Garh, PK","34130, PK"
"Punjab, PK","Muzaffargarh Gpo, PK","34200, PK"
"Punjab, PK","Fazal Nagar, PK","34210, PK"
"Punjab, PK","Misali Middle Public School Pir Jihania, PK","34220, PK"
"Punjab, PK","Basira, PK","34300, PK"
"Punjab, PK","Qureshi, PK","34310, PK"
"Punjab, PK","Khan Garh, PK","34350, PK"
"Punjab, PK","Shah Jamal, PK","34370, PK"
"Punjab, PK","Darain, PK","34380, PK"
"Punjab, PK","Doaba, PK","34382, PK"
"Punjab, PK","Mondka, PK","34384, PK"
"Punjab, PK","Rohilan Wali, PK","34400, PK"
"Punjab, PK","Shehar Sultan, PK","34410, PK"
"Punjab, PK","Jatoi, PK","34430, PK"
"Punjab, PK","Bet Mir Hazar Khan, PK","34440, PK"
"Punjab, PK","Ali Pur, PK","34450, PK"
"Punjab, PK","Khairpur Sadat, PK","34470, PK"
"Punjab, PK","Sit Pur, PK","34480, PK"
"Punjab, PK","Bhutta Pur, PK","34500, PK"
"Punjab, PK","Khanpur Shumali, PK","34550, PK"
"Punjab, PK","Sultan Colony, PK","34600, PK"
"Punjab, PK","Rang Pur, PK","34650, PK"
"Punjab, PK","Shor Kot Cantt., PK","35010, PK"
"Punjab, PK","Chak 327 Gb, PK","35012, PK"
"Punjab, PK","P.A.F. Colony Shor Kot, PK","35020, PK"
"Punjab, PK","P.A.F. Base Rafiqi Shor Kot, PK","35030, PK"
"Punjab, PK","Shor Kot City, PK","35050, PK"
"Punjab, PK","Kaki Nao, PK","35060, PK"
"Punjab, PK","Garh Maha Raja, PK","35080, PK"
"Punjab, PK","Ahamed Pur Sial, PK","35090, PK"
"Punjab, PK","Waryam, PK","35100, PK"
"Punjab, PK","Chak 490, PK","35110, PK"
"Punjab, PK","Haveli Bahadur Shah, PK","35150, PK"
"Punjab, PK","Kot Umardraz Khan, PK","35152, PK"
"Punjab, PK","Rudo Sultan, PK","35160, PK"
"Punjab, PK","Nawazish Naghar, PK","35170, PK"
"Punjab, PK","Atharan Hazari, PK","35180, PK"
"Punjab, PK","Jhang Gpo, PK","35200, PK"
"Punjab, PK","Aliabad, Jhang, PK","35210, PK"
"Punjab, PK","Dhill Bagh, PK","35300, PK"
"Punjab, PK","Chak 175 /Jb, PK","35310, PK"
"Punjab, PK","Bhawana, PK","35350, PK"
"Punjab, PK","Jamia Ashrafia, PK","35360, PK"
"Punjab, PK","Chiniot, PK","35400, PK"
"Punjab, PK","Chenab Nagar, PK","35460, PK"
"Punjab, PK","Lalian, PK","35470, PK"
"Punjab, PK","Pir Punja, PK","35480, PK"
"Punjab, PK","Chund Bharwana, PK","35500, PK"
"Punjab, PK","Kot Shakir, PK","35510, PK"
"Punjab, PK","Pirkot Sadhana, PK","35520, PK"
"Punjab, PK","Shah Jewana Mandi, PK","35550, PK"
"Punjab, PK","Shah Jewna City, PK","35560, PK"
"Punjab, PK","Kot Essa Shah, PK","35570, PK"
"Punjab, PK","Mari Shah Sakhira, PK","35580, PK"
"Punjab, PK","Chak 316 Gb Qadir Abad, PK","36000, PK"
"Punjab, PK","Toba Take Singh Gpo, PK","36050, PK"
"Punjab, PK","Rajana Road, PK","36070, PK"
"Punjab, PK","Chak 256 Gb, PK","36080, PK"
"Punjab, PK","Jani Wala, PK","36100, PK"
"Punjab, PK","Gojra, PK","36120, PK"
"Punjab, PK","Chak 159 Gb, PK","36150, PK"
"Punjab, PK","Chak 424/Jb, PK","36160, PK"
"Punjab, PK","Pacca Anna, PK","36200, PK"
"Punjab, PK","Chak 387 Gb, PK","36260, PK"
"Punjab, PK","Gil Acri, PK","36270, PK"
"Punjab, PK","Nawan Lahore, PK","36280, PK"
"Punjab, PK","Gojra More, PK","36282, PK"
"Punjab, PK","Pir Mahal, PK","36300, PK"
"Punjab, PK","Sandhlian Wali, PK","36320, PK"
"Punjab, PK","Chak 333 Gb, PK","36330, PK"
"Punjab, PK","Kamalia Gpo, PK","36350, PK"
"Punjab, PK","Malfatyana, PK","36360, PK"
"Punjab, PK","Kamalia Sugar Mills, PK","36380, PK"
"Punjab, PK","Jakhar, PK","36390, PK"
"Punjab, PK","Mamu Kanjan, PK","37000, PK"
"Punjab, PK","Murid Wala, PK","37020, PK"
"Punjab, PK","Chak 206 Gb, PK","37040, PK"
"Punjab, PK","Chak 207 Gb, PK","37050, PK"
"Punjab, PK","Chak 482 Gb (Jagranwan), PK","37060, PK"
"Punjab, PK","Kanjwani, PK","37100, PK"
"Punjab, PK","Garh, PK","37110, PK"
"Punjab, PK","Chak 447 Gb, PK","37130, PK"
"Punjab, PK","Pindi Shiekh Musa, PK","37140, PK"
"Punjab, PK","Tandlian Wala, PK","37150, PK"
"Punjab, PK","Chak 433 Gb, PK","37180, PK"
"Punjab, PK","Rorala Road, PK","37200, PK"
"Punjab, PK","Chak 128 Gb, PK","37220, PK"
"Punjab, PK","Chak 353 Gb, PK","37224, PK"
"Punjab, PK","Chak 66 Gb, PK","37230, PK"
"Punjab, PK","Jaranwala, PK","37250, PK"
"Punjab, PK","Buchiana, PK","37260, PK"
"Punjab, PK","Ganga Pur, PK","37280, PK"
"Punjab, PK","Chak 98/Gb, PK","37290, PK"
"Punjab, PK","Samundri, PK","37300, PK"
"Punjab, PK","Chak 45 Gb, PK","37340, PK"
"Punjab, PK","Chak 267 Rb, PK","37360, PK"
"Punjab, PK","Dich Kot, PK","37370, PK"
"Punjab, PK","Chak 253 Rb, PK","37400, PK"
"Punjab, PK","Chak 257 Rb, PK","37410, PK"
"Punjab, PK","Chak 248 Rb, PK","37420, PK"
"Punjab, PK","Dasuha, PK","37430, PK"
"Punjab, PK","Satiana Banglow, PK","37450, PK"
"Punjab, PK","P.A.F. Risalay Wala, PK","37510, PK"
"Punjab, PK","Thjkri Wala, PK","37520, PK"
"Punjab, PK","Chak 275 J.B, PK","37530, PK"
"Punjab, PK","Chak 67 Jb, PK","37540, PK"
"Punjab, PK","Chak 113 Gb, PK","37570, PK"
"Punjab, PK","Chak 117 Jb, PK","37600, PK"
"Punjab, PK","Chak 203 Rb, PK","37610, PK"
"Punjab, PK","Chak 199 Rb, PK","37620, PK"
"Punjab, PK","Khurrian Wala, PK","37630, PK"
"Punjab, PK","Chak 103 Rb, PK","37660, PK"
"Punjab, PK","Chak 189 Rb (Rasulpur), PK","37690, PK"
"Punjab, PK","Chak Jhumra, PK","37700, PK"
"Punjab, PK","Chak 103 Jb, PK","37720, PK"
"Punjab, PK","Burj Mandi, PK","37730, PK"
"Punjab, PK","Chak 16 Jb, PK","37740, PK"
"Punjab, PK","Sahuwala (Chak 132/Rb), PK","37750, PK"
"Punjab, PK","Faisalabad Gpo, PK","38000, PK"
"Punjab, PK","Faisalabad Board Of Education, PK","38004, PK"
"Punjab, PK","Faisalabad Millat Town, PK","38070, PK"
"Punjab, PK","Faisalabad Millat Colony, PK","38080, PK"
"Punjab, PK","Faisalabad Sitara Colony, PK","38086, PK"
"Punjab, PK","Faisalabad Peoples Colony No.2, PK","38090, PK"
"Punjab, PK","Faisalabad Amin Pur Banglow, PK","38200, PK"
"Punjab, PK","Chak 59 Jb, PK","38210, PK"
"Punjab, PK","Chak 229 Rb, PK","38220, PK"
"Punjab, PK","Chak 271 Rb, PK","38230, PK"
"Punjab, PK","Chak 583 Gb, PK","38240, PK"
"Punjab, PK","Faisalabad Nishat Abad, PK","38600, PK"
"Punjab, PK","Gulistan Colony, Faisalabad, PK","38610, PK"
"Punjab, PK","Faisalabad Noor Pur, PK","38700, PK"
"Punjab, PK","Faisalabad Punjab Medical College, PK","38800, PK"
"Punjab, PK","Ayub Agricultural Research Institute, PK","38850, PK"
"Punjab, PK","Faisalabad Madina Town, PK","38860, PK"
"Punjab, PK","Ghulam Muhammad Abad, PK","38900, PK"
"Punjab, PK","Muridke, PK","39000, PK"
"Punjab, PK","Mannoo Abad, PK","39010, PK"
"Punjab, PK","Rayyanpura, PK","39018, PK"
"Punjab, PK","Sheikhupura Service Industry, PK","39040, PK"
"Punjab, PK","Narang Mandi, PK","39050, PK"
"Punjab, PK","Adhian, PK","39060, PK"
"Punjab, PK","Nankana Sahib, PK","39100, PK"
"Punjab, PK","More Khunda, PK","39120, PK"
"Punjab, PK","Bucheki, PK","39130, PK"
"Punjab, PK","Sayyed Wala, PK","39150, PK"
"Punjab, PK","Martin Pur, PK","39160, PK"
"Punjab, PK","Manan Wala, PK","39170, PK"
"Punjab, PK","Feroz Wattan, PK","39172, PK"
"Punjab, PK","Warburton, PK","39180, PK"
"Punjab, PK","Kot Abdul Malik, PK","39250, PK"
"Punjab, PK","Monoo Pur, PK","39320, PK"
"Punjab, PK","Kot Pindi Das, PK","39330, PK"
"Punjab, PK","Qila Sheikhupura Gpo, PK","39350, PK"
"Punjab, PK","Koryal Kalan, PK","39424, PK"
"Punjab, PK","Ajnian Wala, PK","39450, PK"
"Punjab, PK","Sharaq Pur, PK","39460, PK"
"Punjab, PK","Mandi Faiz Abad, PK","39470, PK"
"Punjab, PK","Farooqabad Mandi, PK","39500, PK"
"Punjab, PK","Canal Colony Farooq Abad, PK","39510, PK"
"Punjab, PK","Farooqabad, PK","39520, PK"
"Punjab, PK","Bahalike, PK","39530, PK"
"Punjab, PK","Safdar Abad, PK","39540, PK"
"Punjab, PK","Khan Gah Dogran, PK","39560, PK"
"Punjab, PK","Marh Balochan, PK","39570, PK"
"Punjab, PK","Sangla Hill, PK","39600, PK"
"Punjab, PK","Bhuleer Chak 119, PK","39610, PK"
"Punjab, PK","Shah Kot, PK","39630, PK"
"Punjab, PK","Panwan, PK","39650, PK"
"Punjab, PK","Kot Nizamdin, PK","39660, PK"
"Punjab, PK","Shah Nikdar, PK","40000, PK"
"Punjab, PK","Sillan Wali, PK","40010, PK"
"Punjab, PK","Farooka, PK","40040, PK"
"Punjab, PK","Chak 46 S.B., PK","40050, PK"
"Punjab, PK","Chak 36 S.B., PK","40060, PK"
"Punjab, PK","Bulland Hill, PK","40080, PK"
"Punjab, PK","Sargodha Gpo, PK","40100, PK"
"Punjab, PK","Wijh, PK","40110, PK"
"Punjab, PK","Ahmed Pur, PK","40120, PK"
"Punjab, PK","Shaheenabad, PK","40130, PK"
"Punjab, PK","Chak 64 S.B, PK","40140, PK"
"Punjab, PK","Sargodha Secondary Board, PK","40160, PK"
"Punjab, PK","University Of Sargodha, PK","40162, PK"
"Punjab, PK","Sargodha Taxtile Mills, PK","40170, PK"
"Punjab, PK","Sargodha P.A.F Base, PK","40180, PK"
"Punjab, PK","Astana-E-Fazal, PK","40184, PK"
"Punjab, PK","Sargodha Cantt, PK","40190, PK"
"Punjab, PK","Sahiwal (Sargodha), PK","40210, PK"
"Punjab, PK","Gondal (Sargodha), PK","40216, PK"
"Punjab, PK","Sail Sharif, PK","40220, PK"
"Punjab, PK","Sial Chowk, PK","40222, PK"
"Punjab, PK","Nihang, PK","40230, PK"
"Punjab, PK","Kirana Hill, PK","40250, PK"
"Punjab, PK","Chak 111 Sb, PK","40260, PK"
"Punjab, PK","Chak 88 S.B., PK","40270, PK"
"Punjab, PK","Bhagtan Wala, PK","40280, PK"
"Punjab, PK","Kallas Sharif, PK","40290, PK"
"Punjab, PK","Chak 86 S.B., PK","40300, PK"
"Punjab, PK","Chak 29 S.B., PK","40310, PK"
"Punjab, PK","Chak 34 N.B., PK","40330, PK"
"Punjab, PK","Hyderabad Town Sargodha, PK","40340, PK"
"Punjab, PK","Mori, PK","40342, PK"
"Punjab, PK","Jhawrian, PK","40350, PK"
"Punjab, PK","Uttian, PK","40360, PK"
"Punjab, PK","Dharima, PK","40370, PK"
"Punjab, PK","Noon Sugar Mills Bhalwal, PK","40400, PK"
"Punjab, PK","Bhalwal, PK","40410, PK"
"Punjab, PK","Attabad, Sargodha, PK","40412, PK"
"Punjab, PK","Alamabad, PK","40418, PK"
"Punjab, PK","Manzoor Hayat Colony Bhalwal, PK","40420, PK"
"Punjab, PK","Moazam Abad, PK","40430, PK"
"Punjab, PK","Lalliani, PK","40440, PK"
"Punjab, PK","Kot Moman, PK","40450, PK"
"Punjab, PK","Midh Ranjha, PK","40460, PK"
"Punjab, PK","Tangowali, PK","40462, PK"
"Punjab, PK","Punja, PK","40464, PK"
"Punjab, PK","Bhabra, PK","40470, PK"
"Punjab, PK","Alipur Noon, PK","40500, PK"
"Punjab, PK","Chak Ram Das, PK","40520, PK"
"Punjab, PK","Chak Mubarak, PK","40520, PK"
"Punjab, PK","Chak 10 M.L., PK","40530, PK"
"Punjab, PK","Bhera, PK","40540, PK"
"Punjab, PK","Hazoorpur, PK","40542, PK"
"Punjab, PK","Alipur Saidan, PK","40544, PK"
"Punjab, PK","Miani, PK","40550, PK"
"Punjab, PK","Hujjan, PK","40560, PK"
"Punjab, PK","Phular Wan, PK","40570, PK"
"Punjab, PK","Shah Pur Sadar, PK","40600, PK"
"Punjab, PK","Shah Pur City, PK","40610, PK"
"Punjab, PK","Jahanabad, PK","40614, PK"
"Punjab, PK","Kandan, PK","40620, PK"
"Punjab, PK","Khushab Gpo, PK","41000, PK"
"Punjab, PK","Hussain Abad, PK","41010, PK"
"Punjab, PK","Girote, PK","41020, PK"
"Punjab, PK","Khura, PK","41022, PK"
"Punjab, PK","Chowk Girote, PK","41024, PK"
"Punjab, PK","Roda, PK","41030, PK"
"Punjab, PK","Pail, PK","41050, PK"
"Punjab, PK","Padhrar, PK","41060, PK"
"Punjab, PK","Nawshera (Khushab), PK","41100, PK"
"Punjab, PK","Surraki, PK","41102, PK"
"Punjab, PK","Ugali, PK","41104, PK"
"Punjab, PK","Sodhi, PK","41110, PK"
"Punjab, PK","Khabbekki, PK","41120, PK"
"Punjab, PK","Dhadhar, PK","41122, PK"
"Punjab, PK","Jabba, PK","41124, PK"
"Punjab, PK","Mardwal, PK","41130, PK"
"Punjab, PK","Angah, PK","41140, PK"
"Punjab, PK","Uchhali, PK","41150, PK"
"Punjab, PK","P. A. F. Sakesar, PK","41160, PK"
"Punjab, PK","Kufri, PK","41162, PK"
"Punjab, PK","Jahlar, PK","41170, PK"
"Punjab, PK","Jauhar Abad, PK","41200, PK"
"Punjab, PK","Hadali, PK","41210, PK"
"Punjab, PK","Jabbi, PK","41220, PK"
"Punjab, PK","Mitha Tiwana, PK","41250, PK"
"Punjab, PK","Adhi Kot, PK","41260, PK"
"Punjab, PK","Khushab Atomic Energy Commission, PK","41264, PK"
"Punjab, PK","Nur Pur Thal, PK","41270, PK"
"Punjab, PK","Jamali, PK","41280, PK"
"Punjab, PK","Jaura Kalan, PK","41282, PK"
"Punjab, PK","Qaid Abad, PK","41300, PK"
"Punjab, PK","Bandial, PK","41310, PK"
"Punjab, PK","Rangpur Baghor, PK","41320, PK"
"Punjab, PK","Warchha Mandi, PK","41330, PK"
"Punjab, PK","Rajar, PK","41340, PK"
"Punjab, PK","Liaqat Abad, PK","42000, PK"
"Punjab, PK","Alluwali, PK","42010, PK"
"Punjab, PK","Dubb, PK","42012, PK"
"Punjab, PK","Harnoli, PK","42020, PK"
"Punjab, PK","Chashma Barrage Colony Mianwali, PK","42030, PK"
"Punjab, PK","Kundian, PK","42050, PK"
"Punjab, PK","Chak 4/Db, PK","42060, PK"
"Punjab, PK","Wan Bhachran, PK","42100, PK"
"Punjab, PK","Chapri, PK","42110, PK"
"Punjab, PK","Shadia, PK","42120, PK"
"Punjab, PK","Mianwali Gpo, PK","42200, PK"
"Punjab, PK","Pakki Shah Mardan, PK","42204, PK"
"Punjab, PK","Mianwali P.A.F Colony, PK","42206, PK"
"Punjab, PK","Kallor, PK","42208, PK"
"Punjab, PK","Musa Khel, PK","42210, PK"
"Punjab, PK","Kalri, PK","42220, PK"
"Punjab, PK","Chakrala, PK","42230, PK"
"Punjab, PK","Dhiba Kar Sial, PK","42232, PK"
"Punjab, PK","Dhurnaka, PK","42240, PK"
"Punjab, PK","Rikhi, PK","42250, PK"
"Punjab, PK","Chhidroo, PK","42260, PK"
"Punjab, PK","Pai Khel, PK","42300, PK"
"Punjab, PK","Ghundi, PK","42302, PK"
"Punjab, PK","Swance, PK","42304, PK"
"Punjab, PK","Mochh, PK","42310, PK"
"Punjab, PK","Dillewali, PK","42312, PK"
"Punjab, PK","Daud Khel, PK","42320, PK"
"Punjab, PK","Iskandar Abad, PK","42340, PK"
"Punjab, PK","Mari Indus, PK","42350, PK"
"Punjab, PK","Kalabagh, PK","42360, PK"
"Punjab, PK","Tabisar, PK","42370, PK"
"Punjab, PK","Tola Bangi Khel, PK","42380, PK"
"Punjab, PK","Kamar Mashani, PK","42400, PK"
"Punjab, PK","Makerwal, PK","42410, PK"
"Punjab, PK","Trag, PK","42420, PK"
"Punjab, PK","Isa Khel, PK","42430, PK"
"Punjab, PK","Makhad Road, PK","43000, PK"
"Punjab, PK","Kani, PK","43002, PK"
"Punjab, PK","Makhad Sharif, PK","43010, PK"
"Punjab, PK","Injra, PK","43020, PK"
"Punjab, PK","Naka Afghanan, PK","43030, PK"
"Punjab, PK","Hadowali, PK","43040, PK"
"Punjab, PK","Chabchhab, PK","43050, PK"
"Punjab, PK","Nandrakabad, PK","43052, PK"
"Punjab, PK","Lakarmar, PK","43060, PK"
"Punjab, PK","Jhamat, PK","43070, PK"
"Punjab, PK","Dakhnair, PK","43080, PK"
"Punjab, PK","Malhowali, PK","43090, PK"
"Punjab, PK","Jand, PK","43100, PK"
"Punjab, PK","Kot Chhaji, PK","43110, PK"
"Punjab, PK","Jalwal, PK","43112, PK"
"Punjab, PK","Kandrala, PK","43114, PK"
"Punjab, PK","Nara, PK","43120, PK"
"Punjab, PK","Pindi Sarhal, PK","43122, PK"
"Punjab, PK","Thatta, PK","43130, PK"
"Punjab, PK","Basal, PK","43140, PK"
"Punjab, PK","Kisran, PK","43200, PK"
"Punjab, PK","Mithal, PK","43210, PK"
"Punjab, PK","Domel, PK","43220, PK"
"Punjab, PK","Maryala, PK","43222, PK"
"Punjab, PK","Pind Sultani, PK","43230, PK"
"Punjab, PK","Rangli, PK","43232, PK"
"Punjab, PK","Ikhlas, PK","43240, PK"
"Punjab, PK","Mianwala, PK","43244, PK"
"Punjab, PK","Dhok Lahm, PK","43250, PK"
"Punjab, PK","Surg, PK","43252, PK"
"Punjab, PK","Pindi Gheb, PK","43260, PK"
"Punjab, PK","Chhab, PK","43270, PK"
"Punjab, PK","Nilhad, PK","43280, PK"
"Punjab, PK","Khunda, PK","43300, PK"
"Punjab, PK","Mirjal, PK","43320, PK"
"Punjab, PK","Kahal, PK","43322, PK"
"Punjab, PK","Gaggon, PK","43330, PK"
"Punjab, PK","Kot Fateh Khan, PK","43340, PK"
"Punjab, PK","Fateh Jang, PK","43350, PK"
"Punjab, PK","Kamrial, PK","43360, PK"
"Punjab, PK","Kanjur, PK","43364, PK"
"Punjab, PK","Dhurnal, PK","43366, PK"
"Punjab, PK","Ganda Kas, PK","43370, PK"
"Punjab, PK","Khaur, PK","43380, PK"
"Punjab, PK","Khaur Village, PK","43382, PK"
"Punjab, PK","Kutbal, PK","43390, PK"
"Punjab, PK","Hattar, PK","43394, PK"
"Punjab, PK","Moorat, PK","43396, PK"
"Punjab, PK","Jalalia, PK","43400, PK"
"Punjab, PK","Gurgushti, PK","43410, PK"
"Punjab, PK","Malak Mala, PK","43412, PK"
"Punjab, PK","Behboodi, PK","43414, PK"
"Punjab, PK","Shinka, PK","43420, PK"
"Punjab, PK","Yasin Kalan, PK","43422, PK"
"Punjab, PK","Barazai, PK","43430, PK"
"Punjab, PK","Hazro, PK","43440, PK"
"Punjab, PK","Kamalpur Musa, PK","43442, PK"
"Punjab, PK","Raitla Mandi, PK","43444, PK"
"Punjab, PK","Nartopa, PK","43450, PK"
"Punjab, PK","Musa, PK","43460, PK"
"Punjab, PK","Hameed, PK","43470, PK"
"Punjab, PK","Saman, PK","43480, PK"
"Punjab, PK","Shams Abad, PK","43490, PK"
"Punjab, PK","Rangoo, PK","43500, PK"
"Punjab, PK","Waisa, PK","43510, PK"
"Punjab, PK","Sirka, PK","43520, PK"
"Punjab, PK","Shadi Khan, PK","43530, PK"
"Punjab, PK","Furmali, PK","43540, PK"
"Punjab, PK","Mansar Camp, PK","43550, PK"
"Punjab, PK","Attock Khurd, PK","43560, PK"
"Punjab, PK","P.A.C. Kamra, PK","43570, PK"
"Punjab, PK","Hattian, PK","43580, PK"
"Punjab, PK","Attock Gpo, PK","43600, PK"
"Punjab, PK","Barotha Wapda Colony, PK","43660, PK"
"Punjab, PK","Sanjwal Pakistan Ordnance Factory, PK","43670, PK"
"Punjab, PK","Mirza, PK","43680, PK"
"Punjab, PK","Dawoodpur, PK","43700, PK"
"Punjab, PK","Burhan, PK","43710, PK"
"Punjab, PK","Mono Nagar, PK","43720, PK"
"Punjab, PK","Hasan Abdal, PK","43730, PK"
"Punjab, PK","Alro Lab, PK","43734, PK"
"Punjab, PK","Bahtar, PK","43740, PK"
"Punjab, PK","Boota, PK","43750, PK"
"Punjab, PK","Rawalpindi Gpo, PK","46000, PK"
"Punjab, PK","Rawalpindi Momin Pura, PK","46010, PK"
"Punjab, PK","Rawalpindi Urdu Bazar, PK","46020, PK"
"Punjab, PK","Rawalpindi Saidpur Road, PK","46030, PK"
"Punjab, PK","Rawalpindi Asghar Mall, PK","46040, PK"
"Punjab, PK","Rawalpindi Allama Iqbal Colony, PK","46050, PK"
"Punjab, PK","Rawalpindi Westridge, PK","46060, PK"
"Punjab, PK","Rawalpindi Kohinoor Colony, PK","46070, PK"
"Punjab, PK","Rawalpindi General Headquarters, PK","46100, PK"
"Punjab, PK","Murree Brewary Rawalpindi, PK","46120, PK"
"Punjab, PK","Chaklala Village, PK","46202, PK"
"Punjab, PK","Rawalpindi Chaklala Air Field, PK","46210, PK"
"Punjab, PK","Rawalpindi Bahria Town (Phase 1, 2, 3, 4), PK","46220, PK"
"Punjab, PK","Rawalpindi Gulzar-E-Quaid, PK","46222, PK"
"Punjab, PK","Rawalpindi Satellite Town, PK","46300, PK"
"Punjab, PK","Rawalpindi Judicial Town, PK","46310, PK"
"Punjab, PK","Rawalpindi Raja Town, PK","46320, PK"
"Punjab, PK","Rawalpindi Fizaia Colony, PK","46330, PK"
"Punjab, PK","Rawalpindi Pir Wadhai, PK","46350, PK"
"Punjab, PK","Rawalpindi Dhamial Camp, PK","46500, PK"
"Punjab, PK","Rawalpindi Kutchery, PK","46510, PK"
"Punjab, PK","Rawalpindi Chak Jalal Din, PK","46520, PK"
"Punjab, PK","Rawalpindi Attock Oil Company, PK","46600, PK"
"Punjab, PK","Rawalpindi Bise Morgah, PK","46602, PK"
"Punjab, PK","Askari 14, Rawalpindi, PK","46604, PK"
"Punjab, PK","Rawalpindi Adyala Road, PK","46606, PK"
"Punjab, PK","Rawalpindi High Court, PK","46610, PK"
"Punjab, PK","Safari Valley (Bahria Phase 5, 6, 7, 8), PK","46620, PK"
"Punjab, PK","Wah, PK","47000, PK"
"Punjab, PK","Losar Sharfoo, PK","47002, PK"
"Punjab, PK","Lala Rukh Wah Cantt, PK","47010, PK"
"Punjab, PK","Wah Cement Works, PK","47020, PK"
"Punjab, PK","Pakistan Ordinance Factory Gudwal, PK","47030, PK"
"Punjab, PK","Wah Cantt. Gpo, PK","47040, PK"
"Punjab, PK","Lalazar Colony Wah, PK","47044, PK"
"Punjab, PK","Wah West Park, PK","47046, PK"
"Punjab, PK","Heavy Mechanical Complex Taxila, PK","47050, PK"
"Punjab, PK","Usman Khatter, PK","47060, PK"
"Punjab, PK","Ahata Farooqia, PK","47066, PK"
"Punjab, PK","Taxila Cantt., PK","47070, PK"
"Punjab, PK","Taxila, PK","47080, PK"
"Punjab, PK","Wah P.M.O Complex, PK","47086, PK"
"Punjab, PK","Saddat Colony, PK","47090, PK"
"Punjab, PK","Khurram Gujar, PK","47092, PK"
"Punjab, PK","Tret, PK","47100, PK"
"Punjab, PK","Samli Sanatorium, PK","47104, PK"
"Punjab, PK","Ghora Gali, PK","47110, PK"
"Punjab, PK","Lawrence College, PK","47114, PK"
"Punjab, PK","Murree Clifdon, PK","47118, PK"
"Punjab, PK","Chitta More, PK","47120, PK"
"Punjab, PK","Barian Camp, PK","47124, PK"
"Punjab, PK","Kuldana, PK","47130, PK"
"Punjab, PK","Sunny Bank, PK","47140, PK"
"Punjab, PK","Murree Gpo, PK","47150, PK"
"Punjab, PK","Jhika Gali, PK","47180, PK"
"Punjab, PK","Ghariai, PK","47184, PK"
"Punjab, PK","Kashmiri Bazar, PK","47190, PK"
"Punjab, PK","Dewal, PK","47194, PK"
"Punjab, PK","Phagwari, PK","47200, PK"
"Punjab, PK","Sehr Bagla, PK","47204, PK"
"Punjab, PK","Upper Topa, PK","47210, PK"
"Punjab, PK","Lower Topa, PK","47214, PK"
"Punjab, PK","Phapril, PK","47216, PK"
"Punjab, PK","Gulehra Gali, PK","47220, PK"
"Punjab, PK","Mohra Sayyedan, PK","47224, PK"
"Punjab, PK","Ban, PK","47230, PK"
"Punjab, PK","Biah, PK","47232, PK"
"Punjab, PK","Dhirkot Sattian, PK","47234, PK"
"Punjab, PK","Dhanda, PK","47240, PK"
"Punjab, PK","Mallot Sattian, PK","47250, PK"
"Punjab, PK","Kotli Sattian, PK","47260, PK"
"Punjab, PK","Durniyan, PK","47262, PK"
"Punjab, PK","Kahuti Bazar, PK","47266, PK"
"Punjab, PK","Lehtrar Bala, PK","47270, PK"
"Punjab, PK","Kalan Basand, PK","47274, PK"
"Punjab, PK","Surba, PK","47276, PK"
"Punjab, PK","Kehrore, PK","47280, PK"
"Punjab, PK","Sihal, PK","47290, PK"
"Punjab, PK","Sangral, PK","47294, PK"
"Punjab, PK","Kolian Hameed, PK","47296, PK"
"Punjab, PK","Chakri, PK","47300, PK"
"Punjab, PK","Dahgal, PK","47310, PK"
"Punjab, PK","Sumbalgah, PK","47320, PK"
"Punjab, PK","Khadiot, PK","47324, PK"
"Punjab, PK","Kahuta Gpo, PK","47330, PK"
"Punjab, PK","Hanesar, PK","47340, PK"
"Punjab, PK","Panjar, PK","47350, PK"
"Punjab, PK","Narh, PK","47360, PK"
"Punjab, PK","Sour, PK","47364, PK"
"Punjab, PK","Mowara, PK","47370, PK"
"Punjab, PK","Matore, PK","47374, PK"
"Punjab, PK","Maira (Rawalpindi), PK","47376, PK"
"Punjab, PK","Thoha Khalsa, PK","47380, PK"
"Punjab, PK","Nara, PK","47384, PK"
"Punjab, PK","Bagh Jamiri, PK","47390, PK"
"Punjab, PK","Lehri, PK","47400, PK"
"Punjab, PK","Khalol, PK","47410, PK"
"Punjab, PK","Jewra, PK","47420, PK"
"Punjab, PK","Nalla Musilmanan, PK","47430, PK"
"Punjab, PK","Benahal Pattan, PK","47432, PK"
"Punjab, PK","Doberan Kalan, PK","47440, PK"
"Punjab, PK","Sakoot, PK","47444, PK"
"Punjab, PK","Dhamali, PK","47450, PK"
"Punjab, PK","Bhalakhar, PK","47460, PK"
"Punjab, PK","Choha Khalsa, PK","47470, PK"
"Punjab, PK","Sohat Bagial, PK","47474, PK"
"Punjab, PK","Chakrali Budhal, PK","47476, PK"
"Punjab, PK","Sir Suba Shah, PK","47480, PK"
"Punjab, PK","Samote, PK","47490, PK"
"Punjab, PK","Takal, PK","47500, PK"
"Punjab, PK","Dharyala Sehgal, PK","47510, PK"
"Punjab, PK","Kallar Sayydan, PK","47520, PK"
"Punjab, PK","Thal Khalsa, PK","47522, PK"
"Punjab, PK","Chowk Pindori, PK","47530, PK"
"Punjab, PK","Sagri, PK","47540, PK"
"Punjab, PK","Manghota Barahmnan, PK","47542, PK"
"Punjab, PK","Tareel, PK","47546, PK"
"Punjab, PK","Jhatta Hathial, PK","47550, PK"
"Punjab, PK","Banda, PK","47560, PK"
"Punjab, PK","Bhall, PK","47570, PK"
"Punjab, PK","Udhowal, PK","47580, PK"
"Punjab, PK","Chauntra, PK","47590, PK"
"Punjab, PK","Tatral, PK","47592, PK"
"Punjab, PK","Chak Beli Khan, PK","47600, PK"
"Punjab, PK","Pindoori (Chak Bali Khan), PK","47610, PK"
"Punjab, PK","Mahuta Mohra, PK","47620, PK"
"Punjab, PK","Paryal, PK","47630, PK"
"Punjab, PK","Ruper Kalan, PK","47640, PK"
"Punjab, PK","Bassali, PK","47650, PK"
"Punjab, PK","Haraka, PK","47652, PK"
"Punjab, PK","Jabbar Darvesh, PK","47660, PK"
"Punjab, PK","Mandra, PK","47670, PK"
"Punjab, PK","Kaliam Awan, PK","47680, PK"
"Punjab, PK","Pothi, PK","47690, PK"
"Punjab, PK","Sang, PK","47700, PK"
"Punjab, PK","Mangote, PK","47710, PK"
"Punjab, PK","Sukho, PK","47720, PK"
"Punjab, PK","Kanyat Khalil, PK","47730, PK"
"Punjab, PK","Daultala, PK","47740, PK"
"Punjab, PK","Ahdi, PK","47750, PK"
"Punjab, PK","Narali, PK","47760, PK"
"Punjab, PK","Dhong, PK","47770, PK"
"Punjab, PK","Jatli, PK","47780, PK"
"Punjab, PK","Devi, PK","47784, PK"
"Punjab, PK","Bhair Kalyal, PK","47790, PK"
"Punjab, PK","Thekherian, PK","47800, PK"
"Punjab, PK","Raman, PK","47810, PK"
"Punjab, PK","Sayyad Kisran, PK","47820, PK"
"Punjab, PK","Bhawlay Khurd, PK","47824, PK"
"Punjab, PK","Punjgran Khurd, PK","47830, PK"
"Punjab, PK","Gujar Khan Gpo, PK","47850, PK"
"Punjab, PK","Gulyana, PK","47880, PK"
"Punjab, PK","Chik Budhal, PK","47882, PK"
"Punjab, PK","Mohra Noori, PK","47884, PK"
"Punjab, PK","Sasral, PK","47890, PK"
"Punjab, PK","Kuntrilla, PK","47900, PK"
"Punjab, PK","Bewal, PK","47910, PK"
"Punjab, PK","Mohra Bhuttian, PK","47920, PK"
"Punjab, PK","Kinger, PK","47930, PK"
"Punjab, PK","Thathi, PK","47940, PK"
"Punjab, PK","Pindori, PK","47950, PK"
"Punjab, PK","Kazian, PK","47960, PK"
"Punjab, PK","Jand Mehloo, PK","47970, PK"
"Punjab, PK","Missa Kaswal, PK","47980, PK"
"Punjab, PK","Jarmot Kalan, PK","47990, PK"
"Punjab, PK","Khingar Mamdal, PK","47994, PK"
"Punjab, PK","Trap, PK","48000, PK"
"Punjab, PK","Jabbi Shah Dilawar, PK","48020, PK"
"Punjab, PK","Multan Khurd, PK","48030, PK"
"Punjab, PK","Sang Wala, PK","48034, PK"
"Punjab, PK","Tamman, PK","48040, PK"
"Punjab, PK","Dandi Surhali, PK","48042, PK"
"Punjab, PK","Budhial, PK","48050, PK"
"Punjab, PK","Patwali, PK","48052, PK"
"Punjab, PK","Akwal, PK","48060, PK"
"Punjab, PK","Dhaular, PK","48062, PK"
"Punjab, PK","Tehi, PK","48070, PK"
"Punjab, PK","Jasial, PK","48072, PK"
"Punjab, PK","Tatral, PK","48074, PK"
"Punjab, PK","Kot Sarang, PK","48080, PK"
"Punjab, PK","Talagang City, PK","48090, PK"
"Punjab, PK","Talagang Gpo, PK","48100, PK"
"Punjab, PK","Naka Kahut, PK","48110, PK"
"Punjab, PK","Pira Fathial, PK","48120, PK"
"Punjab, PK","Moorat, PK","48122, PK"
"Punjab, PK","Balwal, PK","48130, PK"
"Punjab, PK","Bilalabad, PK","48140, PK"
"Punjab, PK","Saghar, PK","48150, PK"
"Punjab, PK","Darote, PK","48154, PK"
"Punjab, PK","Wanhar, PK","48160, PK"
"Punjab, PK","Dhulli, PK","48170, PK"
"Punjab, PK","Dhermond, PK","48180, PK"
"Punjab, PK","Dhoke Masahib, PK","48182, PK"
"Punjab, PK","Leti, PK","48190, PK"
"Punjab, PK","Pachand, PK","48200, PK"
"Punjab, PK","Kot Gullah, PK","48202, PK"
"Punjab, PK","Dhurnal, PK","48210, PK"
"Punjab, PK","Gatal, PK","48220, PK"
"Punjab, PK","Kot Qazi, PK","48222, PK"
"Punjab, PK","Danda Shah Balawal, PK","48230, PK"
"Punjab, PK","Changa, PK","48240, PK"
"Punjab, PK","Lawa, PK","48250, PK"
"Punjab, PK","Jhatla, PK","48260, PK"
"Punjab, PK","Thoha Mehram Khan, PK","48270, PK"
"Punjab, PK","Chinji, PK","48280, PK"
"Punjab, PK","Kotera, PK","48282, PK"
"Punjab, PK","Bhilomar, PK","48290, PK"
"Punjab, PK","Dandot, PK","48310, PK"
"Punjab, PK","Dalelpur, PK","48312, PK"
"Punjab, PK","Choa Saidan Shah, PK","48320, PK"
"Punjab, PK","Wahalizer, PK","48322, PK"
"Punjab, PK","Ara, PK","48326, PK"
"Punjab, PK","Dulmial, PK","48330, PK"
"Punjab, PK","Dheri Sydan, PK","48332, PK"
"Punjab, PK","Dharial Kahoon, PK","48340, PK"
"Punjab, PK","Wahula, PK","48350, PK"
"Punjab, PK","Dalwal, PK","48360, PK"
"Punjab, PK","Arrar, PK","48370, PK"
"Punjab, PK","Khairpur (Chakwal), PK","48380, PK"
"Punjab, PK","Lehr Sultan Pur, PK","48400, PK"
"Punjab, PK","Basharat, PK","48410, PK"
"Punjab, PK","Saloi, PK","48420, PK"
"Punjab, PK","Lehri Kakan, PK","48430, PK"
"Punjab, PK","Dhidwal, PK","48500, PK"
"Punjab, PK","Karriala, PK","48510, PK"
"Punjab, PK","Bhallah, PK","48514, PK"
"Punjab, PK","Dheedwal, PK","48516, PK"
"Punjab, PK","Bhaun, PK","48520, PK"
"Punjab, PK","Kalar Kahar, PK","48530, PK"
"Punjab, PK","Bharpur, PK","48540, PK"
"Punjab, PK","Jhamrah, PK","48550, PK"
"Punjab, PK","Karuli, PK","48554, PK"
"Punjab, PK","Istqlal Camp, PK","48556, PK"
"Punjab, PK","Bochal Kalan, PK","48560, PK"
"Punjab, PK","Dharukna, PK","48564, PK"
"Punjab, PK","Sar Kalan, PK","48570, PK"
"Punjab, PK","Buchal Khurd, PK","48580, PK"
"Punjab, PK","Wasnal, PK","48582, PK"
"Punjab, PK","Manara, PK","48584, PK"
"Punjab, PK","Nur Pur, PK","48590, PK"
"Punjab, PK","Sadwal, PK","48600, PK"
"Punjab, PK","Rehna Sadat, PK","48604, PK"
"Punjab, PK","Murid, PK","48610, PK"
"Punjab, PK","Bhatti Gujar, PK","48620, PK"
"Punjab, PK","Dharabi, PK","48624, PK"
"Punjab, PK","Balkasar, PK","48630, PK"
"Punjab, PK","Sidher, PK","48640, PK"
"Punjab, PK","Thoa Bahadur, PK","48650, PK"
"Punjab, PK","Oudherwal, PK","48660, PK"
"Punjab, PK","Mundey, PK","48670, PK"
"Punjab, PK","Bhagwal, PK","48680, PK"
"Punjab, PK","Chamli, PK","48682, PK"
"Punjab, PK","Roopwal, PK","48684, PK"
"Punjab, PK","Minwal, PK","48690, PK"
"Punjab, PK","Chak Bhaun, PK","48694, PK"
"Punjab, PK","Dhudial (Chakwal), PK","48700, PK"
"Punjab, PK","Sang Kalan, PK","48704, PK"
"Punjab, PK","Mangwal, PK","48720, PK"
"Punjab, PK","Nila, PK","48730, PK"
"Punjab, PK","Hasil, PK","48740, PK"
"Punjab, PK","Bhin, PK","48750, PK"
"Punjab, PK","Badshahan, PK","48760, PK"
"Punjab, PK","Chak Malook, PK","48770, PK"
"Punjab, PK","Thanil Kamal, PK","48780, PK"
"Punjab, PK","Chakwal Gpo, PK","48800, PK"
"Punjab, PK","Thanial Fatohi, PK","48802, PK"
"Punjab, PK","Ghazi Abad, PK","48808, PK"
"Punjab, PK","Tatral, PK","48810, PK"
"Punjab, PK","Janga, PK","48812, PK"
"Punjab, PK","Dewalian, PK","48820, PK"
"Punjab, PK","Shahpur Sydan, PK","48824, PK"
"Punjab, PK","Saigal Abad, PK","48830, PK"
"Punjab, PK","Chakral, PK","48840, PK"
"Punjab, PK","Sohawa Village, PK","48850, PK"
"Punjab, PK","Chak Baqar Shah, PK","48860, PK"
"Punjab, PK","Khan Pur (Chakwal), PK","48870, PK"
"Punjab, PK","Dumman, PK","48880, PK"
"Punjab, PK","Pindi Gujran, PK","48890, PK"
"Punjab, PK","Nichindi, PK","48900, PK"
"Punjab, PK","Dharnuggi, PK","48902, PK"
"Punjab, PK","Malhal Mughlan, PK","48910, PK"
"Punjab, PK","Dhoda, PK","48912, PK"
"Punjab, PK","Ghazial, PK","48914, PK"
"Punjab, PK","Chohan, PK","48920, PK"
"Punjab, PK","Chakora, PK","48930, PK"
"Punjab, PK","Jand (Chakwal), PK","48940, PK"
"Punjab, PK","Laugah, PK","48950, PK"
"Punjab, PK","Dhudhi Thall, PK","49000, PK"
"Punjab, PK","Kundwal, PK","49010, PK"
"Punjab, PK","Lilla, PK","49020, PK"
"Punjab, PK","Saroba, PK","49024, PK"
"Punjab, PK","Tobah, PK","49030, PK"
"Punjab, PK","Pind Dadan Khan, PK","49040, PK"
"Punjab, PK","Haran Pur, PK","49050, PK"
"Punjab, PK","Khewra, PK","49060, PK"
"Punjab, PK","Dandot Railway Station, PK","49064, PK"
"Punjab, PK","Sauwal, PK","49070, PK"
"Punjab, PK","Dhariala Jalap, PK","49080, PK"
"Punjab, PK","Gharibwal Cement, PK","49090, PK"
"Punjab, PK","Piananwal, PK","49100, PK"
"Punjab, PK","Chak Jani, PK","49102, PK"
"Punjab, PK","Pindi Saidpur, PK","49110, PK"
"Punjab, PK","Jalal Pur Sharif, PK","49120, PK"
"Punjab, PK","Nagial Chamkown Valley, PK","49122, PK"
"Punjab, PK","Wagh, PK","49130, PK"
"Punjab, PK","Dhaiwal, PK","49200, PK"
"Punjab, PK","Pari Darweza, PK","49210, PK"
"Punjab, PK","Surg Dhan, PK","49220, PK"
"Punjab, PK","Sohawa, PK","49230, PK"
"Punjab, PK","Pail Mirza, PK","49232, PK"
"Punjab, PK","Miani Bala, PK","49234, PK"
"Punjab, PK","Diwani Hazoori, PK","49240, PK"
"Punjab, PK","Bishan Dore, PK","49250, PK"
"Punjab, PK","Bakrala, PK","49260, PK"
"Punjab, PK","Lehri, PK","49270, PK"
"Punjab, PK","Tarkai, PK","49280, PK"
"Punjab, PK","Domeli, PK","49300, PK"
"Punjab, PK","Adrana, PK","49304, PK"
"Punjab, PK","Mughalabad, PK","49306, PK"
"Punjab, PK","Dial, PK","49310, PK"
"Punjab, PK","Baragowah, PK","49320, PK"
"Punjab, PK","Nagial, PK","49324, PK"
"Punjab, PK","Kakrala, PK","49326, PK"
"Punjab, PK","Padhri, PK","49328, PK"
"Punjab, PK","Bangial, PK","49330, PK"
"Punjab, PK","Bhogi Chak, PK","49332, PK"
"Punjab, PK","Jandala, PK","49340, PK"
"Punjab, PK","Bara Gran, PK","49350, PK"
"Punjab, PK","Garh Mahal, PK","49360, PK"
"Punjab, PK","Rohtas, PK","49370, PK"
"Punjab, PK","Khukha, PK","49380, PK"
"Punjab, PK","Sagri, PK","49390, PK"
"Punjab, PK","Dina, PK","49400, PK"
"Punjab, PK","Budhair, PK","49410, PK"
"Punjab, PK","Baral Colony, PK","49420, PK"
"Punjab, PK","Mangla Cantt, PK","49430, PK"
"Punjab, PK","Chak Akka, PK","49460, PK"
"Punjab, PK","Jammu Kashmir Muhajir Colony, PK","49480, PK"
"Punjab, PK","Kala Gujran, PK","49490, PK"
"Punjab, PK","Kala, PK","49500, PK"
"Punjab, PK","Maira (Jhelum), PK","49510, PK"
"Punjab, PK","Pind Rajwal, PK","49512, PK"
"Punjab, PK","Chak Daulat, PK","49520, PK"
"Punjab, PK","Jhelum Gpo, PK","49600, PK"
"Punjab, PK","Tahlian Wala, PK","49608, PK"
"Punjab, PK","Alliance Textile Mills, PK","49610, PK"
"Punjab, PK","Bilal Town, PK","49620, PK"
"Punjab, PK","Sanghoi, PK","49700, PK"
"Punjab, PK","Chotala, PK","49710, PK"
"Punjab, PK","Toor, PK","49712, PK"
"Punjab, PK","Dhoke Bidder, PK","49720, PK"
"Punjab, PK","Chakri, PK","49730, PK"
"Punjab, PK","Khalas Pur, PK","49740, PK"
"Punjab, PK","Jamarghal, PK","49750, PK"
"Punjab, PK","Changa Bangial, PK","49764, PK"
"Punjab, PK","Sarai Alamgir, PK","50000, PK"
"Punjab, PK","Khadriala, PK","50006, PK"
"Punjab, PK","Aurangabad, PK","50010, PK"
"Punjab, PK","Saadat Pur, PK","50020, PK"
"Punjab, PK","Baisa Kalan, PK","50030, PK"
"Punjab, PK","Bulani, PK","50040, PK"
"Punjab, PK","Khohar, PK","50050, PK"
"Punjab, PK","Kharian Cantt, PK","50070, PK"
"Punjab, PK","Kharian City, PK","50090, PK"
"Punjab, PK","Malakpur, PK","50094, PK"
"Punjab, PK","Mohri, PK","50110, PK"
"Punjab, PK","Chak Muhammad, PK","50120, PK"
"Punjab, PK","Dhoria, PK","50130, PK"
"Punjab, PK","Barnali, PK","50140, PK"
"Punjab, PK","Sehna, PK","50150, PK"
"Punjab, PK","Guliana, PK","50160, PK"
"Punjab, PK","Malka, PK","50170, PK"
"Punjab, PK","Randhir Bagrian, PK","50172, PK"
"Punjab, PK","Thutha Rai Bahadar, PK","50180, PK"
"Punjab, PK","Gotriala, PK","50182, PK"
"Punjab, PK","Lala Musa, PK","50200, PK"
"Punjab, PK","Dullan Wala, PK","50210, PK"
"Punjab, PK","National Wood Industries Lala Musa, PK","50220, PK"
"Punjab, PK","Jaurah, PK","50250, PK"
"Punjab, PK","Sikariali, PK","50260, PK"
"Punjab, PK","Karariwala Kalan, PK","50270, PK"
"Punjab, PK","Dinga, PK","50280, PK"
"Punjab, PK","Khori Alam, PK","50286, PK"
"Punjab, PK","Haslanwala, PK","50290, PK"
"Punjab, PK","Pindi Kalu, PK","50306, PK"
"Punjab, PK","Chak Jano Khurd, PK","50310, PK"
"Punjab, PK","B. G. Pur, PK","50330, PK"
"Punjab, PK","Amra Kalan, PK","50340, PK"
"Punjab, PK","Chak No. 1, PK","50350, PK"
"Punjab, PK","Murala, PK","50354, PK"
"Punjab, PK","Chellian Wala, PK","50360, PK"
"Punjab, PK","Rasul, PK","50370, PK"
"Punjab, PK","Rasul G.C.T., PK","50380, PK"
"Punjab, PK","Mong, PK","50390, PK"
"Punjab, PK","Mandi Bahauddin Gpo, PK","50400, PK"
"Punjab, PK","Mangat, PK","50410, PK"
"Punjab, PK","Phalia, PK","50430, PK"
"Punjab, PK","Helan, PK","50440, PK"
"Punjab, PK","Dhrikan Kalan, PK","50450, PK"
"Punjab, PK","Sohawa Bulani, PK","50470, PK"
"Punjab, PK","Kathiala Sheikhan, PK","50480, PK"
"Punjab, PK","Bosal, PK","50486, PK"
"Punjab, PK","Mianwal, PK","50490, PK"
"Punjab, PK","Gojra, PK","50500, PK"
"Punjab, PK","Rukkan, PK","50510, PK"
"Punjab, PK","Matsonabad, PK","50520, PK"
"Punjab, PK","Malakwal, PK","50530, PK"
"Punjab, PK","Mona Remount Depot, PK","50560, PK"
"Punjab, PK","Miana Gondal, PK","50580, PK"
"Punjab, PK","Devna Mandi (Basco), PK","50600, PK"
"Punjab, PK","Khokhar Gharbi, PK","50610, PK"
"Punjab, PK","Kunjah, PK","50620, PK"
"Punjab, PK","Mand, PK","50622, PK"
"Punjab, PK","Langay, PK","50624, PK"
"Punjab, PK","Mangowal, PK","50640, PK"
"Punjab, PK","Jokalian, PK","50660, PK"
"Punjab, PK","Shadiwal, PK","50680, PK"
"Punjab, PK","Gujrat Gpo, PK","50700, PK"
"Punjab, PK","Adowal, PK","50730, PK"
"Punjab, PK","Sabowal, PK","50750, PK"
"Punjab, PK","Moinuddin Pur, PK","50760, PK"
"Punjab, PK","Sheikh Pur, PK","50764, PK"
"Punjab, PK","Alipur, PK","50766, PK"
"Punjab, PK","Jalal Pur Jattan, PK","50780, PK"
"Punjab, PK","Chopala, PK","50790, PK"
"Punjab, PK","Lakhan Wal, PK","50800, PK"
"Punjab, PK","Tanda, PK","50810, PK"
"Punjab, PK","Surakhpur, PK","50812, PK"
"Punjab, PK","Bhagowal Kalan, PK","50820, PK"
"Punjab, PK","Karianwala, PK","50830, PK"
"Punjab, PK","Chak Kamala, PK","50840, PK"
"Punjab, PK","Awan Sharif, PK","50870, PK"
"Punjab, PK","Kawankh, PK","50880, PK"
"Punjab, PK","Hajiwala, PK","50890, PK"
"Punjab, PK","Dhodha Sharif, PK","50892, PK"
"Punjab, PK","Fateh Pur, PK","50900, PK"
"Punjab, PK","Daulat Nagar, PK","50910, PK"
"Punjab, PK","Makiana, PK","50920, PK"
"Punjab, PK","Nindowal, PK","50922, PK"
"Punjab, PK","Buzurang Wal, PK","50930, PK"
"Punjab, PK","Sabour, PK","50932, PK"
"Punjab, PK","Nagrian, PK","50934, PK"
"Punjab, PK","Bhakhre Wali, PK","50940, PK"
"Punjab, PK","Pero Shah, PK","50950, PK"
"Punjab, PK","Bhota, PK","50960, PK"
"Punjab, PK","Bhaddar, PK","50964, PK"
"Punjab, PK","Burch Basuha, PK","50970, PK"
"Punjab, PK","Sidh, PK","50972, PK"
"Punjab, PK","Kakrali, PK","50980, PK"
"Punjab, PK","Samrala, PK","50982, PK"
"Punjab, PK","Kotla, PK","50990, PK"
"Punjab, PK","Sariya, PK","50994, PK"
"Punjab, PK","Daska, PK","51010, PK"
"Punjab, PK","Jamki, PK","51020, PK"
"Punjab, PK","Bhopal Wala, PK","51030, PK"
"Punjab, PK","Verowala, PK","51032, PK"
"Punjab, PK","Ghunike, PK","51040, PK"
"Punjab, PK","Ugoke, PK","51050, PK"
"Punjab, PK","Sahowala, PK","51060, PK"
"Punjab, PK","Sambrial, PK","51070, PK"
"Punjab, PK","Begowala, PK","51080, PK"
"Punjab, PK","Ghartal, PK","51090, PK"
"Punjab, PK","Jatheki, PK","51100, PK"
"Punjab, PK","Mandir Syedan, PK","51120, PK"
"Punjab, PK","Kullowal, PK","51130, PK"
"Punjab, PK","Mundeke Goraya, PK","51140, PK"
"Punjab, PK","Kapurowali, PK","51150, PK"
"Punjab, PK","Marala, PK","51200, PK"
"Punjab, PK","Kotli Loharan East, PK","51210, PK"
"Punjab, PK","Kotli Loharan West, PK","51220, PK"
"Punjab, PK","Maraki Wal, PK","51230, PK"
"Punjab, PK","Kharota Syedan, PK","51240, PK"
"Punjab, PK","Bhirth, PK","51250, PK"
"Punjab, PK","Bhoth, PK","51260, PK"
"Punjab, PK","Chaprar, PK","51270, PK"
"Punjab, PK","Saidpur, PK","51274, PK"
"Punjab, PK","Phuklian, PK","51280, PK"
"Punjab, PK","Sialkot Cantt., PK","51300, PK"
"Punjab, PK","Sialkot Gpo, PK","51310, PK"
"Punjab, PK","Dallowali, PK","51320, PK"
"Punjab, PK","Kotli Behram, PK","51330, PK"
"Punjab, PK","Small Industries Estate, PK","51340, PK"
"Punjab, PK","Fateh Garh, PK","51350, PK"
"Punjab, PK","Gohadapur, PK","51360, PK"
"Punjab, PK","Gondal, PK","51370, PK"
"Punjab, PK","Malkey Klan, PK","51380, PK"
"Punjab, PK","Lengriali, PK","51400, PK"
"Punjab, PK","Bajra Garhi, PK","51402, PK"
"Punjab, PK","Badiana, PK","51410, PK"
"Punjab, PK","Chawinda, PK","51420, PK"
"Punjab, PK","Mehrajke, PK","51430, PK"
"Punjab, PK","Chobara, PK","51450, PK"
"Punjab, PK","Khan Pur Syedan, PK","51460, PK"
"Punjab, PK","Pasrur, PK","51480, PK"
"Punjab, PK","Ban Gajwa, PK","51490, PK"
"Punjab, PK","Satrah, PK","51500, PK"
"Punjab, PK","Wadala Sandhuan, PK","51510, PK"
"Punjab, PK","Nowshera Kakezian, PK","51520, PK"
"Punjab, PK","Kalas Wala, PK","51530, PK"
"Punjab, PK","Qila Ahmed Abad (Qila Sobha Singh), PK","51540, PK"
"Punjab, PK","Talwandi Bhindran, PK","51570, PK"
"Punjab, PK","Nonar, PK","51580, PK"
"Punjab, PK","Narowal Gpo, PK","51600, PK"
"Punjab, PK","Sankhatra, PK","51650, PK"
"Punjab, PK","Dhamthal, PK","51660, PK"
"Punjab, PK","Zafar Wal, PK","51670, PK"
"Punjab, PK","Badomali, PK","51700, PK"
"Punjab, PK","Jassar, PK","51750, PK"
"Punjab, PK","Kanjrur, PK","51760, PK"
"Punjab, PK","Nurkot, PK","51770, PK"
"Punjab, PK","Baramanga, PK","51780, PK"
"Punjab, PK","Shakar Garh, PK","51800, PK"
"Punjab, PK","Lessar Kalan, PK","51804, PK"
"Punjab, PK","Naina Kot, PK","51820, PK"
"Punjab, PK","Ikhlaspur, PK","51830, PK"
"Punjab, PK","Sukho Chak, PK","51840, PK"
"Punjab, PK","Wazirabad, PK","52000, PK"
"Punjab, PK","Dhonkal, PK","52010, PK"
"Punjab, PK","Nizam Abad, PK","52020, PK"
"Punjab, PK","Sohdra, PK","52030, PK"
"Punjab, PK","Khanki, PK","52050, PK"
"Punjab, PK","Ahmad Nagar, PK","52070, PK"
"Punjab, PK","Mohlanke, PK","52072, PK"
"Punjab, PK","Kalaskey, PK","52074, PK"
"Punjab, PK","Ali Pur Chatha, PK","52080, PK"
"Punjab, PK","Rasul Nagar, PK","52090, PK"
"Punjab, PK","Qasirabad Colony, PK","52100, PK"
"Punjab, PK","Wanike Tarar, PK","52104, PK"
"Punjab, PK","Hafiz Abad, PK","52110, PK"
"Punjab, PK","Jhallan, PK","52120, PK"
"Punjab, PK","Kohlowala, PK","52130, PK"
"Punjab, PK","Wapda Town, PK","52132, PK"
"Punjab, PK","Kassoki, PK","52140, PK"
"Punjab, PK","Kaleke, PK","52150, PK"
"Punjab, PK","Sukhe Ke Mandi, PK","52160, PK"
"Punjab, PK","Jalalpur Nau, PK","52170, PK"
"Punjab, PK","Pindi Bhatian, PK","52180, PK"
"Punjab, PK","Ghakhar, PK","52200, PK"
"Punjab, PK","Mitran Wali, PK","52220, PK"
"Punjab, PK","Gujranwala Cantt, PK","52230, PK"
"Punjab, PK","Zamama, PK","52240, PK"
"Punjab, PK","Gujranwala Gpo, PK","52250, PK"
"Punjab, PK","Wahdat Colony, PK","52254, PK"
"Punjab, PK","Gujranwala Secondary Board, PK","52256, PK"
"Punjab, PK","Gujranwala Peoples Colony, PK","52260, PK"
"Punjab, PK","Talwandi Rahwali, PK","52280, PK"
"Punjab, PK","Gujranwala Climax Abad, PK","52290, PK"
"Punjab, PK","Gujranwala Anwar Industries, PK","52300, PK"
"Punjab, PK","Jalil Town, PK","52302, PK"
"Punjab, PK","Gondalan Wala, PK","52310, PK"
"Punjab, PK","Ladhe Wala Waraich, PK","52320, PK"
"Punjab, PK","Papnakha, PK","52326, PK"
"Punjab, PK","Qila Didar Singh, PK","52330, PK"
"Punjab, PK","Nithrike, PK","52334, PK"
"Punjab, PK","Botala Sardar Jhanda Singh, PK","52340, PK"
"Punjab, PK","Soharan Chatha, PK","52342, PK"
"Punjab, PK","Budha Goraya, PK","52356, PK"
"Punjab, PK","Qila Mian Singh, PK","52360, PK"
"Punjab, PK","Sadhoke, PK","52368, PK"
"Punjab, PK","Naushera Virkan, PK","52370, PK"
"Punjab, PK","Tatley Aali, PK","52380, PK"
"Punjab, PK","Muhaliwala, PK","52390, PK"
"Punjab, PK","Aroop, PK","52400, PK"
"Punjab, PK","Vaniawala, PK","52404, PK"
"Punjab, PK","Nizam Pur Gujranwala, PK","52410, PK"
"Punjab, PK","Emin Abad More, PK","52450, PK"
"Punjab, PK","Emin Abad, PK","52460, PK"
"Punjab, PK","Wando, PK","52464, PK"
"Punjab, PK","Kamo Ke, PK","52470, PK"
"Punjab, PK","Lahore Kahna Nau, PK","53100, PK"
"Punjab, PK","Barki, PK","53200, PK"
"Punjab, PK","Lahore Bata Pur, PK","53400, PK"
"Punjab, PK","Jallo, PK","53500, PK"
"Punjab, PK","Wagha Lahore, PK","53600, PK"
"Punjab, PK","Niaz Beg Thokar, PK","53700, PK"
"Punjab, PK","Lahore E.M.E Society P.O, PK","53710, PK"
"Punjab, PK","Lahore Bahria Town, PK","53720, PK"
"Punjab, PK","Chuhang, PK","53800, PK"
"Punjab, PK","Lahore Gpo, PK","54000, PK"
"Punjab, PK","Naulakha, PK","54010, PK"
"Punjab, PK","Lahore Alflah, PK","54020, PK"
"Punjab, PK","Lahore Aitcheson College, PK","54030, PK"
"Punjab, PK","Shah Alam Market, PK","54100, PK"
"Punjab, PK","Shahi Mohallah, PK","54110, PK"
"Punjab, PK","Timber Market, PK","54120, PK"
"Punjab, PK","Lahore Multan Road Post Office, PK","54500, PK"
"Punjab, PK","Rewaz Garden, PK","54510, PK"
"Punjab, PK","Lahore Pt & T Audit, PK","54550, PK"
"Punjab, PK","Lahore Pmg Punjab Post Office, PK","54560, PK"
"Punjab, PK","Lahore Allama Iqbal Town, PK","54570, PK"
"Punjab, PK","Sabzazar, PK","54572, PK"
"Punjab, PK","Lahore New University Campus, PK","54590, PK"
"Punjab, PK","Lahore Ferozepur Road, PK","54600, PK"
"Punjab, PK","Lahore Shadman Women Model P.O, PK","54610, PK"
"Punjab, PK","Lahore Secondary Board, PK","54650, PK"
"Punjab, PK","Lahore Gulberg Colony, PK","54660, PK"
"Punjab, PK","Lahore Model Town, PK","54700, PK"
"Punjab, PK","Lahore Ismail Nagar, PK","54760, PK"
"Punjab, PK","Lahore Nishtar Town, PK","54762, PK"
"Punjab, PK","Lahore Township Sector A-1, PK","54770, PK"
"Punjab, PK","Lahore Awan Coloney, PK","54780, PK"
"Punjab, PK","Lahore Johar Town, PK","54782, PK"
"Punjab, PK","River View, Lahore, PK","54784, PK"
"Punjab, PK","Mansoora, PK","54790, PK"
"Punjab, PK","Lahore Defence Housing Soicety, PK","54792, PK"
"Punjab, PK","Lahore C.M.A. Cantt., PK","54800, PK"
"Punjab, PK","Lahore Cantt. Gpo, PK","54810, PK"
"Punjab, PK","Moghalpura, PK","54840, PK"
"Punjab, PK","Lahore Harbans Pura, PK","54850, PK"
"Punjab, PK","Lahore Tajpura, PK","54870, PK"
"Punjab, PK","Lahore Punjab Governor House, PK","54880, PK"
"Punjab, PK","Lahore Engineering University, PK","54890, PK"
"Punjab, PK","Chah Miran, PK","54900, PK"
"Punjab, PK","Lahore Baghbanpura, PK","54920, PK"
"Punjab, PK","Shahdara Bagh, PK","54950, PK"
"Punjab, PK","Kanganpur, PK","55000, PK"
"Punjab, PK","Usman Wala, PK","55010, PK"
"Punjab, PK","Talwandi, PK","55020, PK"
"Punjab, PK","Khudian, PK","55030, PK"
"Punjab, PK","Kasur Gpo, PK","55050, PK"
"Punjab, PK","Naseerabad Taxtile Mills, PK","55060, PK"
"Punjab, PK","Ganda Singh Wala, PK","55100, PK"
"Punjab, PK","Mustafabad Kasur, PK","55110, PK"
"Punjab, PK","Raja Jang, PK","55140, PK"
"Punjab, PK","Bhambha, PK","55142, PK"
"Punjab, PK","Raiwind, PK","55150, PK"
"Punjab, PK","Kangra, Kasur, PK","55154, PK"
"Punjab, PK","Lahore Kohinoor Energy, PK","55160, PK"
"Punjab, PK","Robby Taxtile Mill Kasur, PK","55170, PK"
"Punjab, PK","Kot Radha Kishan, PK","55180, PK"
"Punjab, PK","Clarkabad, PK","55190, PK"
"Punjab, PK","Chhanga Manga, PK","55200, PK"
"Punjab, PK","Balloki, PK","55210, PK"
"Punjab, PK","Chunian, PK","55220, PK"
"Punjab, PK","Ellahabad, PK","55230, PK"
"Punjab, PK","Jamber Kalan, PK","55250, PK"
"Punjab, PK","Bhai Pheru, PK","55260, PK"
"Punjab, PK","Manga Mandi, PK","55270, PK"
"Punjab, PK","Pattoki, PK","55300, PK"
"Punjab, PK","Wan Radha Ram, PK","55360, PK"
"Punjab, PK","Mandi Ahmed Abad, PK","56000, PK"
"Punjab, PK","Basir Pur, PK","56010, PK"
"Punjab, PK","Haveli Lakkha, PK","56020, PK"
"Punjab, PK","Sulemanki Head Works, PK","56030, PK"
"Punjab, PK","Akhtar Abad, PK","56100, PK"
"Punjab, PK","Renala Khurd, PK","56130, PK"
"Punjab, PK","Sher Garh, PK","56140, PK"
"Punjab, PK","Anwar Shaeed Colony Renala Khurd, PK","56150, PK"
"Punjab, PK","Hujra, PK","56170, PK"
"Punjab, PK","Depalpur, PK","56180, PK"
"Punjab, PK","Gogera, PK","56200, PK"
"Punjab, PK","Jaboka, PK","56290, PK"
"Punjab, PK","Okara Gpo, PK","56300, PK"
"Punjab, PK","Chak 53/2-L, PK","56316, PK"
"Punjab, PK","Okara 49/3 R, PK","56320, PK"
"Punjab, PK","Chak No.49/3r, PK","56320, PK"
"Punjab, PK","Chak No.36/2l, PK","56330, PK"
"Punjab, PK","Military Farms Okara, PK","56350, PK"
"Punjab, PK","Okara Cantonment, PK","56400, PK"
"Punjab, PK","Okara Ammunition Depot, PK","56410, PK"
"Punjab, PK","Sahiwal Gpo, PK","57000, PK"
"Punjab, PK","Chak 90/9-L, PK","57030, PK"
"Punjab, PK","Sahiwal Government College, PK","57040, PK"
"Punjab, PK","Farid Town Sahiwal, PK","57050, PK"
"Punjab, PK","Chak 85/6 R (Kot Khadim Ali Shah), PK","57070, PK"
"Punjab, PK","Noor Shah, PK","57080, PK"
"Punjab, PK","Chak 91/6-R, PK","57100, PK"
"Punjab, PK","Malka Hans, PK","57110, PK"
"Punjab, PK","Chak 120/9-L, PK","57130, PK"
"Punjab, PK","Chak Shafi, PK","57150, PK"
"Punjab, PK","Harappa Railway Station, PK","57160, PK"
"Punjab, PK","Harappa City, PK","57170, PK"
"Punjab, PK","Chak-5/11l, PK","57174, PK"
"Punjab, PK","Chak 145/9-L, PK","57180, PK"
"Punjab, PK","Chichawatni, PK","57200, PK"
"Punjab, PK","Ghazi Abad, PK","57210, PK"
"Punjab, PK","Sheikh Fazal, PK","57214, PK"
"Punjab, PK","Chak 168/9-L, PK","57230, PK"
"Punjab, PK","Kassowal, PK","57300, PK"
"Punjab, PK","Chak 120/13-Al, PK","57330, PK"
"Punjab, PK","Chak 119/13-Al, PK","57340, PK"
"Punjab, PK","Iqbal Nagar, PK","57350, PK"
"Punjab, PK","Ninty (90) More, Sahiwal, PK","57360, PK"
"Punjab, PK","Pak Pattan Sharif, PK","57400, PK"
"Punjab, PK","Chak No.73/5-L (Moghal), PK","57430, PK"
"Punjab, PK","Chak Bedi, PK","57440, PK"
"Punjab, PK","Arif Wala, PK","57450, PK"
"Punjab, PK","Adda Gambeer, PK","57460, PK"
"Punjab, PK","Al-Jamia, PK","57470, PK"
"Punjab, PK","Qabula, PK","57480, PK"
"Punjab, PK","Chal No.127/Eb, PK","57490, PK"
"Punjab, PK","Mian Channu, PK","58000, PK"
"Punjab, PK","Mian Channu Railway Station, PK","58030, PK"
"Punjab, PK","Talamba, PK","58080, PK"
"Punjab, PK","Kacha Khuh, PK","58100, PK"
"Punjab, PK","Hanuman Garh, PK","58110, PK"
"Punjab, PK","Khanewal Ammunition Depot, PK","58120, PK"
"Punjab, PK","Khanewal Gpo, PK","58150, PK"
"Punjab, PK","Peerowal, PK","58152, PK"
"Punjab, PK","Khanewal Railway Station, PK","58160, PK"
"Punjab, PK","Makhdoompur Phoharan, PK","58170, PK"
"Punjab, PK","Abdul Hakim, PK","58180, PK"
"Punjab, PK","Sarai Sidhu, PK","58190, PK"
"Punjab, PK","Jahania, PK","58200, PK"
"Punjab, PK","Chak 138/10 R, PK","58202, PK"
"Punjab, PK","Thatha Sadiqabad, PK","58210, PK"
"Punjab, PK","Chak 136/10-R, PK","58220, PK"
"Punjab, PK","Kot Allah Singh, PK","58230, PK"
"Punjab, PK","Punjab Small Industry, PK","58240, PK"
"Punjab, PK","Kabir Wala, PK","58250, PK"
"Punjab, PK","Mahni Sial, PK","58256, PK"
"Punjab, PK","Punja Kassi, PK","58258, PK"
"Punjab, PK","Kohiwala, PK","58260, PK"
"Punjab, PK","Kukkar Hatta, PK","58270, PK"
"Punjab, PK","Kadirpur Rawan, PK","59000, PK"
"Punjab, PK","Tatepur, PK","59020, PK"
"Punjab, PK","Piran Ghaib, PK","59030, PK"
"Punjab, PK","Javed Nagar, PK","59050, PK"
"Punjab, PK","Multan Fertilizer Project, PK","59060, PK"
"Punjab, PK","Suraj Miani, PK","59070, PK"
"Punjab, PK","Makhdum Rashid, PK","59100, PK"
"Punjab, PK","Kutabpur, PK","59110, PK"
"Punjab, PK","Dunya Pur, PK","59120, PK"
"Punjab, PK","Lar, PK","59130, PK"
"Punjab, PK","Basti Malook, PK","59150, PK"
"Punjab, PK","Ismailabad, PK","59200, PK"
"Punjab, PK","Sikandar Abad, PK","59210, PK"
"Punjab, PK","Shujabad, PK","59220, PK"
"Punjab, PK","Matotli, PK","59240, PK"
"Punjab, PK","Jalalpur Pirwala, PK","59250, PK"
"Punjab, PK","Khan Bela, PK","59260, PK"
"Punjab, PK","Bahadar Pur, PK","59300, PK"
"Punjab, PK","Kotali Nijabat, PK","59310, PK"
"Punjab, PK","Lodhran, PK","59320, PK"
"Punjab, PK","Dhanot, PK","59330, PK"
"Punjab, PK","Kahror Pakka, PK","59340, PK"
"Punjab, PK","Multan Gpo, PK","60000, PK"
"Punjab, PK","Galay Wala, PK","60010, PK"
"Punjab, PK","Chak-379/Wb, PK","60030, PK"
"Punjab, PK","Multan Army Aviation Base, PK","60050, PK"
"Punjab, PK","Budhla Sant, PK","60060, PK"
"Punjab, PK","Mumtaz Abad, PK","60600, PK"
"Punjab, PK","New Multan, PK","60650, PK"
"Punjab, PK","Gulgasht Colony, PK","60700, PK"
"Punjab, PK","Secondary Board, PK","60750, PK"
"Punjab, PK","Bahauddin Zakaria University, PK","60800, PK"
"Punjab, PK","Industrial Estate, PK","60900, PK"
"Punjab, PK","Gaggo, PK","61000, PK"
"Punjab, PK","Burewala, PK","61010, PK"
"Punjab, PK","Burewala Katchehry, PK","61040, PK"
"Punjab, PK","Dawood Abad, PK","61050, PK"
"Punjab, PK","Machhian Wala, PK","61070, PK"
"Punjab, PK","Vehari Gpo, PK","61100, PK"
"Punjab, PK","Luddan, PK","61110, PK"
"Punjab, PK","Vehari Peoples Colony, PK","61120, PK"
"Punjab, PK","Garha More, PK","61150, PK"
"Punjab, PK","Mitru, PK","61160, PK"
"Punjab, PK","Tiba Sultanpur, PK","61170, PK"
"Punjab, PK","Chowk Methla, PK","61172, PK"
"Punjab, PK","Dokota, PK","61180, PK"
"Punjab, PK","Mailsi, PK","61200, PK"
"Punjab, PK","Dilawar Farm Sargana, PK","61202, PK"
"Punjab, PK","Mailsi Colony, PK","61210, PK"
"Punjab, PK","Karampur, PK","61220, PK"
"Punjab, PK","Jalla Jim, PK","61230, PK"
"Punjab, PK","Sardar Pur Jhandeer, PK","61240, PK"
"Punjab, PK","Fort Morot, PK","62000, PK"
"Punjab, PK","Chak 117/M, PK","62004, PK"
"Punjab, PK","Fort Abbas, PK","62020, PK"
"Punjab, PK","Chak 297/Hr, PK","62024, PK"
"Punjab, PK","Chak 227/R-9, PK","62030, PK"
"Punjab, PK","Khichi Wala, PK","62040, PK"
"Punjab, PK","Faqir Wali, PK","62050, PK"
"Punjab, PK","Chak 132/6-R, PK","62070, PK"
"Punjab, PK","Chak 69/4-R, PK","62080, PK"
"Punjab, PK","Haroon Abad, PK","62100, PK"
"Punjab, PK","Dunga Bunga, PK","62110, PK"
"Punjab, PK","Ram Pura, PK","62120, PK"
"Punjab, PK","Mandi Sadiq Ganj, PK","62210, PK"
"Punjab, PK","Minchin Abad, PK","62230, PK"
"Punjab, PK","Sadiqia, PK","62250, PK"
"Punjab, PK","Bahawal Nagar Gpo, PK","62300, PK"
"Punjab, PK","Takht Mahal, PK","62310, PK"
"Punjab, PK","Madarisa, PK","62320, PK"
"Punjab, PK","Chishtian, PK","62350, PK"
"Punjab, PK","Dahran Wala, PK","62380, PK"
"Punjab, PK","Bakhshan Khan, PK","62400, PK"
"Punjab, PK","Hasil Pur Mandi, PK","63000, PK"
"Punjab, PK","Chhonawala, PK","63020, PK"
"Punjab, PK","Pallah, PK","63030, PK"
"Punjab, PK","Qaim Pur, PK","63040, PK"
"Punjab, PK","Jamalpur Edso, PK","63050, PK"
"Punjab, PK","Jamalpur, PK","63050, PK"
"Punjab, PK","Khairpur Tamiwali, PK","63060, PK"
"Punjab, PK","Dera Bakha, PK","63070, PK"
"Punjab, PK","Bahawalpur Cantt, PK","63080, PK"
"Punjab, PK","Inaiti, PK","63090, PK"
"Punjab, PK","Bahawalpur Gpo, PK","63100, PK"
"Punjab, PK","Bahawalpur Intermediate Secondry Board, PK","63170, PK"
"Punjab, PK","Sadiq Public School Bahawalpur, PK","63180, PK"
"Punjab, PK","Yazman, PK","63210, PK"
"Punjab, PK","Chak 117/D.B, PK","63230, PK"
"Punjab, PK","Head Rajkan, PK","63236, PK"
"Punjab, PK","Samasatta, PK","63250, PK"
"Punjab, PK","Khanqah Mubarik, PK","63270, PK"
"Punjab, PK","Ashraf Sugar Mills Bahawalpur, PK","63274, PK"
"Punjab, PK","Mubarikpur, PK","63290, PK"
"Punjab, PK","Noorpur Nauranga, PK","63300, PK"
"Punjab, PK","Hatheji, PK","63320, PK"
"Punjab, PK","Ahmad Pur East, PK","63350, PK"
"Punjab, PK","Sahiwala, PK","63354, PK"
"Punjab, PK","Sadiq Garh Palace, PK","63360, PK"
"Punjab, PK","Kotla Musa Khan, PK","63400, PK"
"Punjab, PK","Uch Sharif, PK","63410, PK"
"Punjab, PK","Panjnad, PK","63420, PK"
"Punjab, PK","Chani Goth, PK","63450, PK"
"Punjab, PK","Liaqat Pur, PK","64000, PK"
"Punjab, PK","Allah Abad, PK","64020, PK"
"Punjab, PK","Trinda Muhammad Panah, PK","64030, PK"
"Punjab, PK","Khan Bela, PK","64040, PK"
"Punjab, PK","Feroza, PK","64070, PK"
"Punjab, PK","Hysons Sugar Mills Jetha Bhutta, PK","64080, PK"
"Punjab, PK","Khan Pur, PK","64100, PK"
"Punjab, PK","Sohja, PK","64120, PK"
"Punjab, PK","Zahir Peer, PK","64130, PK"
"Punjab, PK","Chachran Sharif, PK","64140, PK"
"Punjab, PK","Bagho Bahr, PK","64160, PK"
"Punjab, PK","Kot Somaba, PK","64170, PK"
"Punjab, PK","Tarinda R.S., PK","64180, PK"
"Punjab, PK","Rahimyar Khan Gpo, PK","64200, PK"
"Punjab, PK","Chak 102/P, PK","64220, PK"
"Punjab, PK","Pull Sunny, PK","64230, PK"
"Punjab, PK","Wapda Scarp Colony, PK","64300, PK"
"Punjab, PK","Iqbalabad, PK","64310, PK"
"Punjab, PK","Mian Wali Qureshian, PK","64320, PK"
"Punjab, PK","Sadik Abad, PK","64350, PK"
"Punjab, PK","Jamal Din Wali, PK","64370, PK"
"Punjab, PK","Ahmadpur Lama, PK","64380, PK"
"Punjab, PK","Bhong, PK","64384, PK"
"Punjab, PK","Bangla Manthar, PK","64410, PK"
"Punjab, PK","Machi Goth, PK","64450, PK"
"Punjab, PK","Sanjar Pur, PK","64460, PK"
"Punjab, PK","Kot Subzal, PK","64470, PK"
"Punjab, PK","Jandraka, PK","65280, PK"
"Sindh, PK","Dharki, PK","65010, PK"
"Sindh, PK","Fertilizer Factory Dharki, PK","65020, PK"
"Sindh, PK","Ubauro, PK","65030, PK"
"Sindh, PK","Khambara, PK","65034, PK"
"Sindh, PK","Mirpur Mathelo, PK","65040, PK"
"Sindh, PK","Pak Saudi Fertilizar Mirpur Mathelo, PK","65050, PK"
"Sindh, PK","Dad Laghari, PK","65052, PK"
"Sindh, PK","Jarwar, PK","65060, PK"
"Sindh, PK","Khanpur Mahar, PK","65070, PK"
"Sindh, PK","Adil Pur, PK","65080, PK"
"Sindh, PK","Sarhad, PK","65100, PK"
"Sindh, PK","Ghotki, PK","65110, PK"
"Sindh, PK","Pano Akil, PK","65120, PK"
"Sindh, PK","Pannu Akil Cantt., PK","65130, PK"
"Sindh, PK","Haleji Sharif, PK","65140, PK"
"Sindh, PK","Saleh Pat, PK","65150, PK"
"Sindh, PK","Thrachani, PK","65168, PK"
"Sindh, PK","Rohri, PK","65170, PK"
"Sindh, PK","Rohri Cement Works, PK","65180, PK"
"Sindh, PK","Sukkur Gpo, PK","65200, PK"
"Sindh, PK","Sukkur Board Of Secondary Education, PK","65210, PK"
"Sindh, PK","Berrari, PK","65220, PK"
"Sindh, PK","Babarloi, PK","65270, PK"
"Sindh, PK","Kandira, PK","65300, PK"
"Sindh, PK","Paf Airport, PK","65310, PK"
"Sindh, PK","Arain Road, PK","65320, PK"
"Sindh, PK","Bagarji, PK","65330, PK"
"Sindh, PK","Piryalo, PK","66000, PK"
"Sindh, PK","Khair Pur Gpo, PK","66020, PK"
"Sindh, PK","Pri Jo Goth, PK","66030, PK"
"Sindh, PK","Ahmed Pur, PK","66040, PK"
"Sindh, PK","Kot Digi, PK","66060, PK"
"Sindh, PK","Chundiko, PK","66062, PK"
"Sindh, PK","Gambat, PK","66070, PK"
"Sindh, PK","Agra, PK","66074, PK"
"Sindh, PK","F.S.Mills Gambat, PK","66080, PK"
"Sindh, PK","Khurra, PK","66090, PK"
"Sindh, PK","Rani Pur, PK","66100, PK"
"Sindh, PK","Consolidated Sugar Mills Rani Pur, PK","66104, PK"
"Sindh, PK","Sobho Dera, PK","66110, PK"
"Sindh, PK","Kumb, PK","66120, PK"
"Sindh, PK","Buzdar, PK","66130, PK"
"Sindh, PK","Mirwah, PK","66150, PK"
"Sindh, PK","Thehri, PK","66160, PK"
"Sindh, PK","Sorah, PK","66170, PK"
"Sindh, PK","Hingoraja, PK","66190, PK"
"Sindh, PK","Setharja, PK","66200, PK"
"Sindh, PK","Chang, PK","66300, PK"
"Sindh, PK","Mahrabpur, PK","67000, PK"
"Sindh, PK","Kotri Kabir, PK","67010, PK"
"Sindh, PK","Tando Mir Ali, PK","67020, PK"
"Sindh, PK","Khan Wahan, PK","67030, PK"
"Sindh, PK","Tunia Baga Shah, PK","67034, PK"
"Sindh, PK","Aqil Shah, PK","67040, PK"
"Sindh, PK","Mohabat Dero, PK","67060, PK"
"Sindh, PK","Darbelo, PK","67070, PK"
"Sindh, PK","Tharu Shah, PK","67080, PK"
"Sindh, PK","Bhorti, PK","67084, PK"
"Sindh, PK","Mithiani, PK","67100, PK"
"Sindh, PK","New Jatoi, PK","67110, PK"
"Sindh, PK","Sadoja, PK","67120, PK"
"Sindh, PK","Moro, PK","67130, PK"
"Sindh, PK","Mubbarik Ali Buriro, PK","67150, PK"
"Sindh, PK","Qamarabad, PK","67160, PK"
"Sindh, PK","Noor Jhanian, PK","67180, PK"
"Sindh, PK","Daulatpur, PK","67190, PK"
"Sindh, PK","Qazi Ahmed, PK","67200, PK"
"Sindh, PK","Shadi Khan Chandio, PK","67204, PK"
"Sindh, PK","Sakrand, PK","67210, PK"
"Sindh, PK","Goth Chaudhary Shah Nawaz, PK","67220, PK"
"Sindh, PK","Agricultur Institute Nawabshah, PK","67230, PK"
"Sindh, PK","Lakha Road, PK","67300, PK"
"Sindh, PK","Bhiria Road, PK","67310, PK"
"Sindh, PK","Lalbani, PK","67314, PK"
"Sindh, PK","Bhiria City, PK","67320, PK"
"Sindh, PK","Allah Ditto Bhambhro, PK","67322, PK"
"Sindh, PK","Padidan, PK","67330, PK"
"Sindh, PK","Padidan Town, PK","67340, PK"
"Sindh, PK","Kalhora, PK","67350, PK"
"Sindh, PK","Ghargochho, PK","67360, PK"
"Sindh, PK","Naushero Feroz, PK","67370, PK"
"Sindh, PK","Phul, PK","67380, PK"
"Sindh, PK","Darya Khan Mari, PK","67390, PK"
"Sindh, PK","Bandhi, PK","67400, PK"
"Sindh, PK","Daur, PK","67410, PK"
"Sindh, PK","Haberi, PK","67420, PK"
"Sindh, PK","Nusrat 60 Mile Mori, PK","67430, PK"
"Sindh, PK","Nawabshah Gpo, PK","67450, PK"
"Sindh, PK","Buchari, PK","67470, PK"
"Sindh, PK","Mehran University Of Engineering, PK","67480, PK"
"Sindh, PK","Jam Sahib, PK","67500, PK"
"Sindh, PK","Gupchani, PK","67510, PK"
"Sindh, PK","Sarhari, PK","68010, PK"
"Sindh, PK","Lundo, PK","68020, PK"
"Sindh, PK","Shahdadpur, PK","68030, PK"
"Sindh, PK","Police Training School Shahdadpur, PK","68040, PK"
"Sindh, PK","Tando Adam, PK","68050, PK"
"Sindh, PK","Berani, PK","68060, PK"
"Sindh, PK","Jam Nawaz Ali, PK","68070, PK"
"Sindh, PK","Nauabad, PK","68080, PK"
"Sindh, PK","Sanghar Gpo, PK","68100, PK"
"Sindh, PK","Gujri, PK","68120, PK"
"Sindh, PK","Chak 41, PK","68122, PK"
"Sindh, PK","Tando Mitha Khan, PK","68140, PK"
"Sindh, PK","Shahpur Chakar, PK","68200, PK"
"Sindh, PK","Khadro, PK","68210, PK"
"Sindh, PK","Deh-22 Jamro, PK","68214, PK"
"Sindh, PK","Sinjhoro, PK","68220, PK"
"Sindh, PK","Jhol, PK","68230, PK"
"Sindh, PK","Junejo Model Form Farm, PK","68300, PK"
"Sindh, PK","Kandiari, PK","68310, PK"
"Sindh, PK","Khipro, PK","68330, PK"
"Sindh, PK","Tando Waso, PK","68340, PK"
"Sindh, PK","Hathungo, PK","68350, PK"
"Sindh, PK","Mirpur Khas Gpo, PK","69000, PK"
"Sindh, PK","Muhammad Medical College, PK","69012, PK"
"Sindh, PK","Satelitte Town Mirpur Khas, PK","69020, PK"
"Sindh, PK","Shadi Pal, PK","69050, PK"
"Sindh, PK","Pitharo, PK","69060, PK"
"Sindh, PK","Dhoro Naro, PK","69070, PK"
"Sindh, PK","Muhammad Salam Palli, PK","69080, PK"
"Sindh, PK","Chhor, PK","69090, PK"
"Sindh, PK","New Chhor, PK","69094, PK"
"Sindh, PK","Umar Kot, PK","69100, PK"
"Sindh, PK","Khokrapar, PK","69120, PK"
"Sindh, PK","Samar Road, PK","69150, PK"
"Sindh, PK","Kunri, PK","69160, PK"
"Sindh, PK","Chachro, PK","69170, PK"
"Sindh, PK","Nabi Sir Road, PK","69200, PK"
"Sindh, PK","Talhi, PK","69210, PK"
"Sindh, PK","Nau Kot, PK","69220, PK"
"Sindh, PK","Mithi, PK","69230, PK"
"Sindh, PK","Islam Kot, PK","69240, PK"
"Sindh, PK","Nagar Parkar, PK","69260, PK"
"Sindh, PK","Diplo, PK","69280, PK"
"Sindh, PK","Kot Mirjan Muhammad, PK","69300, PK"
"Sindh, PK","Jhudo, PK","69310, PK"
"Sindh, PK","Tando Jan Muhammad, PK","69320, PK"
"Sindh, PK","Digri, PK","69330, PK"
"Sindh, PK","Kot Guhlam Mohammad, PK","69340, PK"
"Sindh, PK","Samaro, PK","69350, PK"
"Sindh, PK","Mirwah Gorchani, PK","69370, PK"
"Sindh, PK","Tando Allahyar, PK","70010, PK"
"Sindh, PK","Rashidabad, PK","70012, PK"
"Sindh, PK","Missan Wadi, PK","70014, PK"
"Sindh, PK","Mehran Sugar Mills (Tando Allahyar), PK","70020, PK"
"Sindh, PK","Goth Shahnawaz, PK","70030, PK"
"Sindh, PK","Nasarpur, PK","70040, PK"
"Sindh, PK","Tando Jam, PK","70050, PK"
"Sindh, PK","Sindh Agriculture University Tando Jam, PK","70060, PK"
"Sindh, PK","Tando Qaiser, PK","70070, PK"
"Sindh, PK","Chamber, PK","70080, PK"
"Sindh, PK","Oderolal R.S., PK","70090, PK"
"Sindh, PK","Oderolal Village, PK","70092, PK"
"Sindh, PK","Saeedabad, PK","70100, PK"
"Sindh, PK","Sikandarabad, PK","70104, PK"
"Sindh, PK","Mansora Hyderabad, PK","70110, PK"
"Sindh, PK","Hala, PK","70120, PK"
"Sindh, PK","Hala Old, PK","70130, PK"
"Sindh, PK","Bhit Shah, PK","70140, PK"
"Sindh, PK","Matiari, PK","70150, PK"
"Sindh, PK","Sheikh Bharkio, PK","70200, PK"
"Sindh, PK","Husri, PK","70210, PK"
"Sindh, PK","Tando Mohammad Khan, PK","70220, PK"
"Sindh, PK","Hyderabad Gpo, PK","71000, PK"
"Sindh, PK","Qasimabad, PK","71100, PK"
"Sindh, PK","Hyderabad Cantt., PK","71110, PK"
"Sindh, PK","Hyderabad City, PK","71500, PK"
"Sindh, PK","Latifabad, PK","71800, PK"
"Sindh, PK","Sindh Regimental Centre Hyderabad, PK","71850, PK"
"Sindh, PK","Sindh Industrial Trading Estate Hyderabad, PK","71900, PK"
"Sindh, PK","Matli, PK","72010, PK"
"Sindh, PK","Kario Ghanwar, PK","72020, PK"
"Sindh, PK","Tando Ghulam Ali, PK","72050, PK"
"Sindh, PK","New Dambalo, PK","72052, PK"
"Sindh, PK","Badho Kambrani, PK","72060, PK"
"Sindh, PK","Talhar, PK","72100, PK"
"Sindh, PK","Rajo Khanani, PK","72110, PK"
"Sindh, PK","Tando Bago, PK","72120, PK"
"Sindh, PK","Pangrio, PK","72130, PK"
"Sindh, PK","Badin, PK","72200, PK"
"Sindh, PK","P.A.F. Badin, PK","72210, PK"
"Sindh, PK","Tando Ikram, PK","72220, PK"
"Sindh, PK","Nando Shahar, PK","72250, PK"
"Sindh, PK","Fauji Sugar Mills Khoski, PK","72260, PK"
"Sindh, PK","Khadhan, PK","72270, PK"
"Sindh, PK","Jhok Sharif, PK","73010, PK"
"Sindh, PK","Bulri Shah Karim, PK","73020, PK"
"Sindh, PK","Sindh Abadgar Sugar Mills T.M. Khan, PK","73024, PK"
"Sindh, PK","Mirpur Bathoro, PK","73030, PK"
"Sindh, PK","Darro, PK","73040, PK"
"Sindh, PK","Sujawal, PK","73050, PK"
"Sindh, PK","Dewan Sugar Mills Thatta, PK","73052, PK"
"Sindh, PK","Jati, PK","73060, PK"
"Sindh, PK","Chuhar Jamali, PK","73070, PK"
"Sindh, PK","Ladiun, PK","73080, PK"
"Sindh, PK","Nooriabad, PK","73090, PK"
"Sindh, PK","Towler Village Nooriabad, PK","73094, PK"
"Sindh, PK","Jhimpir R.S., PK","73100, PK"
"Sindh, PK","Jang Shahi, PK","73110, PK"
"Sindh, PK","Kinjhar Lake, PK","73120, PK"
"Sindh, PK","Thatta, PK","73130, PK"
"Sindh, PK","Hashimabad, PK","73150, PK"
"Sindh, PK","Vur, PK","73170, PK"
"Sindh, PK","Dhabeji, PK","73200, PK"
"Sindh, PK","Gharo, PK","73210, PK"
"Sindh, PK","Filter Plant Gharo, PK","73220, PK"
"Sindh, PK","Mirpur Sakro, PK","73240, PK"
"Sindh, PK","Garho, PK","73242, PK"
"Sindh, PK","Wapda Residency Colony Lakhra, PK","73260, PK"
"Sindh, PK","Karachi City Gpo, PK","74000, PK"
"Sindh, PK","Karachi Gpo, PK","74200, PK"
"Sindh, PK","Karachi Saddar Gpo, PK","74400, PK"
"Sindh, PK","Karachi Nazimabad, PK","74600, PK"
"Sindh, PK","Karachi Alhydri Gpo, PK","74700, PK"
"Sindh, PK","New Town Gpo, PK","74800, PK"
"Sindh, PK","Korangi Gpo, PK","74900, PK"
"Sindh, PK","Pak. Steel Mills Karachi, PK","75000, PK"
"Sindh, PK","Pak. Steel Mills Township Karachi, PK","75010, PK"
"Sindh, PK","Port Qasim, PK","75020, PK"
"Sindh, PK","Pak. Machine Tool Factory Karachi, PK","75030, PK"
"Sindh, PK","Murad Memon Goth (Kp-974), PK","75040, PK"
"Sindh, PK","Malir City, PK","75050, PK"
"Sindh, PK","Malir Cantt, PK","75070, PK"
"Sindh, PK","Malir Colony, PK","75080, PK"
"Sindh, PK","Model Colony Korangi, PK","75100, PK"
"Sindh, PK","Quaidabad, PK","75120, PK"
"Sindh, PK","Export Processing Zone (Kp-1863), PK","75150, PK"
"Sindh, PK","Landhi Colony, PK","75160, PK"
"Sindh, PK","Karachi Darul Uloom (Kp-683), PK","75180, PK"
"Sindh, PK","Korangi Creek, PK","75190, PK"
"Sindh, PK","Karachi Airport, PK","75200, PK"
"Sindh, PK","Rafa-E-Aam Society Karachi, PK","75210, PK"
"Sindh, PK","Drigh Colony, PK","75230, PK"
"Sindh, PK","Karachi Gulshan-E-Jamal, PK","75260, PK"
"Sindh, PK","Karachi University, PK","75270, PK"
"Sindh, PK","Karachi Mosamiat Chowrangi, PK","75280, PK"
"Sindh, PK","Karachi Gulistan-E-Jouhar (Kp-2023), PK","75290, PK"
"Sindh, PK","Karachi Gulshan-E-Iqbal, PK","75300, PK"
"Sindh, PK","Karachi Gulzar-E-Hijri, PK","75330, PK"
"Sindh, PK","Karachi New Sabzi Mandi, PK","75340, PK"
"Sindh, PK","Karachi Shahra-E-Faisal, PK","75350, PK"
"Sindh, PK","Karachi P.E.C.H.S Bi-2, PK","75400, PK"
"Sindh, PK","Mehmoodabad, PK","75460, PK"
"Sindh, PK","Karachi Defence Housing Society, PK","75500, PK"
"Sindh, PK","Karachi J.P.M.C, PK","75510, PK"
"Sindh, PK","Karachi Hotel Metropole, PK","75520, PK"
"Sindh, PK","Karachi Cantt., PK","75530, PK"
"Sindh, PK","Karachi Nishtar Road, PK","75550, PK"
"Sindh, PK","Karachi Governor House, PK","75580, PK"
"Sindh, PK","Karachi Clifton, PK","75600, PK"
"Sindh, PK","Kemari, PK","75620, PK"
"Sindh, PK","Manora, PK","75640, PK"
"Sindh, PK","Karachi Habib Bank, PK","75650, PK"
"Sindh, PK","Karachi Lyari, PK","75660, PK"
"Sindh, PK","Karachi I.T.E, PK","75700, PK"
"Sindh, PK","Karachi Sher Shah Colony, PK","75730, PK"
"Sindh, PK","Karachi Mauripur Af, PK","75750, PK"
"Sindh, PK","Karachi Baldia Town, PK","75760, PK"
"Sindh, PK","Karachi Mauripur Ce, PK","75780, PK"
"Sindh, PK","Karachi P.N.A.D., PK","75790, PK"
"Sindh, PK","Orangi Town, PK","75800, PK"
"Sindh, PK","Karachi Metroville, PK","75840, PK"
"Sindh, PK","New Karachi, PK","75850, PK"
"Sindh, PK","Karachi Manghopir, PK","75890, PK"
"Sindh, PK","Karachi Liaqatabad, PK","75900, PK"
"Sindh, PK","Karachi Federal B Area, PK","75950, PK"
"Sindh, PK","Karachi Board Of Secondary Education, PK","75990, PK"
"Sindh, PK","Kotri, PK","76000, PK"
"Sindh, PK","Site Kotri, PK","76010, PK"
"Sindh, PK","Telegraph Workshop Kotri, PK","76030, PK"
"Sindh, PK","Behar Colony Kotri, PK","76040, PK"
"Sindh, PK","Thana Bula Khan, PK","76050, PK"
"Sindh, PK","Railway Crossing Jamshoro, PK","76060, PK"
"Sindh, PK","Thermal Power Station, PK","76064, PK"
"Sindh, PK","University New Campus Jamshoro, PK","76080, PK"
"Sindh, PK","Liaqat Medical College (Jamshoro), PK","76090, PK"
"Sindh, PK","Petaro Cadet College, PK","76120, PK"
"Sindh, PK","Pattaro Cantt., PK","76122, PK"
"Sindh, PK","Sann, PK","76130, PK"
"Sindh, PK","Sehwan, PK","76140, PK"
"Sindh, PK","Bubak, PK","76150, PK"
"Sindh, PK","Bhan Saeedabad, PK","76170, PK"
"Sindh, PK","Panjmoro, PK","76172, PK"
"Sindh, PK","Johi, PK","76190, PK"
"Sindh, PK","Dadu Gpo, PK","76200, PK"
"Sindh, PK","Phulji, PK","76220, PK"
"Sindh, PK","Dadu Sugar Mill (Piaro Goth), PK","76230, PK"
"Sindh, PK","Sita, PK","76250, PK"
"Sindh, PK","Khairpur Nathan Shah, PK","76260, PK"
"Sindh, PK","Khanpur Junejo, PK","76264, PK"
"Sindh, PK","Radhan, PK","76310, PK"
"Sindh, PK","Mehar, PK","76330, PK"
"Sindh, PK","Khuda Ki Basti, PK","76340, PK"
"Sindh, PK","Fareedabad, PK","76350, PK"
"Sindh, PK","Badah, PK","77010, PK"
"Sindh, PK","Nasirabad Larkana, PK","77020, PK"
"Sindh, PK","Gaji Khuhawar, PK","77030, PK"
"Sindh, PK","Warah, PK","77040, PK"
"Sindh, PK","Dokri, PK","77060, PK"
"Sindh, PK","Cadit College, Larkana, PK","77062, PK"
"Sindh, PK","Moenjodara, PK","77070, PK"
"Sindh, PK","Hayder Jatoi, PK","77100, PK"
"Sindh, PK","Bakrani Village, PK","77110, PK"
"Sindh, PK","Garelo, PK","77120, PK"
"Sindh, PK","Larkana Gpo, PK","77150, PK"
"Sindh, PK","Chandka Medical College Larkana, PK","77170, PK"
"Sindh, PK","Bero Chandio, PK","77200, PK"
"Sindh, PK","Kambar, PK","77210, PK"
"Sindh, PK","Gather, PK","77212, PK"
"Sindh, PK","Miran Machi, PK","77214, PK"
"Sindh, PK","Ber, PK","77220, PK"
"Sindh, PK","Waggan, PK","77230, PK"
"Sindh, PK","Khairpur Joso, PK","77240, PK"
"Sindh, PK","Lalu Raunk, PK","77250, PK"
"Sindh, PK","Bahram, PK","77260, PK"
"Sindh, PK","Miro Kahn, PK","77270, PK"
"Sindh, PK","Arzi Bhutto, PK","77280, PK"
"Sindh, PK","Shahdad Kot, PK","77300, PK"
"Sindh, PK","Qubo Saeed Khan, PK","77310, PK"
"Sindh, PK","Chak Yani, PK","77320, PK"
"Sindh, PK","Ghari Khuda Bux Bhutto, PK","77340, PK"
"Sindh, PK","Naodero, PK","77360, PK"
"Sindh, PK","Pir Bux Bhutto, PK","77370, PK"
"Sindh, PK","Rato Dera, PK","77380, PK"
"Sindh, PK","Lashari, PK","77390, PK"
"Sindh, PK","Bangul Dero, PK","77400, PK"
"Sindh, PK","Mena, PK","77410, PK"
"Sindh, PK","Madiji, PK","78030, PK"
"Sindh, PK","Dakhan, PK","78040, PK"
"Sindh, PK","Chak, PK","78050, PK"
"Sindh, PK","Lakhi Ghulam Shah, PK","78060, PK"
"Sindh, PK","Ruk, PK","78064, PK"
"Sindh, PK","Shikarpur Gpo, PK","78100, PK"
"Sindh, PK","Gari Yasin, PK","78150, PK"
"Sindh, PK","Khan Pur (Shikarpur), PK","78200, PK"
"Sindh, PK","Karam Pur, PK","78220, PK"
"Sindh, PK","Sultan Kot, PK","78250, PK"
"Sindh, PK","Jacobabad Gpo, PK","79000, PK"
"Sindh, PK","Paf Base Shahbaz, PK","79010, PK"
"Sindh, PK","Garhi Khairo, PK","79050, PK"
"Sindh, PK","Thul, PK","79100, PK"
"Sindh, PK","Mirpur Buriro, PK","79120, PK"
"Sindh, PK","Ghulam Khan Dhani, PK","79130, PK"
"Sindh, PK","Tangwani, PK","79150, PK"
"Sindh, PK","Kandhkot, PK","79160, PK"
"Sindh, PK","Ghous Pur, PK","79180, PK"
"Sindh, PK","Buxapur, PK","79190, PK"
"Sindh, PK","Badani, PK","79192, PK"
"Sindh, PK","Kashmore, PK","79200, PK"
"Sindh, PK","Kashmor Colony, PK","79210, PK"
"Sindh, PK","Ammunition Depot Kashmore, PK","79212, PK"
"Sindh, PK","Giddu Barrage, PK","79220, PK"
"Azad Jammu and Kashmir, PK","Watala, PK","10010, PK"
"Azad Jammu and Kashmir, PK","Moil, PK","10012, PK"
"Azad Jammu and Kashmir, PK","Barnala, PK","10020, PK"
"Azad Jammu and Kashmir, PK","Bharing, PK","10030, PK"
"Azad Jammu and Kashmir, PK","Kadhala, PK","10034, PK"
"Azad Jammu and Kashmir, PK","Pitho Rani, PK","10036, PK"
"Azad Jammu and Kashmir, PK","Dhandar Kalan, PK","10038, PK"
"Azad Jammu and Kashmir, PK","Bhimber Gpo, PK","10040, PK"
"Azad Jammu and Kashmir, PK","Dheri Wattan, PK","10042, PK"
"Azad Jammu and Kashmir, PK","Barsali, PK","10044, PK"
"Azad Jammu and Kashmir, PK","Bangla Sadabad, PK","10050, PK"
"Azad Jammu and Kashmir, PK","Saminani, PK","10060, PK"
"Azad Jammu and Kashmir, PK","Barjah, PK","10070, PK"
"Azad Jammu and Kashmir, PK","Chowki, PK","10080, PK"
"Azad Jammu and Kashmir, PK","Bindi, PK","10090, PK"
"Azad Jammu and Kashmir, PK","Poona, PK","10100, PK"
"Azad Jammu and Kashmir, PK","Mangla Dam, PK","10200, PK"
"Azad Jammu and Kashmir, PK","Bong Colony, PK","10210, PK"
"Azad Jammu and Kashmir, PK","Chitter Pari, PK","10230, PK"
"Azad Jammu and Kashmir, PK","Jari Kass, PK","10232, PK"
"Azad Jammu and Kashmir, PK","Ajk Board Of Education Mirpur, PK","10240, PK"
"Azad Jammu and Kashmir, PK","Mirpur Gpo, PK","10250, PK"
"Azad Jammu and Kashmir, PK","Siakh, PK","10300, PK"
"Azad Jammu and Kashmir, PK","Khadimabad, PK","10310, PK"
"Azad Jammu and Kashmir, PK","Chhattroh, PK","10320, PK"
"Azad Jammu and Kashmir, PK","Chechian, PK","10350, PK"
"Azad Jammu and Kashmir, PK","Afzal Pur, PK","10360, PK"
"Azad Jammu and Kashmir, PK","Banni, PK","10370, PK"
"Azad Jammu and Kashmir, PK","Jatli (Ak), PK","10380, PK"
"Azad Jammu and Kashmir, PK","Kalri, PK","10382, PK"
"Azad Jammu and Kashmir, PK","Tariq Abad (Mirpur), PK","10390, PK"
"Azad Jammu and Kashmir, PK","Panjeri, PK","10400, PK"
"Azad Jammu and Kashmir, PK","Chhani Reki, PK","10404, PK"
"Azad Jammu and Kashmir, PK","Potha Bainsi, PK","10450, PK"
"Azad Jammu and Kashmir, PK","Dhamawa, PK","10460, PK"
"Azad Jammu and Kashmir, PK","Akal Garh, PK","10470, PK"
"Azad Jammu and Kashmir, PK","Jatti Dheri, PK","10480, PK"
"Azad Jammu and Kashmir, PK","Boha Dhangri, PK","10490, PK"
"Azad Jammu and Kashmir, PK","Chak Sawari, PK","10500, PK"
"Azad Jammu and Kashmir, PK","Pind Kalan, PK","10510, PK"
"Azad Jammu and Kashmir, PK","Palak, PK","10520, PK"
"Azad Jammu and Kashmir, PK","Dadyal Khurd, PK","10530, PK"
"Azad Jammu and Kashmir, PK","Behari, PK","10534, PK"
"Azad Jammu and Kashmir, PK","Ratta, PK","10540, PK"
"Azad Jammu and Kashmir, PK","Thara, PK","10544, PK"
"Azad Jammu and Kashmir, PK","Katha Dilawar Khan, PK","10550, PK"
"Azad Jammu and Kashmir, PK","Sehnsa, PK","11010, PK"
"Azad Jammu and Kashmir, PK","Potha, PK","11014, PK"
"Azad Jammu and Kashmir, PK","Seher Mandi, PK","11020, PK"
"Azad Jammu and Kashmir, PK","Gulpur, PK","11030, PK"
"Azad Jammu and Kashmir, PK","Baratla, PK","11032, PK"
"Azad Jammu and Kashmir, PK","Nar, PK","11040, PK"
"Azad Jammu and Kashmir, PK","Kotli Gpo (Ak), PK","11100, PK"
"Azad Jammu and Kashmir, PK","Sarsawa, PK","11110, PK"
"Azad Jammu and Kashmir, PK","Panjera, PK","11120, PK"
"Azad Jammu and Kashmir, PK","Gunni Malni, PK","11150, PK"
"Azad Jammu and Kashmir, PK","Tatta Pani, PK","11160, PK"
"Azad Jammu and Kashmir, PK","Nakial, PK","11170, PK"
"Azad Jammu and Kashmir, PK","Mohra Sharif Kotli, PK","11180, PK"
"Azad Jammu and Kashmir, PK","Chowki Mong, PK","11190, PK"
"Azad Jammu and Kashmir, PK","Khui Ratta (A.K), PK","11200, PK"
"Azad Jammu and Kashmir, PK","Anderla Kotehra, PK","11202, PK"
"Azad Jammu and Kashmir, PK","Seri, PK","11210, PK"
"Azad Jammu and Kashmir, PK","B Al Brahmana, PK","11220, PK"
"Azad Jammu and Kashmir, PK","Charhoi, PK","11250, PK"
"Azad Jammu and Kashmir, PK","Kala Dab, PK","11260, PK"
"Azad Jammu and Kashmir, PK","Azad Pattan, PK","12000, PK"
"Azad Jammu and Kashmir, PK","Palandri Gpo, PK","12010, PK"
"Azad Jammu and Kashmir, PK","Tahlian, PK","12014, PK"
"Azad Jammu and Kashmir, PK","Baral, PK","12030, PK"
"Azad Jammu and Kashmir, PK","Panthal, PK","12034, PK"
"Azad Jammu and Kashmir, PK","Chachan, PK","12040, PK"
"Azad Jammu and Kashmir, PK","Dewan Sharif Gorah, PK","12060, PK"
"Azad Jammu and Kashmir, PK","Nalian, PK","12070, PK"
"Azad Jammu and Kashmir, PK","Tarar Khel, PK","12080, PK"
"Azad Jammu and Kashmir, PK","Qillan, PK","12090, PK"
"Azad Jammu and Kashmir, PK","Baithak Bazar, PK","12100, PK"
"Azad Jammu and Kashmir, PK","Rahimabad, PK","12110, PK"
"Azad Jammu and Kashmir, PK","Baloch, PK","12120, PK"
"Azad Jammu and Kashmir, PK","Pakhonar, PK","12130, PK"
"Azad Jammu and Kashmir, PK","Gala Kaniyata, PK","12150, PK"
"Azad Jammu and Kashmir, PK","Hajeera, PK","12160, PK"
"Azad Jammu and Kashmir, PK","Dawarandi, PK","12164, PK"
"Azad Jammu and Kashmir, PK","Maindla, PK","12170, PK"
"Azad Jammu and Kashmir, PK","Sehira, PK","12174, PK"
"Azad Jammu and Kashmir, PK","Mandhole, PK","12180, PK"
"Azad Jammu and Kashmir, PK","Abbas Pur, PK","12200, PK"
"Azad Jammu and Kashmir, PK","Khurshidabad, PK","12220, PK"
"Azad Jammu and Kashmir, PK","Khaigala, PK","12250, PK"
"Azad Jammu and Kashmir, PK","Ali Sojal, PK","12252, PK"
"Azad Jammu and Kashmir, PK","Chotta Gala, PK","12260, PK"
"Azad Jammu and Kashmir, PK","Banjosa, PK","12262, PK"
"Azad Jammu and Kashmir, PK","Hussain Kot, PK","12270, PK"
"Azad Jammu and Kashmir, PK","Mang, PK","12300, PK"
"Azad Jammu and Kashmir, PK","Nawab Jessi Khan, PK","12304, PK"
"Azad Jammu and Kashmir, PK","Thorar, PK","12310, PK"
"Azad Jammu and Kashmir, PK","Rahara, PK","12320, PK"
"Azad Jammu and Kashmir, PK","Lunjgran, PK","12330, PK"
"Azad Jammu and Kashmir, PK","Soon Topa, PK","12340, PK"
"Azad Jammu and Kashmir, PK","Rawalkot Gpo, PK","12350, PK"
"Azad Jammu and Kashmir, PK","Chak Dhamni, PK","12380, PK"
"Azad Jammu and Kashmir, PK","Sanghola, PK","12390, PK"
"Azad Jammu and Kashmir, PK","Mohri Farman Shah, PK","12400, PK"
"Azad Jammu and Kashmir, PK","Hurnamaira, PK","12410, PK"
"Azad Jammu and Kashmir, PK","Paniola, PK","12420, PK"
"Azad Jammu and Kashmir, PK","Pachiot, PK","12430, PK"
"Azad Jammu and Kashmir, PK","Datoot, PK","12440, PK"
"Azad Jammu and Kashmir, PK","Arja, PK","12460, PK"
"Azad Jammu and Kashmir, PK","Mong Bajri, PK","12470, PK"
"Azad Jammu and Kashmir, PK","Harighel, PK","12480, PK"
"Azad Jammu and Kashmir, PK","Bagh Gpo, PK","12500, PK"
"Azad Jammu and Kashmir, PK","Mallote, PK","12502, PK"
"Azad Jammu and Kashmir, PK","Upper Suddan Gali, PK","12504, PK"
"Azad Jammu and Kashmir, PK","Plangi, PK","12508, PK"
"Azad Jammu and Kashmir, PK","Birpani, PK","12510, PK"
"Azad Jammu and Kashmir, PK","Kharal Abbasian, PK","12520, PK"
"Azad Jammu and Kashmir, PK","Reera Bazar, PK","12550, PK"
"Azad Jammu and Kashmir, PK","Barikot, PK","12560, PK"
"Azad Jammu and Kashmir, PK","Dhulli, PK","12570, PK"
"Azad Jammu and Kashmir, PK","Dhirkot, PK","12600, PK"
"Azad Jammu and Kashmir, PK","Rangla, PK","12610, PK"
"Azad Jammu and Kashmir, PK","Chirala, PK","12620, PK"
"Azad Jammu and Kashmir, PK","Chamankot, PK","12630, PK"
"Azad Jammu and Kashmir, PK","Muzaffarabad Gpo, PK","13100, PK"
"Azad Jammu and Kashmir, PK","Garahi Dupatta, PK","13150, PK"
"Azad Jammu and Kashmir, PK","Leepa, PK","13164, PK"
"Azad Jammu and Kashmir, PK","Chikar, PK","13170, PK"
"Azad Jammu and Kashmir, PK","Hattian Bala, PK","13180, PK"
"Azad Jammu and Kashmir, PK","Chenari, PK","13190, PK"
"Azad Jammu and Kashmir, PK","Kahuri, PK","13200, PK"
"Azad Jammu and Kashmir, PK","Pattika, PK","13210, PK"
"Azad Jammu and Kashmir, PK","Karnah, PK","13220, PK"
"Azad Jammu and Kashmir, PK","Jura, PK","13224, PK"
"Azad Jammu and Kashmir, PK","Athmaqam, PK","13230, PK"
"Azad Jammu and Kashmir, PK","Sharda, PK","13232, PK"
"Azad Jammu and Kashmir, PK","Kel, PK","13234, PK"
"Azad Jammu and Kashmir, PK","Chakothi, PK","13240, PK"
"Azad Jammu and Kashmir, PK","Rahimkot, PK","13250, PK"
"Gilgit Baltistan, PK","Chilas (Lsg), PK","14100, PK"
"Gilgit Baltistan, PK","Jaglot Tangir, PK","14150, PK"
"Gilgit Baltistan, PK","Bunji, PK","14200, PK"
"Gilgit Baltistan, PK","Astore, PK","14300, PK"
"Gilgit Baltistan, PK","Ghorikot, PK","14350, PK"
"Gilgit Baltistan, PK","Chilam, PK","14400, PK"
"Gilgit Baltistan, PK","Gilgit Gpo, PK","15100, PK"
"Gilgit Baltistan, PK","Danyore, PK","15110, PK"
"Gilgit Baltistan, PK","Sammayar, PK","15120, PK"
"Gilgit Baltistan, PK","Meenapin, PK","15130, PK"
"Gilgit Baltistan, PK","Jutial, PK","15150, PK"
"Gilgit Baltistan, PK","Singal, PK","15160, PK"
"Gilgit Baltistan, PK","Jablot Sai, PK","15170, PK"
"Gilgit Baltistan, PK","Gahkooch, PK","15200, PK"
"Gilgit Baltistan, PK","Chattar Khand, PK","15210, PK"
"Gilgit Baltistan, PK","Gupis, PK","15300, PK"
"Gilgit Baltistan, PK","Yasin, PK","15310, PK"
"Gilgit Baltistan, PK","Teru, PK","15350, PK"
"Gilgit Baltistan, PK","Sikandarabad, PK","15400, PK"
"Gilgit Baltistan, PK","Chalt, PK","15500, PK"
"Gilgit Baltistan, PK","Nasirabad, PK","15550, PK"
"Gilgit Baltistan, PK","Aliabad, PK","15600, PK"
"Gilgit Baltistan, PK","Nagar, PK","15650, PK"
"Gilgit Baltistan, PK","Karimabad, PK","15700, PK"
"Gilgit Baltistan, PK","Altit, PK","15710, PK"
"Gilgit Baltistan, PK","Gulmit, PK","15750, PK"
"Gilgit Baltistan, PK","Sust, PK","15800, PK"
"Gilgit Baltistan, PK","Misgar, PK","15900, PK"
"Gilgit Baltistan, PK","Skardu Gpo, PK","16100, PK"
"Gilgit Baltistan, PK","Astana, PK","16110, PK"
"Gilgit Baltistan, PK","Kachura, PK","16150, PK"
"Gilgit Baltistan, PK","Thowar, PK","16160, PK"
"Gilgit Baltistan, PK","Skardu Airport, PK","16200, PK"
"Gilgit Baltistan, PK","Hussainabad, PK","16250, PK"
"Gilgit Baltistan, PK","Shigar, PK","16300, PK"
"Gilgit Baltistan, PK","Gulabpur, PK","16310, PK"
"Gilgit Baltistan, PK","Achori, PK","16320, PK"
"Gilgit Baltistan, PK","Sermik, PK","16350, PK"
"Gilgit Baltistan, PK","Mehdiabad, PK","16400, PK"
"Gilgit Baltistan, PK","Manthokha, PK","16420, PK"
"Gilgit Baltistan, PK","Tolti, PK","16450, PK"
"Gilgit Baltistan, PK","Baghicha, PK","16500, PK"
"Gilgit Baltistan, PK","Olding, PK","16600, PK"
"Gilgit Baltistan, PK","Kiris, PK","16700, PK"
"Gilgit Baltistan, PK","Ghowari, PK","16720, PK"
"Gilgit Baltistan, PK","Daghoni, PK","16750, PK"
"Gilgit Baltistan, PK","Khaplu, PK","16800, PK"
"Gilgit Baltistan, PK","Pion, PK","16810, PK"
"Gilgit Baltistan, PK","Thagas, PK","16900, PK"
"Gilgit Baltistan, PK","Damsum, PK","16910, PK"
"Gilgit Baltistan, PK","Goma, PK","16920, PK"
"Federal Capital, PK","Islamabad Gpo, PK","44000, PK"
"Federal Capital, PK","Islamabad Primr Minister Sectt., PK","44010, PK"
"Federal Capital, PK","Islamabad B-Block Pak Sectt., PK","44020, PK"
"Federal Capital, PK","Islamabad National Assembly, PK","44030, PK"
"Federal Capital, PK","Islamabad Aiwan-E-Saddar, PK","44040, PK"
"Federal Capital, PK","Islamabad G-5 Foreign Office, PK","44050, PK"
"Federal Capital, PK","Islamabad G-8/Markaz, PK","44080, PK"
"Federal Capital, PK","Islamabad G-9/Markaz, PK","44090, PK"
"Federal Capital, PK","Islamabad G-10 Markaz, PK","44100, PK"
"Federal Capital, PK","Islamabad G-15 Sector, PK","44150, PK"
"Federal Capital, PK","Islamabad F-7 Markaz, PK","44210, PK"
"Federal Capital, PK","Islamabad F-8 Markaz, PK","44220, PK"
"Federal Capital, PK","Islamabad E-9 (Air Hq), PK","44230, PK"
"Federal Capital, PK","Islamabad Allama Iqbal Open University, PK","44310, PK"
"Federal Capital, PK","Islamabad Federal Board, PK","44320, PK"
"Federal Capital, PK","Islamabad I-8/4, PK","44790, PK"
"Federal Capital, PK","Islamabad I-10/Markaz, PK","44800, PK"
"Federal Capital, PK","Golra, PK","45200, PK"
"Federal Capital, PK","Islamabad Hajj Complex, PK","45210, PK"
"Federal Capital, PK","Shah Allah Ditta, PK","45220, PK"
"Federal Capital, PK","Tarnol, PK","45230, PK"
"Federal Capital, PK","Bagnial, PK","45240, PK"
"Federal Capital, PK","Mara Jaffar, Islamabad, PK","45250, PK"
"Federal Capital, PK","Noorpur Shahan, Islamabad, PK","45300, PK"
"Federal Capital, PK","Islamabad Quiaid-E-Azam University, PK","45320, PK"
"Federal Capital, PK","Bara Kau, PK","45400, PK"
"Federal Capital, PK","Saree Chowk, PK","45410, PK"
"Federal Capital, PK","Islamabad National Health Laboratiories, PK","45500, PK"
"Federal Capital, PK","Rawal Town, Islamabad, PK","45510, PK"
"Federal Capital, PK","Malpur, Islamabad, PK","45520, PK"
"Federal Capital, PK","Tarlai Kalan, PK","45550, PK"
"Federal Capital, PK","Kuri, Islamabad, PK","45570, PK"
"Federal Capital, PK","Ali Pur Frash, PK","45600, PK"
"Federal Capital, PK","Jagiot, Islamabad, PK","45610, PK"
"Federal Capital, PK","Pind Malkan, PK","45624, PK"
"Federal Capital, PK","Kirpa, Islamabad, PK","45640, PK"
"Federal Capital, PK","Nilore, Islamabad, PK","45650, PK"
"Federal Capital, PK","Chirah, PK","45680, PK"
"Federal Capital, PK","Islamabad, Model Town Humak, PK","45700, PK"
"Federal Capital, PK","Lohi Bher, Islamabad, PK","45710, PK"
"Federal Capital, PK","Pakistan Town (Korang Town), PK","45720, PK"
"Federal Capital, PK","Islamabad Dha Phase-Ii, PK","45730, PK"
"Federal Capital, PK","Sohan, PK","45740, PK"
"Federal Capital, PK","Sihala, PK","45750, PK"
"Federal Capital, PK","Herdogher, PK","45800, PK"
"Federal Capital, PK","Rewat, PK","45900, PK"
