state,city,zip
"Artigas, UY","Limite Contestado, UY","40200, UY"
"Artigas, UY","Sarandi De Yacuy, UY","50200, UY"
"Artigas, UY","Baltasar Brum, UY","55000, UY"
"Artigas, UY","Tamandua, UY","55000, UY"
"Artigas, UY","Chiflero, UY","55000, UY"
"Artigas, UY","Patitas, UY","55000, UY"
"Artigas, UY","Colonia Pintado, UY","55000, UY"
"Artigas, UY","Pintadito, UY","55000, UY"
"Artigas, UY","Fagundez, UY","55000, UY"
"Artigas, UY","Javier De Viana, UY","55000, UY"
"Artigas, UY","Sarandi De Cuaro, UY","55000, UY"
"Artigas, UY","Piedra Pintada, UY","55000, UY"
"Artigas, UY","Cerrito, UY","55000, UY"
"Artigas, UY","Catalan Volcan, UY","55000, UY"
"Artigas, UY","Estiba, UY","55000, UY"
"Artigas, UY","Meneses, UY","55000, UY"
"Artigas, UY","Guyubira, UY","55000, UY"
"Artigas, UY","Artigas, UY","55000, UY"
"Artigas, UY","Sequeira, UY","55000, UY"
"Artigas, UY","Catalan Grande, UY","55000, UY"
"Artigas, UY","Paso De Ramos, UY","55000, UY"
"Artigas, UY","Camaño, UY","55000, UY"
"Artigas, UY","Cerro San Eugenio, UY","55000, UY"
"Artigas, UY","Colonia Jose Artigas, UY","55000, UY"
"Artigas, UY","Topador, UY","55000, UY"
"Artigas, UY","Taruman, UY","55000, UY"
"Artigas, UY","Pintado, UY","55000, UY"
"Artigas, UY","Cerro Signorelli, UY","55000, UY"
"Artigas, UY","Zanja Aruera, UY","55000, UY"
"Artigas, UY","Cerro Ejido, UY","55000, UY"
"Artigas, UY","Diego Lamas, UY","55000, UY"
"Artigas, UY","Paso Campamento, UY","55000, UY"
"Artigas, UY","Rincon De Pacheco, UY","55000, UY"
"Artigas, UY","Pintado Grande, UY","55000, UY"
"Artigas, UY","Paso De Leon, UY","55000, UY"
"Artigas, UY","Cuaro, UY","55000, UY"
"Artigas, UY","Bernabe Rivera, UY","55000, UY"
"Artigas, UY","Paso Farias, UY","55000, UY"
"Artigas, UY","Palma Sola, UY","55000, UY"
"Artigas, UY","La Bolsa, UY","55000, UY"
"Artigas, UY","Paguero, UY","55000, UY"
"Artigas, UY","Colonia Viñar, UY","55100, UY"
"Artigas, UY","Cainza Campo 3, UY","55100, UY"
"Artigas, UY","Franquia, UY","55100, UY"
"Artigas, UY","Paredon, UY","55100, UY"
"Artigas, UY","Cuareim, UY","55100, UY"
"Artigas, UY","Colonia Estrella, UY","55100, UY"
"Artigas, UY","Paso De La Cruz, UY","55100, UY"
"Artigas, UY","Port. De Hierro Y Campodonico, UY","55100, UY"
"Artigas, UY","Calnu, UY","55100, UY"
"Artigas, UY","Tomas Gomensoro, UY","55100, UY"
"Artigas, UY","Colonia Palma, UY","55100, UY"
"Artigas, UY","Colonia España, UY","55100, UY"
"Artigas, UY","Lenguazo, UY","55100, UY"
"Artigas, UY","Mones Quintela, UY","55100, UY"
"Artigas, UY","Cainsa, UY","55100, UY"
"Artigas, UY","Coronado, UY","55100, UY"
"Artigas, UY","Las Piedras, UY","55100, UY"
"Artigas, UY","Bella Union, UY","55100, UY"
"Canelones, UY","Barra De Carrasco, UY","15000, UY"
"Canelones, UY","El Bosque, UY","15000, UY"
"Canelones, UY","Shangrila, UY","15000, UY"
"Canelones, UY","Parque Carrasco, UY","15000, UY"
"Canelones, UY","Lagomar, UY","15000, UY"
"Canelones, UY","Colonia Nicolich, UY","15000, UY"
"Canelones, UY","San Jose De Carrasco, UY","15000, UY"
"Canelones, UY","Paso Carrasco, UY","15000, UY"
"Canelones, UY","Aeropuerto Internacional De Carrasco, UY","15000, UY"
"Canelones, UY","Parque Miramar, UY","15000, UY"
"Canelones, UY","Lago Jardin Del Bosque, UY","15000, UY"
"Canelones, UY","Empalme Nicolich, UY","15000, UY"
"Canelones, UY","Barrio Obrero, UY","15000, UY"
"Canelones, UY","Santa Teresita, UY","15000, UY"
"Canelones, UY","Neptunia, UY","15100, UY"
"Canelones, UY","Fortin De Santa Rosa, UY","15100, UY"
"Canelones, UY","Rincon De Pando, UY","15100, UY"
"Canelones, UY","Pinamar Y Pinepark, UY","15100, UY"
"Canelones, UY","Pine Park, UY","15100, UY"
"Canelones, UY","Villa Juana, UY","15100, UY"
"Canelones, UY","Salinas, UY","15100, UY"
"Canelones, UY","Pinamar, UY","15100, UY"
"Canelones, UY","Marindia, UY","15100, UY"
"Canelones, UY","Villa Argentina, UY","15200, UY"
"Canelones, UY","Atlantida, UY","15200, UY"
"Canelones, UY","City Golf, UY","15200, UY"
"Canelones, UY","La Chinchilla, UY","15200, UY"
"Canelones, UY","Estacion Atlantida, UY","15200, UY"
"Canelones, UY","Las Toscas, UY","15200, UY"
"Canelones, UY","Las Vegas, UY","15300, UY"
"Canelones, UY","Estacion La Floresta, UY","15300, UY"
"Canelones, UY","Guazuvira Nuevo, UY","15300, UY"
"Canelones, UY","Costa Azul, UY","15300, UY"
"Canelones, UY","Guazuvira, UY","15300, UY"
"Canelones, UY","Bello Horizonte, UY","15300, UY"
"Canelones, UY","Parque Del Plata, UY","15300, UY"
"Canelones, UY","La Floresta, UY","15300, UY"
"Canelones, UY","Araminda, UY","15400, UY"
"Canelones, UY","Los Titanes, UY","15400, UY"
"Canelones, UY","Santa Lucia Del Este, UY","15400, UY"
"Canelones, UY","Santa Ana, UY","15400, UY"
"Canelones, UY","Cuchilla Alta, UY","15400, UY"
"Canelones, UY","San Luis, UY","15400, UY"
"Canelones, UY","Piedras De Afilar, UY","15400, UY"
"Canelones, UY","Capilla De Cella, UY","15400, UY"
"Canelones, UY","El Galeon, UY","15400, UY"
"Canelones, UY","Jaureguiberry, UY","15400, UY"
"Canelones, UY","Estacion Piedras De Afilar, UY","15400, UY"
"Canelones, UY","Cuchilla Alta Y El Galeon, UY","15400, UY"
"Canelones, UY","B.H.U., UY","15400, UY"
"Canelones, UY","Argentino, UY","15400, UY"
"Canelones, UY","La Tuna, UY","15400, UY"
"Canelones, UY","Biarritz, UY","15400, UY"
"Canelones, UY","Fracc Sobre Ruta 74, UY","15500, UY"
"Canelones, UY","Villa Aeroparque, UY","15500, UY"
"Canelones, UY","Rincon De Carrasco, UY","15500, UY"
"Canelones, UY","Villa El Tato, UY","15500, UY"
"Canelones, UY","Capitan Juan Antonio Artigas, UY","15500, UY"
"Canelones, UY","Cumbres De Carrasco, UY","15500, UY"
"Canelones, UY","Colinas De Carrasco, UY","15500, UY"
"Canelones, UY","Quinta Los Horneros, UY","15500, UY"
"Canelones, UY","Joaquin Suarez, UY","15500, UY"
"Canelones, UY","La Palmita, UY","15600, UY"
"Canelones, UY","Olmos, UY","15600, UY"
"Canelones, UY","Empalme Olmos, UY","15600, UY"
"Canelones, UY","Dr. Francisco Soca, UY","15600, UY"
"Canelones, UY","Jardines De Pando, UY","15600, UY"
"Canelones, UY","Piedra Del Toro, UY","15600, UY"
"Canelones, UY","Estanque De Pando, UY","15600, UY"
"Canelones, UY","Pando, UY","15600, UY"
"Canelones, UY","Puntas De Cañada Grande, UY","15600, UY"
"Canelones, UY","La Montañesa, UY","15600, UY"
"Canelones, UY","Sosa Diaz, UY","15600, UY"
"Canelones, UY","Piedritas De Suarez, UY","15600, UY"
"Canelones, UY","Cueva Del Tigre, UY","15600, UY"
"Canelones, UY","Cañada Grande, UY","15600, UY"
"Canelones, UY","Viejo Molino San Bernardo, UY","15600, UY"
"Canelones, UY","Las Ranas, UY","15600, UY"
"Canelones, UY","Costa De Pando Olmos, UY","15600, UY"
"Canelones, UY","Villa Valverde, UY","15700, UY"
"Canelones, UY","Villa Prados De Toledo, UY","15700, UY"
"Canelones, UY","Villa San Felipe, UY","15700, UY"
"Canelones, UY","Fracc. Cno. Andaluz Y R.84, UY","15700, UY"
"Canelones, UY","Toledo, UY","15700, UY"
"Canelones, UY","Barrio Pretti, UY","15700, UY"
"Canelones, UY","Villa Hadita, UY","15700, UY"
"Canelones, UY","Lomas De Toledo, UY","15700, UY"
"Canelones, UY","Villa Huertos De Toledo, UY","15700, UY"
"Canelones, UY","Los Hornos, UY","15700, UY"
"Canelones, UY","Seis Hermanos, UY","15700, UY"
"Canelones, UY","Barrio Los Panoramas, UY","15700, UY"
"Canelones, UY","Barrio Artigas, UY","15700, UY"
"Canelones, UY","Villa Marina, UY","15700, UY"
"Canelones, UY","Villa San Jose, UY","15700, UY"
"Canelones, UY","Villa Fortuna, UY","15700, UY"
"Canelones, UY","Puntas De Toledo, UY","15700, UY"
"Canelones, UY","Barrio Benzo, UY","15700, UY"
"Canelones, UY","Casarino, UY","15700, UY"
"Canelones, UY","Nataly, UY","15700, UY"
"Canelones, UY","Villa Crespo, UY","15700, UY"
"Canelones, UY","Villa Juanita, UY","15700, UY"
"Canelones, UY","Barrio Santa Rita, UY","15700, UY"
"Canelones, UY","Barrio Villa Murcia, UY","15700, UY"
"Canelones, UY","Barrio Traverso, UY","15700, UY"
"Canelones, UY","San Andres, UY","15700, UY"
"Canelones, UY","Villa Molfino, UY","15700, UY"
"Canelones, UY","Villa Los Alpes, UY","15700, UY"
"Canelones, UY","Quintas Del Bosque, UY","15800, UY"
"Canelones, UY","Haras Del Lago, UY","15800, UY"
"Canelones, UY","El Pinar, UY","15800, UY"
"Canelones, UY","Ciudad De La Costa, UY","15800, UY"
"Canelones, UY","Colinas De Solymar, UY","15800, UY"
"Canelones, UY","Solymar, UY","15800, UY"
"Canelones, UY","Las Higueritas, UY","15800, UY"
"Canelones, UY","El Bosque De Solymar, UY","15800, UY"
"Canelones, UY","Pinares De Solymar, UY","15800, UY"
"Canelones, UY","Medanos De Solymar, UY","15800, UY"
"Canelones, UY","Barrio San Cristobal, UY","15800, UY"
"Canelones, UY","Parque De Solymar, UY","15800, UY"
"Canelones, UY","Altos De La Tahona, UY","15800, UY"
"Canelones, UY","Lomas De Solymar, UY","15800, UY"
"Canelones, UY","La Asuncion, UY","15800, UY"
"Canelones, UY","Montes De Solymar, UY","15800, UY"
"Canelones, UY","Carmel, UY","15800, UY"
"Canelones, UY","Lomas De Carrasco, UY","15800, UY"
"Canelones, UY","Camino Dodera, UY","15900, UY"
"Canelones, UY","Colorado Chico, UY","15900, UY"
"Canelones, UY","Villa Foresti, UY","15900, UY"
"Canelones, UY","Fracc. Progreso, UY","15900, UY"
"Canelones, UY","Canelon Chico Al Centro, UY","15900, UY"
"Canelones, UY","Vista Linda, UY","15900, UY"
"Canelones, UY","Villa Paz S.A., UY","15900, UY"
"Canelones, UY","Costa Y Guillamon, UY","15900, UY"
"Canelones, UY","Barrio La Lucha, UY","15900, UY"
"Canelones, UY","Barrio Remanso, UY","15900, UY"
"Canelones, UY","Santos Lugares, UY","15900, UY"
"Canelones, UY","El Colorado, UY","15900, UY"
"Canelones, UY","Poquitos, UY","15900, UY"
"Canelones, UY","Cuchilla De Sierra, UY","15900, UY"
"Canelones, UY","Puntas De Canelon Chico, UY","15900, UY"
"Canelones, UY","Parada Cabrera, UY","15900, UY"
"Canelones, UY","El Dorado, UY","15900, UY"
"Canelones, UY","Progreso, UY","15900, UY"
"Canelones, UY","Villa San Cono, UY","15900, UY"
"Canelones, UY","La Paz, UY","15900, UY"
"Canelones, UY","Las Piedras, UY","15900, UY"
"Canelones, UY","Villa Felicidad, UY","15900, UY"
"Canelones, UY","Canelon Chico De Progreso, UY","15900, UY"
"Canelones, UY","Barrio Copola, UY","15900, UY"
"Canelones, UY","Paso Del Colorado, UY","15900, UY"
"Canelones, UY","Instituto Adventista, UY","15900, UY"
"Canelones, UY","Sauce De Solis, UY","30100, UY"
"Canelones, UY","Echevarria, UY","90000, UY"
"Canelones, UY","Paso De Las Toscas, UY","90000, UY"
"Canelones, UY","Canelones, UY","90000, UY"
"Canelones, UY","Juanico, UY","90000, UY"
"Canelones, UY","Paso Palomeque, UY","90000, UY"
"Canelones, UY","Mataojo, UY","90000, UY"
"Canelones, UY","Villa Arejo, UY","90000, UY"
"Canelones, UY","Paso De Cuello, UY","90000, UY"
"Canelones, UY","Murialdo, UY","90000, UY"
"Canelones, UY","Melgarejo, UY","90000, UY"
"Canelones, UY","Rincon Del Gigante, UY","90000, UY"
"Canelones, UY","Canelon Chico, UY","90000, UY"
"Canelones, UY","La Paloma, UY","90000, UY"
"Canelones, UY","Empalme Dogliotti, UY","90000, UY"
"Canelones, UY","Paso Del Medio, UY","90000, UY"
"Canelones, UY","Canelon Grande De Pacheco, UY","90000, UY"
"Canelones, UY","Camino De La Cadena, UY","90000, UY"
"Canelones, UY","Las Violetas, UY","90000, UY"
"Canelones, UY","Paso Espinosa, UY","90000, UY"
"Canelones, UY","Sofia Santos, UY","90100, UY"
"Canelones, UY","Esquina Gonzalez, UY","90100, UY"
"Canelones, UY","Parador Tajes, UY","90100, UY"
"Canelones, UY","Puente De Brujas, UY","90100, UY"
"Canelones, UY","Villa Encantada, UY","90100, UY"
"Canelones, UY","Los Cerrillos, UY","90100, UY"
"Canelones, UY","Puntas De Brujas, UY","90100, UY"
"Canelones, UY","Colorado Y Brujas, UY","90100, UY"
"Canelones, UY","Rincon De Portezuelo, UY","90100, UY"
"Canelones, UY","Barrancas Coloradas, UY","90100, UY"
"Canelones, UY","Cerrillos Al Oeste, UY","90100, UY"
"Canelones, UY","Paso Del Bote, UY","90100, UY"
"Canelones, UY","Camino Lloveras, UY","90100, UY"
"Canelones, UY","Campo Militar, UY","90100, UY"
"Canelones, UY","Cerrillos Al Sur, UY","90100, UY"
"Canelones, UY","Melilla, UY","90100, UY"
"Canelones, UY","Las Brujas, UY","90100, UY"
"Canelones, UY","Rincon Del Colorado, UY","90100, UY"
"Canelones, UY","Cuchilla Verde, UY","90200, UY"
"Canelones, UY","Rincon De Velazquez, UY","90200, UY"
"Canelones, UY","Los Ceibos, UY","90200, UY"
"Canelones, UY","Santa Lucia, UY","90200, UY"
"Canelones, UY","Paso De Pache, UY","90200, UY"
"Canelones, UY","Aguas Corrientes, UY","90200, UY"
"Canelones, UY","Rincon De Vidal, UY","90200, UY"
"Canelones, UY","Cañada De Montaño, UY","90200, UY"
"Canelones, UY","Paso Del Sordo, UY","90200, UY"
"Canelones, UY","Paso De Los Francos, UY","90200, UY"
"Canelones, UY","Paso De Los Alamos, UY","90200, UY"
"Canelones, UY","Margat, UY","90200, UY"
"Canelones, UY","Vejigas De Tala, UY","91100, UY"
"Canelones, UY","Vejigas De San Ramon, UY","91100, UY"
"Canelones, UY","Cañada Prudencio, UY","91100, UY"
"Canelones, UY","Costa Del Tala Norte, UY","91100, UY"
"Canelones, UY","Rincon Del Conde, UY","91100, UY"
"Canelones, UY","San Ramon, UY","91100, UY"
"Canelones, UY","El Cuadro, UY","91200, UY"
"Canelones, UY","Costa De Pando San Bautista, UY","91200, UY"
"Canelones, UY","Arenal, UY","91200, UY"
"Canelones, UY","Puntas De Cochengo, UY","91200, UY"
"Canelones, UY","Puntas De Las Violetas, UY","91200, UY"
"Canelones, UY","El Colorado San Bautista, UY","91200, UY"
"Canelones, UY","Pueblo Castellanos, UY","91200, UY"
"Canelones, UY","Costas Del Colorado Este, UY","91200, UY"
"Canelones, UY","Paso De Los Difuntos, UY","91200, UY"
"Canelones, UY","Costa Del Tala Este, UY","91200, UY"
"Canelones, UY","San Bautista, UY","91200, UY"
"Canelones, UY","Costas Del Tala, UY","91300, UY"
"Canelones, UY","Cañada Cardozo, UY","91300, UY"
"Canelones, UY","Puntas De Cañada Cardozo, UY","91300, UY"
"Canelones, UY","Barra Del Tala, UY","91300, UY"
"Canelones, UY","Costas Del Colorado, UY","91300, UY"
"Canelones, UY","San Antonio, UY","91300, UY"
"Canelones, UY","Paso De La Cadena, UY","91300, UY"
"Canelones, UY","Canelon Grande Norte, UY","91300, UY"
"Canelones, UY","Santa Rosa, UY","91400, UY"
"Canelones, UY","Puntas De Pantanoso, UY","91400, UY"
"Canelones, UY","Costa Del Pantanoso, UY","91400, UY"
"Canelones, UY","Costa De Pando San Jacinto, UY","91400, UY"
"Canelones, UY","Paso De La Paloma, UY","91400, UY"
"Canelones, UY","Puntas De Pantanoso Este, UY","91400, UY"
"Canelones, UY","Canelon Grande, UY","91400, UY"
"Canelones, UY","Cuchilla De Machin, UY","91500, UY"
"Canelones, UY","Villa Nueva, UY","91500, UY"
"Canelones, UY","Sauce, UY","91500, UY"
"Canelones, UY","Cuchilla De Rocha, UY","91500, UY"
"Canelones, UY","Blanco, UY","91500, UY"
"Canelones, UY","Pantanoso, UY","91500, UY"
"Canelones, UY","Puntas De Mata Siete, UY","91500, UY"
"Canelones, UY","Ponce Mata Siete, UY","91500, UY"
"Canelones, UY","Totoral Del Sauce, UY","91500, UY"
"Canelones, UY","Cruz De Los Caminos, UY","91500, UY"
"Canelones, UY","Costa Del Sauce, UY","91500, UY"
"Canelones, UY","San Pedro, UY","91500, UY"
"Canelones, UY","Pantanoso Del Sauce, UY","91500, UY"
"Canelones, UY","Empalme Sauce, UY","91500, UY"
"Canelones, UY","Barrio Del Libertador, UY","91500, UY"
"Canelones, UY","Carrasco Del Sauce, UY","91500, UY"
"Canelones, UY","Rancherios De Ponce, UY","91500, UY"
"Canelones, UY","Mata Siete, UY","91500, UY"
"Canelones, UY","Puntas De Pedrera, UY","91600, UY"
"Canelones, UY","Costas De Solis, UY","91600, UY"
"Canelones, UY","San Jacinto, UY","91600, UY"
"Canelones, UY","Barra De La Pedrera, UY","91600, UY"
"Canelones, UY","Cochengo, UY","91600, UY"
"Canelones, UY","Piedra Sola, UY","91600, UY"
"Canelones, UY","Costa De Pando, UY","91600, UY"
"Canelones, UY","Talita, UY","91600, UY"
"Canelones, UY","Estacion Tapia, UY","91600, UY"
"Canelones, UY","Estacion Pedrera, UY","91600, UY"
"Canelones, UY","Sarandi De Migues, UY","91700, UY"
"Canelones, UY","Pedernal Grande, UY","91700, UY"
"Canelones, UY","Cuchilla Cabo De Hornos, UY","91700, UY"
"Canelones, UY","La Totora, UY","91700, UY"
"Canelones, UY","Sauce Solo De Migues, UY","91700, UY"
"Canelones, UY","Solis Chico De Migues, UY","91700, UY"
"Canelones, UY","Cuchilla De Zeballos, UY","91700, UY"
"Canelones, UY","El Colorado De Migues, UY","91700, UY"
"Canelones, UY","Sauce Solo De Montes, UY","91700, UY"
"Canelones, UY","Solis Chico, UY","91700, UY"
"Canelones, UY","Sauce Solo, UY","91700, UY"
"Canelones, UY","Montes, UY","91700, UY"
"Canelones, UY","Estacion Migues, UY","91700, UY"
"Canelones, UY","Migues, UY","91700, UY"
"Canelones, UY","Puntas Del Arenal, UY","91700, UY"
"Canelones, UY","Vejigas, UY","91800, UY"
"Canelones, UY","Paso Rivero De Vejigas, UY","91800, UY"
"Canelones, UY","Paso De La Salamanca, UY","91800, UY"
"Canelones, UY","Puntas De Vejigas, UY","91800, UY"
"Canelones, UY","Macana, UY","91800, UY"
"Canelones, UY","Pedernal Chico, UY","91800, UY"
"Canelones, UY","Piedritas, UY","91800, UY"
"Canelones, UY","Costas De Pedernal, UY","91800, UY"
"Canelones, UY","Nutrias, UY","91800, UY"
"Canelones, UY","Tala, UY","91800, UY"
"Canelones, UY","Feliciano, UY","91800, UY"
"Canelones, UY","Pedernal, UY","91800, UY"
"Canelones, UY","Colonia Treinta Y Tres Orientales, UY","96100, UY"
"Canelones, UY","Bolivar, UY","96200, UY"
"Canelones, UY","Costas De Santa Lucia, UY","96200, UY"
"Cerro Largo, UY","Cuchilla Del Carmen, UY","35300, UY"
"Cerro Largo, UY","Esperanza, UY","35300, UY"
"Cerro Largo, UY","Arevalo, UY","35300, UY"
"Cerro Largo, UY","Tupambae, UY","36100, UY"
"Cerro Largo, UY","Laguna Del Junco, UY","36100, UY"
"Cerro Largo, UY","Wenceslao Silvera, UY","36200, UY"
"Cerro Largo, UY","Sanchez, UY","36200, UY"
"Cerro Largo, UY","Ganen, UY","36200, UY"
"Cerro Largo, UY","Cerro De Las Cuentas, UY","36200, UY"
"Cerro Largo, UY","Toledo, UY","36200, UY"
"Cerro Largo, UY","Rincon De Py, UY","36200, UY"
"Cerro Largo, UY","Rincon De Contreras, UY","36200, UY"
"Cerro Largo, UY","Puntas De Tacuari, UY","36200, UY"
"Cerro Largo, UY","Los Cerros, UY","36200, UY"
"Cerro Largo, UY","Rincon De Suarez, UY","36200, UY"
"Cerro Largo, UY","Paso De Los Carros, UY","36200, UY"
"Cerro Largo, UY","Calera De Recalde, UY","36200, UY"
"Cerro Largo, UY","Tres Islas, UY","36200, UY"
"Cerro Largo, UY","Quebracho, UY","36200, UY"
"Cerro Largo, UY","Fraile Muerto, UY","36200, UY"
"Cerro Largo, UY","Las Limas, UY","36200, UY"
"Cerro Largo, UY","Piñeiro, UY","36200, UY"
"Cerro Largo, UY","Coimbra, UY","36200, UY"
"Cerro Largo, UY","Rincon De La Urbana, UY","36200, UY"
"Cerro Largo, UY","Aguirre, UY","36200, UY"
"Cerro Largo, UY","Escuela De Agronomia, UY","37000, UY"
"Cerro Largo, UY","Saldañas, UY","37000, UY"
"Cerro Largo, UY","Chacras De Melo, UY","37000, UY"
"Cerro Largo, UY","Granja Pallero, UY","37000, UY"
"Cerro Largo, UY","San Diego, UY","37000, UY"
"Cerro Largo, UY","Bañado De Medina, UY","37000, UY"
"Cerro Largo, UY","La Pedrera, UY","37000, UY"
"Cerro Largo, UY","Paso De La Cruz, UY","37000, UY"
"Cerro Largo, UY","Paso De Las Yeguas, UY","37000, UY"
"Cerro Largo, UY","Granja De Acegua, UY","37000, UY"
"Cerro Largo, UY","Berachi, UY","37000, UY"
"Cerro Largo, UY","La Gloria, UY","37000, UY"
"Cerro Largo, UY","Puntas De La Mina, UY","37000, UY"
"Cerro Largo, UY","Puntas De Palleros, UY","37000, UY"
"Cerro Largo, UY","Rincon De Los Coroneles, UY","37000, UY"
"Cerro Largo, UY","Barrio La Vinchuca, UY","37000, UY"
"Cerro Largo, UY","Soto Goro, UY","37000, UY"
"Cerro Largo, UY","Asperezas, UY","37000, UY"
"Cerro Largo, UY","Rincon De Tacuari, UY","37000, UY"
"Cerro Largo, UY","Rodriguez, UY","37000, UY"
"Cerro Largo, UY","Buena Vista, UY","37000, UY"
"Cerro Largo, UY","Corral De Piedra, UY","37000, UY"
"Cerro Largo, UY","Centurion, UY","37000, UY"
"Cerro Largo, UY","Misterio, UY","37000, UY"
"Cerro Largo, UY","Amarillo, UY","37000, UY"
"Cerro Largo, UY","Caserio Las Cañas, UY","37000, UY"
"Cerro Largo, UY","Mazangano, UY","37000, UY"
"Cerro Largo, UY","Puntas De Amarillo, UY","37000, UY"
"Cerro Largo, UY","Montecito, UY","37000, UY"
"Cerro Largo, UY","Barrio Lopez Benitez, UY","37000, UY"
"Cerro Largo, UY","Guazunambi, UY","37000, UY"
"Cerro Largo, UY","Tres Boliches, UY","37000, UY"
"Cerro Largo, UY","Paso De Las Tropas, UY","37000, UY"
"Cerro Largo, UY","Ñangapire, UY","37000, UY"
"Cerro Largo, UY","Paso Melo, UY","37000, UY"
"Cerro Largo, UY","Falda De Sierra De Los Rios, UY","37000, UY"
"Cerro Largo, UY","Conventos, UY","37000, UY"
"Cerro Largo, UY","Puente Negro, UY","37000, UY"
"Cerro Largo, UY","Minuano De Acegua, UY","37000, UY"
"Cerro Largo, UY","Cuchilla De Melo, UY","37000, UY"
"Cerro Largo, UY","Colonia Maria Teresa, UY","37000, UY"
"Cerro Largo, UY","Cañada Sarandi, UY","37000, UY"
"Cerro Largo, UY","Cuchilla Del Paraiso, UY","37000, UY"
"Cerro Largo, UY","Puntas De Molles, UY","37000, UY"
"Cerro Largo, UY","Colonia Ceres, UY","37000, UY"
"Cerro Largo, UY","Sauce De Conventos, UY","37000, UY"
"Cerro Largo, UY","Colonia Orozco, UY","37000, UY"
"Cerro Largo, UY","Maria Isabel, UY","37000, UY"
"Cerro Largo, UY","La Mina, UY","37000, UY"
"Cerro Largo, UY","Cuchilla Peralta, UY","37000, UY"
"Cerro Largo, UY","Acegua, UY","37000, UY"
"Cerro Largo, UY","Peñarol, UY","37000, UY"
"Cerro Largo, UY","Infiernillo, UY","37000, UY"
"Cerro Largo, UY","Ramon Trigo, UY","37000, UY"
"Cerro Largo, UY","Hipodromo, UY","37000, UY"
"Cerro Largo, UY","Mangrullo, UY","37000, UY"
"Cerro Largo, UY","Melo, UY","37000, UY"
"Cerro Largo, UY","Nando, UY","37000, UY"
"Cerro Largo, UY","Panteon, UY","37000, UY"
"Cerro Largo, UY","Cañitas, UY","37000, UY"
"Cerro Largo, UY","Duraznero, UY","37000, UY"
"Cerro Largo, UY","La Micaela, UY","37000, UY"
"Cerro Largo, UY","Sarandi De Acegua, UY","37000, UY"
"Cerro Largo, UY","Arachania, UY","37000, UY"
"Cerro Largo, UY","Cuchilla Cambota, UY","37000, UY"
"Cerro Largo, UY","Rincon De Paiva, UY","37000, UY"
"Cerro Largo, UY","Villa Viñoles, UY","37000, UY"
"Cerro Largo, UY","Arbolito, UY","37000, UY"
"Cerro Largo, UY","Santa Teresa, UY","37000, UY"
"Cerro Largo, UY","Casa De Las Cronicas, UY","37000, UY"
"Cerro Largo, UY","Campamento, UY","37000, UY"
"Cerro Largo, UY","Isidoro Noblia, UY","37000, UY"
"Cerro Largo, UY","Cruz De Piedra, UY","37000, UY"
"Cerro Largo, UY","Cementerio, UY","37000, UY"
"Cerro Largo, UY","Uruguay, UY","37100, UY"
"Cerro Largo, UY","Barra Del Sauce, UY","37100, UY"
"Cerro Largo, UY","Arrozal Cesarone, UY","37100, UY"
"Cerro Largo, UY","Arrozal Rosales, UY","37100, UY"
"Cerro Largo, UY","Puntas Del Sauce, UY","37100, UY"
"Cerro Largo, UY","Presidente Doctor Getulio Vargas, UY","37100, UY"
"Cerro Largo, UY","Picada De Salome, UY","37100, UY"
"Cerro Largo, UY","Poblado Uruguay, UY","37100, UY"
"Cerro Largo, UY","Arroyo Malo, UY","37100, UY"
"Cerro Largo, UY","Picada De Maya, UY","37100, UY"
"Cerro Largo, UY","Lago Merin, UY","37100, UY"
"Cerro Largo, UY","Placido Rosas, UY","37100, UY"
"Cerro Largo, UY","Cañada Grande, UY","37100, UY"
"Cerro Largo, UY","Cañada De Santos, UY","37100, UY"
"Cerro Largo, UY","Rio Branco, UY","37100, UY"
"Cerro Largo, UY","Sarandi De Barcelo, UY","37100, UY"
"Cerro Largo, UY","San Servando, UY","37100, UY"
"Cerro Largo, UY","La Coronilla, UY","37100, UY"
"Cerro Largo, UY","Barra Del Tacuari, UY","37100, UY"
"Cerro Largo, UY","Sarandi De Yaguaron, UY","37100, UY"
"Cerro Largo, UY","Rincon De Los Olivera, UY","37100, UY"
"Cerro Largo, UY","Garao, UY","37100, UY"
"Cerro Largo, UY","Bañado De Las Pajas, UY","37100, UY"
"Cerro Largo, UY","Piedra Alta, UY","45000, UY"
"Cerro Largo, UY","Paso Pereira, UY","45000, UY"
"Cerro Largo, UY","Cañada Brava, UY","97000, UY"
"Colonia, UY","La Estanzuela, UY","70000, UY"
"Colonia, UY","El Semillero, UY","70000, UY"
"Colonia, UY","Riachuelo, UY","70000, UY"
"Colonia, UY","Santa Ana, UY","70000, UY"
"Colonia, UY","Puntas De San Pedro, UY","70000, UY"
"Colonia, UY","Conchillas, UY","70000, UY"
"Colonia, UY","Estancia Anchorena, UY","70000, UY"
"Colonia, UY","Martin Chico De Conchillas, UY","70000, UY"
"Colonia, UY","El General, UY","70000, UY"
"Colonia, UY","Puerto Platero, UY","70000, UY"
"Colonia, UY","El Caño, UY","70000, UY"
"Colonia, UY","Laguna De Los Patos, UY","70000, UY"
"Colonia, UY","Puerto Ingles, UY","70000, UY"
"Colonia, UY","San Pedro Norte, UY","70000, UY"
"Colonia, UY","Punta Francesa, UY","70000, UY"
"Colonia, UY","San Pedro De Arriba, UY","70000, UY"
"Colonia, UY","Estacion Experimental  La Estanzuela, UY","70000, UY"
"Colonia, UY","Real De Vera, UY","70000, UY"
"Colonia, UY","Radial Hernandez, UY","70000, UY"
"Colonia, UY","Minas De Narancio, UY","70000, UY"
"Colonia, UY","La Horqueta, UY","70000, UY"
"Colonia, UY","El Bañado, UY","70000, UY"
"Colonia, UY","Santa Rosa, UY","70000, UY"
"Colonia, UY","Cerros De San Juan, UY","70000, UY"
"Colonia, UY","Reducto, UY","70000, UY"
"Colonia, UY","El Ensueño, UY","70000, UY"
"Colonia, UY","Colonia Del Sacramento, UY","70000, UY"
"Colonia, UY","El Quinton, UY","70000, UY"
"Colonia, UY","Juan Carlos Caseros, UY","70000, UY"
"Colonia, UY","Piedra De Los Indios, UY","70000, UY"
"Colonia, UY","Quinton, UY","70000, UY"
"Colonia, UY","Artilleros, UY","70000, UY"
"Colonia, UY","San Pedro, UY","70000, UY"
"Colonia, UY","Lomas De Carmelo, UY","70100, UY"
"Colonia, UY","Colonia Arrue, UY","70100, UY"
"Colonia, UY","Carmelo, UY","70100, UY"
"Colonia, UY","Costas De Juan Gonzalez, UY","70100, UY"
"Colonia, UY","Curupi, UY","70100, UY"
"Colonia, UY","Costa De Vacas, UY","70100, UY"
"Colonia, UY","Martin Chico, UY","70100, UY"
"Colonia, UY","Buena Hora, UY","70100, UY"
"Colonia, UY","El Chileno, UY","70100, UY"
"Colonia, UY","El Cerro, UY","70100, UY"
"Colonia, UY","Viboras, UY","70100, UY"
"Colonia, UY","Caserio El Cerro, UY","70100, UY"
"Colonia, UY","Cerro Carmelo, UY","70100, UY"
"Colonia, UY","El Faro, UY","70100, UY"
"Colonia, UY","Colonia Estrella, UY","70100, UY"
"Colonia, UY","Juan Gonzalez, UY","70100, UY"
"Colonia, UY","Viboras Y Vacas, UY","70100, UY"
"Colonia, UY","Zagarzazu, UY","70100, UY"
"Colonia, UY","Puerto Concordia, UY","70200, UY"
"Colonia, UY","Pastoreo, UY","70200, UY"
"Colonia, UY","Minuano Y Sauce, UY","70200, UY"
"Colonia, UY","Costas De Polonia, UY","70200, UY"
"Colonia, UY","Puerto Rosario, UY","70200, UY"
"Colonia, UY","La Paz, UY","70200, UY"
"Colonia, UY","Radial Rosario, UY","70200, UY"
"Colonia, UY","Costa Del Navarro, UY","70200, UY"
"Colonia, UY","Colonia Talice, UY","70200, UY"
"Colonia, UY","Costa De Colla Al Este, UY","70200, UY"
"Colonia, UY","Puntas Del Rosario, UY","70200, UY"
"Colonia, UY","Rosario, UY","70200, UY"
"Colonia, UY","Paso Morlan, UY","70200, UY"
"Colonia, UY","Barker Norte, UY","70200, UY"
"Colonia, UY","Barker, UY","70200, UY"
"Colonia, UY","Rosario Y Colla, UY","70200, UY"
"Colonia, UY","Media Agua, UY","70200, UY"
"Colonia, UY","Tres Esquinas, UY","70200, UY"
"Colonia, UY","Terminal, UY","70200, UY"
"Colonia, UY","Paso Quicho, UY","70200, UY"
"Colonia, UY","Colonia Peirano, UY","70200, UY"
"Colonia, UY","Picada De Benitez, UY","70300, UY"
"Colonia, UY","Paso De La Quinta, UY","70300, UY"
"Colonia, UY","Los Pinos, UY","70300, UY"
"Colonia, UY","Nueva Helvecia, UY","70300, UY"
"Colonia, UY","Campamento Artigas, UY","70300, UY"
"Colonia, UY","La Sierra, UY","70300, UY"
"Colonia, UY","Costa De Rosario, UY","70300, UY"
"Colonia, UY","Colonia Española, UY","70300, UY"
"Colonia, UY","Bonjour, UY","70300, UY"
"Colonia, UY","Concordia, UY","70300, UY"
"Colonia, UY","Cufre, UY","70300, UY"
"Colonia, UY","Barrancas Coloradas, UY","70300, UY"
"Colonia, UY","Blanca Arena, UY","70300, UY"
"Colonia, UY","Playa Parant, UY","70300, UY"
"Colonia, UY","Playa Britopolis, UY","70300, UY"
"Colonia, UY","Playa Azul, UY","70300, UY"
"Colonia, UY","Brisas Del Plata, UY","70300, UY"
"Colonia, UY","Barrio Mendaña, UY","70300, UY"
"Colonia, UY","Cerros Negros, UY","70300, UY"
"Colonia, UY","Santa Regina, UY","70300, UY"
"Colonia, UY","Playa Fomento, UY","70300, UY"
"Colonia, UY","Boca Del Rosario, UY","70300, UY"
"Colonia, UY","Rincon Del Rey, UY","70300, UY"
"Colonia, UY","Barrio Olimpico, UY","70300, UY"
"Colonia, UY","Colonia Quevedo, UY","70300, UY"
"Colonia, UY","Resguardo Cufre, UY","70300, UY"
"Colonia, UY","Chico Torino, UY","70400, UY"
"Colonia, UY","Colonia Valdense, UY","70400, UY"
"Colonia, UY","Paraje Minuano, UY","70500, UY"
"Colonia, UY","Tomas Bell, UY","70500, UY"
"Colonia, UY","Boca Del Rosario Oeste, UY","70500, UY"
"Colonia, UY","Juan Lacaze, UY","70500, UY"
"Colonia, UY","Villa Pancha, UY","70500, UY"
"Colonia, UY","Arrivillaga, UY","70500, UY"
"Colonia, UY","Colonia Cosmopolita, UY","70500, UY"
"Colonia, UY","Puntas Del Riachuelo, UY","70600, UY"
"Colonia, UY","Paso Antolin, UY","70600, UY"
"Colonia, UY","San Juan, UY","70600, UY"
"Colonia, UY","San Luis Sanchez, UY","70600, UY"
"Colonia, UY","Tarariras, UY","70600, UY"
"Colonia, UY","Puntas De Melo, UY","70600, UY"
"Colonia, UY","Paso Hospital, UY","70600, UY"
"Colonia, UY","San Luis, UY","70600, UY"
"Colonia, UY","San Luis De Tarariras, UY","70600, UY"
"Colonia, UY","Puntas Del Sauce, UY","70600, UY"
"Colonia, UY","Costa De Tarariras, UY","70600, UY"
"Colonia, UY","Las Flores, UY","70700, UY"
"Colonia, UY","Belgrano Sur, UY","70700, UY"
"Colonia, UY","Nueva Palmira, UY","70700, UY"
"Colonia, UY","Belgrano Norte, UY","70700, UY"
"Colonia, UY","Polancos, UY","70700, UY"
"Colonia, UY","Gil, UY","70800, UY"
"Colonia, UY","Sarandi Campana, UY","70800, UY"
"Colonia, UY","Cerro De Las Armas, UY","70800, UY"
"Colonia, UY","Puntas De San Juan, UY","70800, UY"
"Colonia, UY","Colonia Miguelete, UY","70800, UY"
"Colonia, UY","San Roque, UY","70800, UY"
"Colonia, UY","Piedras Blancas, UY","70800, UY"
"Colonia, UY","Ombues De Lavalle, UY","70800, UY"
"Colonia, UY","Puntas De Juan Gonzalez, UY","70800, UY"
"Colonia, UY","El Cuadro, UY","70800, UY"
"Colonia, UY","Miguelete De Conchillas, UY","70800, UY"
"Colonia, UY","Campana, UY","70800, UY"
"Colonia, UY","Manantiales, UY","70800, UY"
"Colonia, UY","Molles De Miguelete, UY","70800, UY"
"Colonia, UY","Las Chispas, UY","70800, UY"
"Colonia, UY","Costas De San Juan, UY","70800, UY"
"Colonia, UY","Paso Hospital Manantiales, UY","70800, UY"
"Colonia, UY","Colonia Sarandi, UY","70800, UY"
"Colonia, UY","Juan Jackson, UY","75200, UY"
"Colonia, UY","Zunin, UY","75200, UY"
"Colonia, UY","Paso Birriel, UY","75200, UY"
"Colonia, UY","Florencio Sanchez, UY","75200, UY"
"Colonia, UY","Piedra Chata, UY","75200, UY"
"Durazno, UY","Parada Sur, UY","45100, UY"
"Durazno, UY","Sarandi De La China, UY","45100, UY"
"Durazno, UY","Parish, UY","45100, UY"
"Durazno, UY","Molles Chico, UY","45100, UY"
"Durazno, UY","Pueblo Centenario, UY","45100, UY"
"Durazno, UY","Palmar De Porrua, UY","65100, UY"
"Durazno, UY","Blanquillo, UY","97000, UY"
"Durazno, UY","Chileno Grande (Aguero), UY","97000, UY"
"Durazno, UY","Rincon De Cuadra, UY","97000, UY"
"Durazno, UY","Batovi, UY","97000, UY"
"Durazno, UY","La Mazamorra, UY","97000, UY"
"Durazno, UY","Blanquillo Al Oeste, UY","97000, UY"
"Durazno, UY","Paso Real De Carpinteria, UY","97000, UY"
"Durazno, UY","Caballero, UY","97000, UY"
"Durazno, UY","Los Tapes, UY","97000, UY"
"Durazno, UY","Barrancas Coloradas, UY","97000, UY"
"Durazno, UY","Paso Tejera, UY","97000, UY"
"Durazno, UY","Puntas De Carpinteria, UY","97000, UY"
"Durazno, UY","Las Cañas, UY","97000, UY"
"Durazno, UY","Capilla De Farruco, UY","97000, UY"
"Durazno, UY","Cerrezuelo, UY","97000, UY"
"Durazno, UY","Ombues De Oribe, UY","97000, UY"
"Durazno, UY","Maria Cejas, UY","97000, UY"
"Durazno, UY","Pueblo De Alvarez, UY","97000, UY"
"Durazno, UY","Higueras De Carpinteria, UY","97000, UY"
"Durazno, UY","Chileno Chico, UY","97000, UY"
"Durazno, UY","Las Palmas, UY","97000, UY"
"Durazno, UY","Cerro Convento, UY","97000, UY"
"Durazno, UY","Salinas Chico, UY","97000, UY"
"Durazno, UY","Villa Del Carmen, UY","97000, UY"
"Durazno, UY","Feliciano, UY","97000, UY"
"Durazno, UY","Aguas Buenas, UY","97000, UY"
"Durazno, UY","Abella, UY","97000, UY"
"Durazno, UY","Las Tunas, UY","97000, UY"
"Durazno, UY","Sarandi De Rio Negro, UY","97000, UY"
"Durazno, UY","Salinas, UY","97000, UY"
"Durazno, UY","Estacion Chileno, UY","97000, UY"
"Durazno, UY","Mariscala Del Carmen, UY","97000, UY"
"Durazno, UY","Rincon De Los Tapes, UY","97000, UY"
"Durazno, UY","Sauce De Herrera, UY","97000, UY"
"Durazno, UY","Municipio De Durazno, UY","97000, UY"
"Durazno, UY","Chacras De Durazno, UY","97000, UY"
"Durazno, UY","Cuchilla Del Rincon, UY","97000, UY"
"Durazno, UY","Cuchilla De Ramirez, UY","97000, UY"
"Durazno, UY","Tejera, UY","97000, UY"
"Durazno, UY","Fonseca, UY","97000, UY"
"Durazno, UY","Los Agregados, UY","97000, UY"
"Durazno, UY","Paso Ramirez, UY","97000, UY"
"Durazno, UY","Sandu Chico, UY","97000, UY"
"Durazno, UY","Las Acacias, UY","97000, UY"
"Durazno, UY","Puglia, UY","97000, UY"
"Durazno, UY","Molles De Quinteros, UY","97000, UY"
"Durazno, UY","San Jorge, UY","97000, UY"
"Durazno, UY","Santa Bernardina, UY","97000, UY"
"Durazno, UY","Barrio Duran, UY","97000, UY"
"Durazno, UY","Durazno, UY","97000, UY"
"Durazno, UY","La Alegria, UY","97000, UY"
"Durazno, UY","Arroyo De Los Perros, UY","97000, UY"
"Durazno, UY","Rolon, UY","97000, UY"
"Durazno, UY","La Paloma, UY","97000, UY"
"Durazno, UY","Ceibal, UY","97000, UY"
"Durazno, UY","Costa De Cuadra, UY","97000, UY"
"Durazno, UY","Villasboas, UY","97000, UY"
"Durazno, UY","San Jose De Las Cañas, UY","97000, UY"
"Durazno, UY","Chileno, UY","97000, UY"
"Durazno, UY","Maestre Campo, UY","97000, UY"
"Durazno, UY","Verdun, UY","97000, UY"
"Durazno, UY","Baygorria, UY","97000, UY"
"Durazno, UY","Carlos Reyles, UY","97000, UY"
"Durazno, UY","Mouriño, UY","97000, UY"
"Durazno, UY","Paso De Castro, UY","98000, UY"
"Durazno, UY","Puntas De Malbajar, UY","98000, UY"
"Durazno, UY","Paso De Aguirre, UY","98000, UY"
"Durazno, UY","Sarandi Del Yi, UY","98000, UY"
"Durazno, UY","De Dios, UY","98000, UY"
"Durazno, UY","Malbajar Este, UY","98000, UY"
"Durazno, UY","Rossell Y Rius, UY","98000, UY"
"Durazno, UY","Puntas De Herrera, UY","98000, UY"
"Durazno, UY","Malbajar Oeste, UY","98000, UY"
"Durazno, UY","Paso Del Medio Las Palmas, UY","98000, UY"
"Durazno, UY","Tala De Mariscala, UY","98000, UY"
"Durazno, UY","Mariscala, UY","98000, UY"
"Durazno, UY","Elias Regules, UY","98000, UY"
"Flores, UY","Arenal Grande, UY","85000, UY"
"Flores, UY","Cuchilla De Villasboas, UY","85000, UY"
"Flores, UY","Rincon Del Palacio, UY","85000, UY"
"Flores, UY","Villasboas, UY","85000, UY"
"Flores, UY","Puntas De San Jose, UY","85000, UY"
"Flores, UY","Los Puentes, UY","85000, UY"
"Flores, UY","Puntas De Chamanga, UY","85000, UY"
"Flores, UY","San Gregorio De Flores, UY","85000, UY"
"Flores, UY","La Alianza, UY","85000, UY"
"Flores, UY","Cañada Amilivia, UY","85000, UY"
"Flores, UY","Puntas De Sarandi, UY","85000, UY"
"Flores, UY","La Guardia, UY","85000, UY"
"Flores, UY","Chacras De Borghi, UY","85000, UY"
"Flores, UY","Puntas De Marincho, UY","85000, UY"
"Flores, UY","Marincho, UY","85000, UY"
"Flores, UY","Cerro Colorado, UY","85000, UY"
"Flores, UY","Trinidad, UY","85000, UY"
"Flores, UY","Pueblo Pintos, UY","85000, UY"
"Flores, UY","Arenal Chico, UY","85000, UY"
"Flores, UY","Colonia Alemana, UY","85000, UY"
"Flores, UY","El Totoral, UY","85000, UY"
"Flores, UY","Costas De San Jose, UY","85000, UY"
"Flores, UY","Arroyo Malo, UY","85000, UY"
"Flores, UY","Juan Jose Castro, UY","85000, UY"
"Flores, UY","El Coronilla, UY","85000, UY"
"Flores, UY","Andresito, UY","85000, UY"
"Flores, UY","Sarandi, UY","85000, UY"
"Flores, UY","Santa Adelaida, UY","85000, UY"
"Flores, UY","Paso Hondo, UY","85000, UY"
"Flores, UY","Chacras, UY","85000, UY"
"Flores, UY","Villa Pastora, UY","85000, UY"
"Flores, UY","Ferrizo, UY","85000, UY"
"Flores, UY","Paso  De Lugo, UY","85000, UY"
"Flores, UY","Costas Del Tala, UY","85000, UY"
"Flores, UY","La Casilla, UY","85000, UY"
"Flores, UY","Ismael Cortinas, UY","85000, UY"
"Flores, UY","Puntas Del Sauce, UY","85000, UY"
"Flores, UY","Puntas Del Corral De Piedra, UY","94100, UY"
"Flores, UY","Talas De Maciel, UY","94100, UY"
"Flores, UY","Ahogados, UY","94100, UY"
"Flores, UY","La Cordobesa, UY","97000, UY"
"Florida, UY","Molles Del Pescado, UY","34200, UY"
"Florida, UY","Arrayan, UY","34200, UY"
"Florida, UY","Nico Perez, UY","34200, UY"
"Florida, UY","Puntas De Illescas, UY","34200, UY"
"Florida, UY","Pueblo De Los Morochos, UY","35100, UY"
"Florida, UY","Berrondo, UY","94000, UY"
"Florida, UY","La Macana, UY","94000, UY"
"Florida, UY","Juncal, UY","94000, UY"
"Florida, UY","San Juan, UY","94000, UY"
"Florida, UY","Santa Teresa, UY","94000, UY"
"Florida, UY","San Gabriel, UY","94000, UY"
"Florida, UY","Candil, UY","94000, UY"
"Florida, UY","Villa Vieja, UY","94000, UY"
"Florida, UY","Palermo, UY","94000, UY"
"Florida, UY","Florida, UY","94000, UY"
"Florida, UY","La Cruz, UY","94000, UY"
"Florida, UY","Talita, UY","94000, UY"
"Florida, UY","Paso Calleros, UY","94000, UY"
"Florida, UY","Tala De Castro, UY","94000, UY"
"Florida, UY","Chacras Del Pintado, UY","94000, UY"
"Florida, UY","San Pedro De Timote, UY","94000, UY"
"Florida, UY","San Geronimo, UY","94000, UY"
"Florida, UY","Cerro De La Macana, UY","94000, UY"
"Florida, UY","Chacras De Florida, UY","94000, UY"
"Florida, UY","Costa De La Cruz, UY","94000, UY"
"Florida, UY","Urioste, UY","94000, UY"
"Florida, UY","Pantanoso De Castro, UY","94000, UY"
"Florida, UY","Molles Del Timote, UY","94000, UY"
"Florida, UY","Dr. A. Gallinal, UY","94000, UY"
"Florida, UY","Costas De Arias, UY","94000, UY"
"Florida, UY","Cerros De Florida, UY","94000, UY"
"Florida, UY","Costas Del Pintado, UY","94000, UY"
"Florida, UY","Tornero, UY","94000, UY"
"Florida, UY","Puntas De Calleros, UY","94000, UY"
"Florida, UY","Hernandarias, UY","94000, UY"
"Florida, UY","Colonia Sanchez, UY","94000, UY"
"Florida, UY","Las Piedritas, UY","94000, UY"
"Florida, UY","Costa De Arias, UY","94000, UY"
"Florida, UY","La Cimbra, UY","94100, UY"
"Florida, UY","Cuchilla Santo Domingo, UY","94100, UY"
"Florida, UY","Tala De Maciel, UY","94100, UY"
"Florida, UY","Costa Del Tala, UY","94100, UY"
"Florida, UY","Sauce De Maciel, UY","94100, UY"
"Florida, UY","Calleri, UY","94100, UY"
"Florida, UY","Arroyo De Los Negros, UY","94100, UY"
"Florida, UY","Puntas De Sarandi, UY","94100, UY"
"Florida, UY","Caserio La Fundacion, UY","94100, UY"
"Florida, UY","Sarandi Grande, UY","94100, UY"
"Florida, UY","Pintado, UY","94100, UY"
"Florida, UY","Costa De Parana, UY","94100, UY"
"Florida, UY","Puntas De Maciel, UY","94100, UY"
"Florida, UY","Puntas De Sauce De Maciel, UY","94100, UY"
"Florida, UY","Villa Hipica, UY","94100, UY"
"Florida, UY","Polanco Del Yi, UY","94100, UY"
"Florida, UY","Corral De Piedra, UY","94100, UY"
"Florida, UY","Costas De Maciel, UY","94100, UY"
"Florida, UY","Piedras Coloradas, UY","94100, UY"
"Florida, UY","Paso Vela, UY","95100, UY"
"Florida, UY","Paso De Los Novillos, UY","95100, UY"
"Florida, UY","25 De Mayo, UY","95100, UY"
"Florida, UY","Costas De Santa Lucia Chico, UY","95200, UY"
"Florida, UY","Cardal, UY","95200, UY"
"Florida, UY","Independencia, UY","95300, UY"
"Florida, UY","25 De Agosto, UY","95400, UY"
"Florida, UY","Mendoza Grande, UY","95500, UY"
"Florida, UY","Puente De Mendoza, UY","95500, UY"
"Florida, UY","Arroyo Pelado, UY","95500, UY"
"Florida, UY","Rincon De Vignoli, UY","95500, UY"
"Florida, UY","Mendoza Chico, UY","95600, UY"
"Florida, UY","Chamizo, UY","96100, UY"
"Florida, UY","Costas Del Santa Lucia Grande, UY","96100, UY"
"Florida, UY","Costas De Chamizo, UY","96100, UY"
"Florida, UY","Chamizo Chico, UY","96100, UY"
"Florida, UY","La Escobilla, UY","96200, UY"
"Florida, UY","Arroyo Chamizo, UY","96200, UY"
"Florida, UY","Arroyo Latorre, UY","96200, UY"
"Florida, UY","Costas De Chamizo Grande, UY","96200, UY"
"Florida, UY","Puntas De La Escobilla, UY","96200, UY"
"Florida, UY","Fray Marcos, UY","96200, UY"
"Florida, UY","Puntas Del Arroyo Latorre, UY","96200, UY"
"Florida, UY","Puntas De Chamizo, UY","96300, UY"
"Florida, UY","Vignoli, UY","96300, UY"
"Florida, UY","Costas Del Amarillo, UY","96300, UY"
"Florida, UY","Casupa, UY","96300, UY"
"Florida, UY","Reboledo, UY","96400, UY"
"Florida, UY","Piedra Campana, UY","96400, UY"
"Florida, UY","Puntas De Chamame, UY","96500, UY"
"Florida, UY","Alejandro Gallinal, UY","96500, UY"
"Florida, UY","Paso Real De Mansavillagra, UY","96500, UY"
"Florida, UY","Puntas De Mansavillagra, UY","96500, UY"
"Florida, UY","Arteaga, UY","96500, UY"
"Florida, UY","Sauce De Villanueva, UY","97000, UY"
"Florida, UY","Goñi, UY","97000, UY"
"Florida, UY","Rincon De Los Camilos, UY","97000, UY"
"Florida, UY","Sauce Del Yi, UY","97000, UY"
"Florida, UY","Mansavillagra, UY","98000, UY"
"Florida, UY","Chilcas, UY","98000, UY"
"Florida, UY","Estacion Capilla Del Sauce, UY","98000, UY"
"Florida, UY","Arroyo Monzon, UY","98000, UY"
"Florida, UY","Tabare, UY","98000, UY"
"Florida, UY","Costa De Illescas, UY","98000, UY"
"Florida, UY","La Palma, UY","98000, UY"
"Florida, UY","Chingolas, UY","98000, UY"
"Florida, UY","Santa Clara, UY","98000, UY"
"Florida, UY","Ferrer, UY","98000, UY"
"Florida, UY","Montecoral, UY","98000, UY"
"Florida, UY","Barra Sauce De Mansavillagra, UY","98000, UY"
"Florida, UY","Rincon Sauce Del Yi, UY","98000, UY"
"Florida, UY","La Victoria, UY","98000, UY"
"Florida, UY","Barra Molles Del Timote, UY","98000, UY"
"Florida, UY","Capilla Del Sauce, UY","98000, UY"
"Lavalleja, UY","Pororo, UY","20500, UY"
"Lavalleja, UY","Marmaraja, UY","20500, UY"
"Lavalleja, UY","Paso De Los Troncos, UY","20500, UY"
"Lavalleja, UY","Puente De Marmaraja, UY","20500, UY"
"Lavalleja, UY","Tapes Grande, UY","30000, UY"
"Lavalleja, UY","Puntas De Solis, UY","30000, UY"
"Lavalleja, UY","Consejo Del Niño, UY","30000, UY"
"Lavalleja, UY","Blanes Viale, UY","30000, UY"
"Lavalleja, UY","Costa Del Lenguazo, UY","30000, UY"
"Lavalleja, UY","El Perdido, UY","30000, UY"
"Lavalleja, UY","Estacion Andreoni, UY","30000, UY"
"Lavalleja, UY","Ortiz Castro, UY","30000, UY"
"Lavalleja, UY","Villa Del Rosario, UY","30000, UY"
"Lavalleja, UY","Estacion Solis, UY","30000, UY"
"Lavalleja, UY","Tapes Chico, UY","30000, UY"
"Lavalleja, UY","Barrio La Coronilla - Ancap, UY","30000, UY"
"Lavalleja, UY","Sierras Blancas, UY","30000, UY"
"Lavalleja, UY","Puntas De Los Chanchos, UY","30000, UY"
"Lavalleja, UY","Puntas De Vejigas, UY","30000, UY"
"Lavalleja, UY","Puntas Del Perdido, UY","30000, UY"
"Lavalleja, UY","Paso De Mesa, UY","30000, UY"
"Lavalleja, UY","Molles De Aigua, UY","30000, UY"
"Lavalleja, UY","Chamame, UY","30000, UY"
"Lavalleja, UY","Puntas De San Francisco, UY","30000, UY"
"Lavalleja, UY","Roldan, UY","30000, UY"
"Lavalleja, UY","Verdun, UY","30000, UY"
"Lavalleja, UY","Arequita, UY","30000, UY"
"Lavalleja, UY","Minas, UY","30000, UY"
"Lavalleja, UY","Arroyo Del Medio, UY","30000, UY"
"Lavalleja, UY","Los Tapes, UY","30000, UY"
"Lavalleja, UY","Casupa Chico, UY","30000, UY"
"Lavalleja, UY","Valle De Solis, UY","30000, UY"
"Lavalleja, UY","Costas Del Soldado, UY","30000, UY"
"Lavalleja, UY","Puntas De Polanco, UY","30000, UY"
"Lavalleja, UY","Espuelitas, UY","30000, UY"
"Lavalleja, UY","Puntas De Barriga Negra, UY","30000, UY"
"Lavalleja, UY","Canteras Del Verdun, UY","30000, UY"
"Lavalleja, UY","El Tigre, UY","30000, UY"
"Lavalleja, UY","Ombues De Bentancor, UY","30000, UY"
"Lavalleja, UY","Barra De Los Chanchos, UY","30000, UY"
"Lavalleja, UY","Manguera Azul, UY","30000, UY"
"Lavalleja, UY","Arroyo De Los Patos, UY","30000, UY"
"Lavalleja, UY","Soldado, UY","30000, UY"
"Lavalleja, UY","Abra De Zabaleta, UY","30000, UY"
"Lavalleja, UY","Rincon De Silva, UY","30000, UY"
"Lavalleja, UY","San Francisco De Las Sierras, UY","30000, UY"
"Lavalleja, UY","Barriga Negra, UY","30000, UY"
"Lavalleja, UY","El Alto, UY","30000, UY"
"Lavalleja, UY","Cerro Pelado, UY","30000, UY"
"Lavalleja, UY","Marco De Los Reyes, UY","30000, UY"
"Lavalleja, UY","Piraraja, UY","30000, UY"
"Lavalleja, UY","Las Achiras, UY","30000, UY"
"Lavalleja, UY","Velazquez, UY","30000, UY"
"Lavalleja, UY","Santa Lucia, UY","30000, UY"
"Lavalleja, UY","Campanero, UY","30000, UY"
"Lavalleja, UY","Mariscala, UY","30000, UY"
"Lavalleja, UY","El Soldado, UY","30000, UY"
"Lavalleja, UY","Barrancas, UY","30000, UY"
"Lavalleja, UY","Polanco, UY","30000, UY"
"Lavalleja, UY","Polanco Norte, UY","30000, UY"
"Lavalleja, UY","Estacion Ortiz, UY","30000, UY"
"Lavalleja, UY","Solis, UY","30000, UY"
"Lavalleja, UY","Puntas De Santa Lucia, UY","30000, UY"
"Lavalleja, UY","Vejigas, UY","30000, UY"
"Lavalleja, UY","Ladrillos, UY","30000, UY"
"Lavalleja, UY","Polanco Sur, UY","30000, UY"
"Lavalleja, UY","Higueritas, UY","30000, UY"
"Lavalleja, UY","La Cuchilla, UY","30000, UY"
"Lavalleja, UY","Colon, UY","30000, UY"
"Lavalleja, UY","Rincon De Mariscala, UY","30000, UY"
"Lavalleja, UY","La Plata, UY","30000, UY"
"Lavalleja, UY","Villa Serrana, UY","30000, UY"
"Lavalleja, UY","Solis De Mataojo, UY","30100, UY"
"Lavalleja, UY","Paso Arbelo, UY","30100, UY"
"Lavalleja, UY","Aguas Blancas, UY","30100, UY"
"Lavalleja, UY","Retamosa, UY","30300, UY"
"Lavalleja, UY","Molles De Cañada Grande, UY","30300, UY"
"Lavalleja, UY","Aramendia, UY","30300, UY"
"Lavalleja, UY","19 De Junio, UY","30300, UY"
"Lavalleja, UY","Carnales, UY","30300, UY"
"Lavalleja, UY","Alonso, UY","30300, UY"
"Lavalleja, UY","Jose Pedro Varela, UY","30300, UY"
"Lavalleja, UY","Gutierrez, UY","30300, UY"
"Lavalleja, UY","Azucar, UY","30300, UY"
"Lavalleja, UY","Costas De Corrales, UY","30300, UY"
"Lavalleja, UY","Rincon De Cebollati, UY","30300, UY"
"Lavalleja, UY","Sarandi De Gutierrez, UY","30300, UY"
"Lavalleja, UY","Molles Del Sauce, UY","34100, UY"
"Lavalleja, UY","Zapican, UY","34100, UY"
"Lavalleja, UY","Sauce De Olimar Chico, UY","34100, UY"
"Lavalleja, UY","Illescas, UY","34200, UY"
"Lavalleja, UY","Godoy, UY","34200, UY"
"Lavalleja, UY","Larrosa, UY","34200, UY"
"Lavalleja, UY","Jose Batlle Y Ordoñez, UY","34200, UY"
"Lavalleja, UY","Solis Grande, UY","91700, UY"
"Lavalleja, UY","Gaetan (Cuchilla De Carbajal), UY","96300, UY"
"Maldonado, UY","Puntas De Pan De Azucar, UY","20000, UY"
"Maldonado, UY","El Chorro, UY","20000, UY"
"Maldonado, UY","Arenas De Jose Ignacio, UY","20000, UY"
"Maldonado, UY","La Juanita, UY","20000, UY"
"Maldonado, UY","Rincon Del Indio, UY","20000, UY"
"Maldonado, UY","Maldonado, UY","20000, UY"
"Maldonado, UY","Villa Delia, UY","20000, UY"
"Maldonado, UY","Chihuahua, UY","20000, UY"
"Maldonado, UY","Punta Ballena, UY","20000, UY"
"Maldonado, UY","El Eden, UY","20000, UY"
"Maldonado, UY","La Sonrisa, UY","20000, UY"
"Maldonado, UY","Canteras De Marelli, UY","20000, UY"
"Maldonado, UY","Faro Jose Ignacio Norte, UY","20000, UY"
"Maldonado, UY","Portezuelo, UY","20000, UY"
"Maldonado, UY","Sauce De Portezuelo, UY","20000, UY"
"Maldonado, UY","Buenos Aires, UY","20000, UY"
"Maldonado, UY","Barra Del Sauce, UY","20000, UY"
"Maldonado, UY","Las Cumbres, UY","20000, UY"
"Maldonado, UY","La Barra, UY","20000, UY"
"Maldonado, UY","Los Corchos, UY","20000, UY"
"Maldonado, UY","Sarandi Del Mataojo, UY","20000, UY"
"Maldonado, UY","Barrio Kennedy, UY","20000, UY"
"Maldonado, UY","Santa Monica, UY","20000, UY"
"Maldonado, UY","Los Aromos, UY","20000, UY"
"Maldonado, UY","Mataojo, UY","20000, UY"
"Maldonado, UY","Balneario Buenos Aires, UY","20000, UY"
"Maldonado, UY","Cerro Pelado, UY","20000, UY"
"Maldonado, UY","Laguna Blanca, UY","20000, UY"
"Maldonado, UY","Laguna Del Sauce, UY","20000, UY"
"Maldonado, UY","Puntas De Mataojo, UY","20000, UY"
"Maldonado, UY","Punta Del Este, UY","20000, UY"
"Maldonado, UY","Manantiales, UY","20000, UY"
"Maldonado, UY","Rincon De Los Sosa, UY","20000, UY"
"Maldonado, UY","La Capuera, UY","20000, UY"
"Maldonado, UY","Pinares - Las Delicias, UY","20000, UY"
"Maldonado, UY","Eden Rock, UY","20000, UY"
"Maldonado, UY","Faro Jose Ignacio, UY","20000, UY"
"Maldonado, UY","San Rafael - El Placer, UY","20000, UY"
"Maldonado, UY","Ocean Park, UY","20000, UY"
"Maldonado, UY","El Tesoro, UY","20000, UY"
"Maldonado, UY","Barrio Hipodromo, UY","20000, UY"
"Maldonado, UY","San Juan Del Este, UY","20000, UY"
"Maldonado, UY","Zanja Del Tigre, UY","20000, UY"
"Maldonado, UY","Lago De Los Cisnes, UY","20000, UY"
"Maldonado, UY","San Vicente, UY","20000, UY"
"Maldonado, UY","Colonia J. Suarez, UY","20200, UY"
"Maldonado, UY","Punta Colorada, UY","20200, UY"
"Maldonado, UY","Playa Grande, UY","20200, UY"
"Maldonado, UY","San Francisco, UY","20200, UY"
"Maldonado, UY","Las Flores, UY","20200, UY"
"Maldonado, UY","Piriapolis, UY","20200, UY"
"Maldonado, UY","Barra De Portezuelo, UY","20200, UY"
"Maldonado, UY","La Falda, UY","20200, UY"
"Maldonado, UY","Bella Vista, UY","20200, UY"
"Maldonado, UY","Playa Hermosa, UY","20200, UY"
"Maldonado, UY","Las Flores - Estacion, UY","20200, UY"
"Maldonado, UY","Solis, UY","20200, UY"
"Maldonado, UY","Punta Negra, UY","20200, UY"
"Maldonado, UY","Playa Verde, UY","20200, UY"
"Maldonado, UY","Pueblo Solis, UY","20300, UY"
"Maldonado, UY","Cerros Azules, UY","20300, UY"
"Maldonado, UY","Gerona, UY","20300, UY"
"Maldonado, UY","Gregorio Aznarez, UY","20300, UY"
"Maldonado, UY","La Sierra, UY","20300, UY"
"Maldonado, UY","Pan De Azucar, UY","20300, UY"
"Maldonado, UY","Nueva Carrara, UY","20300, UY"
"Maldonado, UY","Ruta 37 Y 9, UY","20300, UY"
"Maldonado, UY","Puntas De La Sierra, UY","20300, UY"
"Maldonado, UY","Pago De La Paja, UY","20400, UY"
"Maldonado, UY","Abra De Perdomo, UY","20400, UY"
"Maldonado, UY","Las Cañas, UY","20400, UY"
"Maldonado, UY","Parque Medina, UY","20400, UY"
"Maldonado, UY","Jose Ignacio, UY","20400, UY"
"Maldonado, UY","San Carlos, UY","20400, UY"
"Maldonado, UY","Partido Oeste, UY","20400, UY"
"Maldonado, UY","Corte De La Leña, UY","20400, UY"
"Maldonado, UY","Arroyito De Medina, UY","20400, UY"
"Maldonado, UY","Carape, UY","20400, UY"
"Maldonado, UY","Alfaro, UY","20400, UY"
"Maldonado, UY","Carlos Cal, UY","20400, UY"
"Maldonado, UY","Cañada Bellaca, UY","20400, UY"
"Maldonado, UY","Puntas Del Campanera, UY","20400, UY"
"Maldonado, UY","Paso De La Cantera, UY","20400, UY"
"Maldonado, UY","El Quijote, UY","20400, UY"
"Maldonado, UY","Costas De Jose Ignacio, UY","20400, UY"
"Maldonado, UY","Partido Norte, UY","20400, UY"
"Maldonado, UY","Molles De Garzon, UY","20400, UY"
"Maldonado, UY","Cañada De La Cruz, UY","20400, UY"
"Maldonado, UY","Los Ceibos, UY","20400, UY"
"Maldonado, UY","Garzon, UY","20400, UY"
"Maldonado, UY","Guardia Vieja, UY","20400, UY"
"Maldonado, UY","Puntas De Jose Ignacio, UY","20400, UY"
"Maldonado, UY","Valdivia, UY","20500, UY"
"Maldonado, UY","Alferez, UY","20500, UY"
"Maldonado, UY","Salamanca, UY","20500, UY"
"Maldonado, UY","Sauce De Aigua, UY","20500, UY"
"Maldonado, UY","Sarandi De Aigua, UY","20500, UY"
"Maldonado, UY","Paso De Los Talas, UY","20500, UY"
"Maldonado, UY","Coronilla, UY","20500, UY"
"Maldonado, UY","Aigua, UY","20500, UY"
"Maldonado, UY","Los Talas, UY","27300, UY"
"Maldonado, UY","Rincon De Aparicio, UY","27300, UY"
"Maldonado, UY","Abra De Castellanos, UY","30100, UY"
"Montevideo, UY","Puerto, UY","11000, UY"
"Montevideo, UY","Ciudad Vieja, UY","11000, UY"
"Montevideo, UY","Barrio Sur, UY","11100, UY"
"Montevideo, UY","Centro, UY","11100, UY"
"Montevideo, UY","Palermo, UY","11200, UY"
"Montevideo, UY","Cordon, UY","11200, UY"
"Montevideo, UY","Parque Rodo, UY","11200, UY"
"Montevideo, UY","Pocitos, UY","11300, UY"
"Montevideo, UY","Punta Carretas, UY","11300, UY"
"Montevideo, UY","Malvin Norte, UY","11400, UY"
"Montevideo, UY","Punta Gorda, UY","11400, UY"
"Montevideo, UY","Malvin, UY","11400, UY"
"Montevideo, UY","Union, UY","11400, UY"
"Montevideo, UY","Carrasco, UY","11500, UY"
"Montevideo, UY","Carrasco Norte, UY","11500, UY"
"Montevideo, UY","Pque Batlle Villa Dolores, UY","11600, UY"
"Montevideo, UY","Larrañaga, UY","11600, UY"
"Montevideo, UY","Buceo, UY","11600, UY"
"Montevideo, UY","La Blanqueada, UY","11600, UY"
"Montevideo, UY","Brazo Oriental, UY","11700, UY"
"Montevideo, UY","Prado Nueva Savona, UY","11700, UY"
"Montevideo, UY","Aires Puros, UY","11700, UY"
"Montevideo, UY","Atahualpa, UY","11700, UY"
"Montevideo, UY","Jacinto Vera, UY","11800, UY"
"Montevideo, UY","La Comercial, UY","11800, UY"
"Montevideo, UY","Figurita, UY","11800, UY"
"Montevideo, UY","Reducto, UY","11800, UY"
"Montevideo, UY","Capurro Bella Vista, UY","11800, UY"
"Montevideo, UY","Aguada, UY","11800, UY"
"Montevideo, UY","Villa Muñoz Retiro, UY","11800, UY"
"Montevideo, UY","Tres Cruces, UY","11800, UY"
"Montevideo, UY","Nuevo Paris, UY","11900, UY"
"Montevideo, UY","Belvedere, UY","11900, UY"
"Montevideo, UY","La Teja, UY","11900, UY"
"Montevideo, UY","Tres Ombues Pblo Victoria, UY","11900, UY"
"Montevideo, UY","Villa Española, UY","12000, UY"
"Montevideo, UY","Ituzaingo, UY","12000, UY"
"Montevideo, UY","Castro Castellanos, UY","12000, UY"
"Montevideo, UY","Mercado Modelo Y Bolivar, UY","12000, UY"
"Montevideo, UY","Las Canteras, UY","12100, UY"
"Montevideo, UY","Maroñas Parque Guarani, UY","12100, UY"
"Montevideo, UY","Las Acacias, UY","12300, UY"
"Montevideo, UY","Manga, UY","12300, UY"
"Montevideo, UY","Piedras Blancas, UY","12300, UY"
"Montevideo, UY","Casavalle, UY","12300, UY"
"Montevideo, UY","Cerrito, UY","12300, UY"
"Montevideo, UY","Colon Sureste Abayuba, UY","12400, UY"
"Montevideo, UY","Peñarol Lavalleja, UY","12400, UY"
"Montevideo, UY","Manga Toledo Chico, UY","12400, UY"
"Montevideo, UY","Colon Centro Y Noroeste, UY","12500, UY"
"Montevideo, UY","Lezica Melilla, UY","12500, UY"
"Montevideo, UY","Paso De La Arena, UY","12700, UY"
"Montevideo, UY","Cerro, UY","12800, UY"
"Montevideo, UY","Casabo Pajas Blancas, UY","12800, UY"
"Montevideo, UY","La Paloma Tomkinson, UY","12800, UY"
"Montevideo, UY","Sayago, UY","12900, UY"
"Montevideo, UY","Conciliacion, UY","12900, UY"
"Montevideo, UY","Paso De Las Duranas, UY","12900, UY"
"Montevideo, UY","Punta Rieles Bella Italia, UY","13000, UY"
"Montevideo, UY","Bañados De Carrasco, UY","13000, UY"
"Montevideo, UY","Jardines Del Hipodromo, UY","13000, UY"
"Montevideo, UY","Flor De Maroñas, UY","13000, UY"
"Montevideo, UY","Villa Garcia Manga Rural, UY","13000, UY"
"Montevideo, UY","Toledo Chico, UY","15700, UY"
"Paysandu, UY","Tambores, UY","45000, UY"
"Paysandu, UY","Piedra Sola, UY","45000, UY"
"Paysandu, UY","San Mauricio, UY","50000, UY"
"Paysandu, UY","Chapicuy, UY","50000, UY"
"Paysandu, UY","Tomas Paz, UY","50000, UY"
"Paysandu, UY","Bella Vista, UY","50000, UY"
"Paysandu, UY","Parada Dayman, UY","50000, UY"
"Paysandu, UY","Pueblo Federacion, UY","60000, UY"
"Paysandu, UY","El Eucaliptus, UY","60000, UY"
"Paysandu, UY","Guayabos, UY","60000, UY"
"Paysandu, UY","Nuevo Paysandu, UY","60000, UY"
"Paysandu, UY","Sauce Del Queguay, UY","60000, UY"
"Paysandu, UY","El Horno, UY","60000, UY"
"Paysandu, UY","Araujo, UY","60000, UY"
"Paysandu, UY","Tres Bocas, UY","60000, UY"
"Paysandu, UY","Cuchilla De Buricayupi, UY","60000, UY"
"Paysandu, UY","Gallinal, UY","60000, UY"
"Paysandu, UY","Chacras De Paysandu Norte, UY","60000, UY"
"Paysandu, UY","La Lata Ruta 3 (Km. 375), UY","60000, UY"
"Paysandu, UY","Al Sur De Arroyo Sacra, UY","60000, UY"
"Paysandu, UY","Rabon, UY","60000, UY"
"Paysandu, UY","Queguayar, UY","60000, UY"
"Paysandu, UY","Colonia Uruguaya, UY","60000, UY"
"Paysandu, UY","Queguay Grande, UY","60000, UY"
"Paysandu, UY","Parada Pandule, UY","60000, UY"
"Paysandu, UY","Puntas De Cangue, UY","60000, UY"
"Paysandu, UY","Constancia, UY","60000, UY"
"Paysandu, UY","Paysandu, UY","60000, UY"
"Paysandu, UY","Casa Blanca, UY","60000, UY"
"Paysandu, UY","Etchemendi, UY","60000, UY"
"Paysandu, UY","San Francisco, UY","60000, UY"
"Paysandu, UY","San Felix, UY","60000, UY"
"Paysandu, UY","Carumbe, UY","60000, UY"
"Paysandu, UY","Puntas De Buricayupi, UY","60000, UY"
"Paysandu, UY","Sauce Del Buricayupi, UY","60000, UY"
"Paysandu, UY","Colonia Las Delicias, UY","60000, UY"
"Paysandu, UY","Colonia Paysandu, UY","60000, UY"
"Paysandu, UY","Las Palmas, UY","60000, UY"
"Paysandu, UY","Colonia Cangue, UY","60000, UY"
"Paysandu, UY","Cañada Del Pueblo, UY","60000, UY"
"Paysandu, UY","Puntas De Bacacua, UY","60000, UY"
"Paysandu, UY","Chacras De Paysandu Sur, UY","60000, UY"
"Paysandu, UY","Cuchilla San Jose, UY","60000, UY"
"Paysandu, UY","Molles Grande, UY","60000, UY"
"Paysandu, UY","Cerro Chato, UY","60000, UY"
"Paysandu, UY","Lorenzo Geyres, UY","60000, UY"
"Paysandu, UY","San Miguel, UY","60000, UY"
"Paysandu, UY","Orgoroso, UY","60000, UY"
"Paysandu, UY","Cangue, UY","60000, UY"
"Paysandu, UY","Paso De Los Carros, UY","60000, UY"
"Paysandu, UY","El Duraznal, UY","60000, UY"
"Paysandu, UY","Porvenir, UY","60000, UY"
"Paysandu, UY","El Tarugo, UY","60000, UY"
"Paysandu, UY","El Chaco, UY","60000, UY"
"Paysandu, UY","Zeballos, UY","60000, UY"
"Paysandu, UY","Valdez, UY","60000, UY"
"Paysandu, UY","Pueblo Esperanza, UY","60000, UY"
"Paysandu, UY","Perico Moreno, UY","60000, UY"
"Paysandu, UY","Chacras De Paysandu, UY","60000, UY"
"Paysandu, UY","Estacion Porvenir, UY","60000, UY"
"Paysandu, UY","La Tentacion, UY","60000, UY"
"Paysandu, UY","Costa De Sacra, UY","60000, UY"
"Paysandu, UY","Puntas De Las Isletas, UY","60000, UY"
"Paysandu, UY","Puntas De Gualeguay, UY","60000, UY"
"Paysandu, UY","Soto, UY","60000, UY"
"Paysandu, UY","La Paz (Ruta 3 Km. 346), UY","60000, UY"
"Paysandu, UY","Sauce De Abajo, UY","60000, UY"
"Paysandu, UY","Termas De Almiron, UY","60100, UY"
"Paysandu, UY","Morato (Tres Arboles), UY","60100, UY"
"Paysandu, UY","Pueblo Alonzo, UY","60100, UY"
"Paysandu, UY","Arbolito (Totoral), UY","60100, UY"
"Paysandu, UY","Colonia Juncal, UY","60100, UY"
"Paysandu, UY","Piñera, UY","60100, UY"
"Paysandu, UY","Beisso, UY","60100, UY"
"Paysandu, UY","Guichon, UY","60100, UY"
"Paysandu, UY","Villa Maria (Tiatucura), UY","60100, UY"
"Paysandu, UY","Cuchilla De Fuego, UY","60100, UY"
"Paysandu, UY","Guaviyu De Quebracho, UY","60200, UY"
"Paysandu, UY","Santa Kilda, UY","60200, UY"
"Paysandu, UY","Arroyo Malo, UY","60200, UY"
"Paysandu, UY","Quebracho, UY","60200, UY"
"Paysandu, UY","Parada Rivas, UY","60200, UY"
"Paysandu, UY","Palmar Del Quebracho, UY","60200, UY"
"Paysandu, UY","Colonia Santa Blanca, UY","60200, UY"
"Paysandu, UY","Colonia Arroyo Malo, UY","60200, UY"
"Paysandu, UY","Termas De Guaviyu, UY","60200, UY"
"Paysandu, UY","Las Flores, UY","60300, UY"
"Paysandu, UY","Puntas De Arroyo Negro, UY","60300, UY"
"Paysandu, UY","Arroyo Negro, UY","60300, UY"
"Paysandu, UY","Piedras Coloradas, UY","60300, UY"
"Rio Negro, UY","El Progreso, UY","45100, UY"
"Rio Negro, UY","Paso De Soca, UY","45100, UY"
"Rio Negro, UY","Sarandi De Navarro, UY","45100, UY"
"Rio Negro, UY","Santa Rosa, UY","45100, UY"
"Rio Negro, UY","Estacion Francia, UY","45100, UY"
"Rio Negro, UY","Isla De Arguelles, UY","45100, UY"
"Rio Negro, UY","La Palma, UY","45100, UY"
"Rio Negro, UY","Rolon, UY","45100, UY"
"Rio Negro, UY","La Coronilla, UY","45100, UY"
"Rio Negro, UY","Arroyo Negro, UY","60000, UY"
"Rio Negro, UY","Uleste, UY","60000, UY"
"Rio Negro, UY","Santa Elisa, UY","60000, UY"
"Rio Negro, UY","Merinos, UY","60100, UY"
"Rio Negro, UY","Los Mellizos, UY","60100, UY"
"Rio Negro, UY","Puntas De Averias, UY","60100, UY"
"Rio Negro, UY","Palmar Grande, UY","60100, UY"
"Rio Negro, UY","Algorta, UY","60400, UY"
"Rio Negro, UY","San Javier, UY","61100, UY"
"Rio Negro, UY","Tres Quintas, UY","61100, UY"
"Rio Negro, UY","Fray Bentos, UY","65000, UY"
"Rio Negro, UY","Las Margaritas, UY","65000, UY"
"Rio Negro, UY","San Lorenzo, UY","65000, UY"
"Rio Negro, UY","Ombucitos, UY","65000, UY"
"Rio Negro, UY","Yaguarete, UY","65000, UY"
"Rio Negro, UY","El Abrojal, UY","65000, UY"
"Rio Negro, UY","Los Ranchos, UY","65000, UY"
"Rio Negro, UY","Caracoles, UY","65000, UY"
"Rio Negro, UY","Nuevo Berlin, UY","65000, UY"
"Rio Negro, UY","Barrio Anglo, UY","65000, UY"
"Rio Negro, UY","Cañitas, UY","65000, UY"
"Rio Negro, UY","Porton Haedo, UY","65000, UY"
"Rio Negro, UY","Pte. San Martin, UY","65000, UY"
"Rio Negro, UY","Las Cañas, UY","65000, UY"
"Rio Negro, UY","Las Fracciones, UY","65000, UY"
"Rio Negro, UY","Paso De Los Cobres, UY","65100, UY"
"Rio Negro, UY","Don Esteban, UY","65100, UY"
"Rio Negro, UY","La Union, UY","65100, UY"
"Rio Negro, UY","Tres Bocas, UY","65100, UY"
"Rio Negro, UY","Paso De Balbuena, UY","65100, UY"
"Rio Negro, UY","Menafra, UY","65100, UY"
"Rio Negro, UY","Paso De Leopoldo, UY","65100, UY"
"Rio Negro, UY","Colonia El Ombu, UY","65100, UY"
"Rio Negro, UY","Pueblo Grecco, UY","65100, UY"
"Rio Negro, UY","Colonia John F. Kennedy, UY","65100, UY"
"Rio Negro, UY","Valle De Soba, UY","65100, UY"
"Rio Negro, UY","Molles De Porrua, UY","65100, UY"
"Rio Negro, UY","El Surco, UY","65100, UY"
"Rio Negro, UY","Sanchez Chico, UY","65100, UY"
"Rio Negro, UY","Sanchez, UY","65100, UY"
"Rio Negro, UY","La Florida, UY","65100, UY"
"Rio Negro, UY","Las Flores, UY","65100, UY"
"Rio Negro, UY","Bellaco, UY","65100, UY"
"Rio Negro, UY","Villa Maria, UY","65100, UY"
"Rio Negro, UY","Santa Isabel, UY","65100, UY"
"Rio Negro, UY","Sauce, UY","65100, UY"
"Rio Negro, UY","Young, UY","65100, UY"
"Rio Negro, UY","Villa General Borges, UY","65100, UY"
"Rio Negro, UY","Mataojo, UY","65100, UY"
"Rio Negro, UY","Estancia Vichadero, UY","65100, UY"
"Rio Negro, UY","Pauru, UY","65100, UY"
"Rio Negro, UY","Sarandi, UY","65100, UY"
"Rio Negro, UY","Los Arrayanes, UY","75000, UY"
"Rio Negro, UY","La Arena, UY","97000, UY"
"Rivera, UY","Sauce De Batovi, UY","40000, UY"
"Rivera, UY","Puntas Del Yaguari, UY","40000, UY"
"Rivera, UY","Santa Teresa, UY","40000, UY"
"Rivera, UY","Cruz De San Pedro, UY","40000, UY"
"Rivera, UY","Cerro Solito, UY","40000, UY"
"Rivera, UY","Platon, UY","40000, UY"
"Rivera, UY","Tres Cruces, UY","40000, UY"
"Rivera, UY","Paso Lapuente, UY","40000, UY"
"Rivera, UY","Tres Puentes, UY","40000, UY"
"Rivera, UY","Curticeiras, UY","40000, UY"
"Rivera, UY","La Caillava, UY","40000, UY"
"Rivera, UY","Cerro Caqueiro, UY","40000, UY"
"Rivera, UY","Capon Alto, UY","40000, UY"
"Rivera, UY","Bañado Del Chaja, UY","40000, UY"
"Rivera, UY","Santa Isabel, UY","40000, UY"
"Rivera, UY","Paso Ataques, UY","40000, UY"
"Rivera, UY","Cerro Chapeu, UY","40000, UY"
"Rivera, UY","Arroyo Sauzal, UY","40000, UY"
"Rivera, UY","Puntas De Cuñapiru, UY","40000, UY"
"Rivera, UY","Lagos Del Norte, UY","40000, UY"
"Rivera, UY","Cuchilla De Tres Cerros, UY","40000, UY"
"Rivera, UY","Puntas De Corrales, UY","40000, UY"
"Rivera, UY","Batovi, UY","40000, UY"
"Rivera, UY","Barra De Ataques, UY","40000, UY"
"Rivera, UY","Cerrillada, UY","40000, UY"
"Rivera, UY","Ataques, UY","40000, UY"
"Rivera, UY","Paso Serpa, UY","40000, UY"
"Rivera, UY","Villa Indart, UY","40000, UY"
"Rivera, UY","Cuchilla Mangueras, UY","40000, UY"
"Rivera, UY","Rivera, UY","40000, UY"
"Rivera, UY","Paso Del Lagunon, UY","40000, UY"
"Rivera, UY","Guaviyu, UY","40000, UY"
"Rivera, UY","Lagunon, UY","40000, UY"
"Rivera, UY","Paso Del Tapado, UY","40000, UY"
"Rivera, UY","La Pedrera, UY","40000, UY"
"Rivera, UY","Yaguari, UY","40000, UY"
"Rivera, UY","Mandubi, UY","40000, UY"
"Rivera, UY","Barrio Recreo, UY","40000, UY"
"Rivera, UY","Parada Medina, UY","40100, UY"
"Rivera, UY","Cerro Alegre, UY","40100, UY"
"Rivera, UY","Paso De La Calera, UY","40100, UY"
"Rivera, UY","Puntas Del Sauzal, UY","40100, UY"
"Rivera, UY","Zanja Honda De Tranqueras, UY","40100, UY"
"Rivera, UY","La Palma, UY","40100, UY"
"Rivera, UY","Lunarejo, UY","40100, UY"
"Rivera, UY","Piedras Blancas, UY","40100, UY"
"Rivera, UY","Tranqueras, UY","40100, UY"
"Rivera, UY","Los Potreros, UY","40100, UY"
"Rivera, UY","Paso De La Arena, UY","40100, UY"
"Rivera, UY","Sauzal, UY","40100, UY"
"Rivera, UY","Rincon De Moraes, UY","40100, UY"
"Rivera, UY","Buena Union, UY","40100, UY"
"Rivera, UY","Paso De Ataques, UY","40100, UY"
"Rivera, UY","Masoller, UY","40200, UY"
"Rivera, UY","La Calera, UY","41100, UY"
"Rivera, UY","Santa Ernestina, UY","41100, UY"
"Rivera, UY","Cerro Blanco De Cuñapiru, UY","41100, UY"
"Rivera, UY","Carpinteria, UY","41100, UY"
"Rivera, UY","Segarra, UY","41100, UY"
"Rivera, UY","Paso Casildo, UY","41100, UY"
"Rivera, UY","Rincon De Los Castillos, UY","41100, UY"
"Rivera, UY","Coronilla De Corrales, UY","41100, UY"
"Rivera, UY","Minas De Corrales, UY","41100, UY"
"Rivera, UY","Cerro Pelado Al Este, UY","41100, UY"
"Rivera, UY","Laureles, UY","41100, UY"
"Rivera, UY","Rincon De Roland, UY","41100, UY"
"Rivera, UY","Cerros De La Calera, UY","41100, UY"
"Rivera, UY","Minas De Zapucay, UY","41100, UY"
"Rivera, UY","Berruti, UY","41100, UY"
"Rivera, UY","San Gregorio, UY","41100, UY"
"Rivera, UY","Curtume, UY","41100, UY"
"Rivera, UY","Cerro Pelado, UY","41100, UY"
"Rivera, UY","Cuchilla De Yaguari, UY","41100, UY"
"Rivera, UY","Blanquillos, UY","41100, UY"
"Rivera, UY","Cuñapiru, UY","41100, UY"
"Rivera, UY","Las Flores, UY","41100, UY"
"Rivera, UY","Costas De Cuñapiru, UY","41100, UY"
"Rivera, UY","Minas De Cuñapiru (Usinas), UY","41100, UY"
"Rivera, UY","Buena Orden Al Norte, UY","41100, UY"
"Rivera, UY","Paso De Frontera, UY","41200, UY"
"Rivera, UY","La Cerrillada, UY","41200, UY"
"Rivera, UY","El Palmito, UY","41200, UY"
"Rivera, UY","Chirca De Caraguata, UY","41200, UY"
"Rivera, UY","Paso Amarillo, UY","41200, UY"
"Rivera, UY","Amarillo, UY","41200, UY"
"Rivera, UY","Vichadero, UY","41200, UY"
"Rivera, UY","La Chilca, UY","41200, UY"
"Rivera, UY","Rincon De Rodriguez, UY","41200, UY"
"Rivera, UY","Pueblo Socorro, UY","41200, UY"
"Rivera, UY","Moirones, UY","41200, UY"
"Rivera, UY","Pueblo De Los Santos, UY","41200, UY"
"Rivera, UY","Zanja Honda, UY","41200, UY"
"Rivera, UY","El Ceibo, UY","41200, UY"
"Rivera, UY","Hospital, UY","41200, UY"
"Rivera, UY","Coronilla, UY","41200, UY"
"Rivera, UY","Cerros Blancos, UY","41200, UY"
"Rivera, UY","Rincon De Yaguari, UY","41200, UY"
"Rivera, UY","Paso Del Puerto, UY","41200, UY"
"Rivera, UY","Arroyo Blanco, UY","41200, UY"
"Rivera, UY","Alborada, UY","41200, UY"
"Rivera, UY","Rincon De Amarillo, UY","41200, UY"
"Rivera, UY","Puntas De Abrojal, UY","41200, UY"
"Rivera, UY","Cerro Chato, UY","41200, UY"
"Rivera, UY","Paso De Arriera, UY","41200, UY"
"Rivera, UY","Caraguata, UY","41200, UY"
"Rivera, UY","Abrojal, UY","41200, UY"
"Rivera, UY","Manuel Diaz, UY","45000, UY"
"Rivera, UY","Rincon De Tres Cerros, UY","45000, UY"
"Rivera, UY","Rincon De Diniz, UY","45000, UY"
"Rivera, UY","Paso De Gaire, UY","45000, UY"
"Rivera, UY","Tres Cerros, UY","45000, UY"
"Rocha, UY","Garzon Abajo, UY","27000, UY"
"Rocha, UY","Paso Doña Rosa, UY","27000, UY"
"Rocha, UY","Sauce De Rocha, UY","27000, UY"
"Rocha, UY","Paralle, UY","27000, UY"
"Rocha, UY","Puerto De Los Botes, UY","27000, UY"
"Rocha, UY","La Ribiera, UY","27000, UY"
"Rocha, UY","Sierra De Los Rocha, UY","27000, UY"
"Rocha, UY","Arbolito, UY","27000, UY"
"Rocha, UY","Garzon Al Medio, UY","27000, UY"
"Rocha, UY","Puntas De Don Carlos, UY","27000, UY"
"Rocha, UY","Sarandi De La India Muerta, UY","27000, UY"
"Rocha, UY","Cuchilla De Garzon, UY","27000, UY"
"Rocha, UY","India Muerta, UY","27000, UY"
"Rocha, UY","Garzon Arriba, UY","27000, UY"
"Rocha, UY","La Centinela, UY","27000, UY"
"Rocha, UY","Kilometro 18, UY","27000, UY"
"Rocha, UY","El Canelon, UY","27000, UY"
"Rocha, UY","Los Cerrillos, UY","27000, UY"
"Rocha, UY","Rocha, UY","27000, UY"
"Rocha, UY","La Sierra, UY","27000, UY"
"Rocha, UY","Picada Tolosa, UY","27000, UY"
"Rocha, UY","19 De Abril, UY","27000, UY"
"Rocha, UY","Lomas, UY","27000, UY"
"Rocha, UY","Barrancas De La Coronilla, UY","27100, UY"
"Rocha, UY","Barra Del Chuy, UY","27100, UY"
"Rocha, UY","Samuel, UY","27100, UY"
"Rocha, UY","Capacho, UY","27100, UY"
"Rocha, UY","La Fortaleza De Santa Teresa, UY","27100, UY"
"Rocha, UY","Barrio Pereira, UY","27100, UY"
"Rocha, UY","Chuy, UY","27100, UY"
"Rocha, UY","Fortin De San Miguel, UY","27100, UY"
"Rocha, UY","La Coronilla, UY","27100, UY"
"Rocha, UY","18 De Julio, UY","27100, UY"
"Rocha, UY","Los Indios, UY","27100, UY"
"Rocha, UY","Barrio Carpacho, UY","27100, UY"
"Rocha, UY","Palmares De La Coronilla, UY","27100, UY"
"Rocha, UY","Puimayen, UY","27100, UY"
"Rocha, UY","Oratorio, UY","27200, UY"
"Rocha, UY","Vuelta Del Palmar, UY","27200, UY"
"Rocha, UY","Palmar, UY","27200, UY"
"Rocha, UY","Puente Valizas, UY","27200, UY"
"Rocha, UY","Cerro De Pescadores, UY","27200, UY"
"Rocha, UY","Punta Palmar, UY","27200, UY"
"Rocha, UY","Barrio Cardozo, UY","27200, UY"
"Rocha, UY","Cerro De Los Rocha, UY","27200, UY"
"Rocha, UY","Rincon De Valizas, UY","27200, UY"
"Rocha, UY","Plano 291, UY","27200, UY"
"Rocha, UY","Paso Del Bañado, UY","27200, UY"
"Rocha, UY","Barrio Torres, UY","27200, UY"
"Rocha, UY","Palmar De Castillos, UY","27200, UY"
"Rocha, UY","Castillos, UY","27200, UY"
"Rocha, UY","Rincon De Los Olivera, UY","27200, UY"
"Rocha, UY","La Esmeralda, UY","27200, UY"
"Rocha, UY","Barra De Valizas, UY","27200, UY"
"Rocha, UY","Cabo Polonio, UY","27200, UY"
"Rocha, UY","Punta Del Diablo, UY","27200, UY"
"Rocha, UY","Aguas Dulces, UY","27200, UY"
"Rocha, UY","Velazquez, UY","27300, UY"
"Rocha, UY","Colonia Greissing, UY","27300, UY"
"Rocha, UY","Abra De Alferez, UY","27300, UY"
"Rocha, UY","La Tuna, UY","27300, UY"
"Rocha, UY","El Chimango, UY","27300, UY"
"Rocha, UY","Isla Negra, UY","27300, UY"
"Rocha, UY","San Luis Al Medio, UY","27300, UY"
"Rocha, UY","Cebollati, UY","27300, UY"
"Rocha, UY","Paso De Lopez, UY","27300, UY"
"Rocha, UY","Quebracho, UY","27300, UY"
"Rocha, UY","Los Ajos, UY","27300, UY"
"Rocha, UY","Cuchilla Del Arbolito, UY","27300, UY"
"Rocha, UY","Paso Del Ombu, UY","27300, UY"
"Rocha, UY","Alferez, UY","27300, UY"
"Rocha, UY","Empalme De Velazquez, UY","27300, UY"
"Rocha, UY","Barrio Porvenir, UY","27300, UY"
"Rocha, UY","Costas De Cebollati, UY","27300, UY"
"Rocha, UY","Barra Isla Negra, UY","27300, UY"
"Rocha, UY","Lascano, UY","27300, UY"
"Rocha, UY","Punta Cebollati, UY","27300, UY"
"Rocha, UY","Costa Azul, UY","27400, UY"
"Rocha, UY","Tajamares De La Pedrera, UY","27400, UY"
"Rocha, UY","Pueblo Nuevo, UY","27400, UY"
"Rocha, UY","San Sebastian, UY","27400, UY"
"Rocha, UY","La Aguada Y Costa Azul, UY","27400, UY"
"Rocha, UY","San Sebastian De La Pedrera, UY","27400, UY"
"Rocha, UY","La Aguada, UY","27400, UY"
"Rocha, UY","Oceania Del Polonio, UY","27400, UY"
"Rocha, UY","Punta Rubia, UY","27400, UY"
"Rocha, UY","Antoniopolis, UY","27400, UY"
"Rocha, UY","La Pedrera, UY","27400, UY"
"Rocha, UY","Balneario Pueblo Nuevo, UY","27400, UY"
"Rocha, UY","Arachania, UY","27400, UY"
"Rocha, UY","San Antonio, UY","27400, UY"
"Rocha, UY","Puerto La Paloma, UY","27400, UY"
"Salto, UY","Cuchilla Del Salto, UY","50000, UY"
"Salto, UY","Olivera, UY","50000, UY"
"Salto, UY","Paso Cementerio, UY","50000, UY"
"Salto, UY","Cuchilla De Guaviyu, UY","50000, UY"
"Salto, UY","Guaviyu De Arapey, UY","50000, UY"
"Salto, UY","Lluveras, UY","50000, UY"
"Salto, UY","Paso Nuevo Del Arapey, UY","50000, UY"
"Salto, UY","Rincon De Valentin, UY","50000, UY"
"Salto, UY","Colonia Rubio, UY","50000, UY"
"Salto, UY","Cerros De Vera, UY","50000, UY"
"Salto, UY","Sopas, UY","50000, UY"
"Salto, UY","Mataojito, UY","50000, UY"
"Salto, UY","Pueblo Fernandez, UY","50000, UY"
"Salto, UY","Pueblo Quintana, UY","50000, UY"
"Salto, UY","La Bolsa, UY","50000, UY"
"Salto, UY","Balneario Albisu, UY","50000, UY"
"Salto, UY","La Bolsa 02, UY","50000, UY"
"Salto, UY","Nueva Hesperides, UY","50000, UY"
"Salto, UY","Pueblo Ramos, UY","50000, UY"
"Salto, UY","Parque Jose Luis, UY","50000, UY"
"Salto, UY","Parada Herreria, UY","50000, UY"
"Salto, UY","Pueblo Cayetano, UY","50000, UY"
"Salto, UY","Corralito, UY","50000, UY"
"Salto, UY","Colonia Osimani, UY","50000, UY"
"Salto, UY","La Caballada, UY","50000, UY"
"Salto, UY","La Bolsa 03, UY","50000, UY"
"Salto, UY","Paso Del Parque Del Dayman, UY","50000, UY"
"Salto, UY","Zanja Del Tigre, UY","50000, UY"
"Salto, UY","Tropezon, UY","50000, UY"
"Salto, UY","Colonia 18 De Julio, UY","50000, UY"
"Salto, UY","Las Flores, UY","50000, UY"
"Salto, UY","Colonia Lavalleja, UY","50000, UY"
"Salto, UY","Pueblo Farias, UY","50000, UY"
"Salto, UY","Corral De Piedra, UY","50000, UY"
"Salto, UY","Paso Fialho, UY","50000, UY"
"Salto, UY","Zanja De Alcain, UY","50000, UY"
"Salto, UY","El Mellado, UY","50000, UY"
"Salto, UY","Palomas, UY","50000, UY"
"Salto, UY","Saucedo, UY","50000, UY"
"Salto, UY","Sarandi De Arapey, UY","50000, UY"
"Salto, UY","Los Orientales, UY","50000, UY"
"Salto, UY","Paso De Las Piedras De Arerungua, UY","50000, UY"
"Salto, UY","Valentin Grande, UY","50000, UY"
"Salto, UY","Sauce Chico, UY","50000, UY"
"Salto, UY","Mataojo Grande, UY","50000, UY"
"Salto, UY","Paso  Valega, UY","50000, UY"
"Salto, UY","Biassini, UY","50000, UY"
"Salto, UY","Campo De Todos, UY","50000, UY"
"Salto, UY","Colonia Itapebi, UY","50000, UY"
"Salto, UY","Garibaldi, UY","50000, UY"
"Salto, UY","Salto, UY","50000, UY"
"Salto, UY","Cerrilladas De Saucedo, UY","50000, UY"
"Salto, UY","Celeste, UY","50000, UY"
"Salto, UY","Termas Del Dayman, UY","50000, UY"
"Salto, UY","Termas Del Arapey, UY","50000, UY"
"Salto, UY","Bordenave, UY","50000, UY"
"Salto, UY","Tropiezo, UY","50000, UY"
"Salto, UY","Paso Del Potrero, UY","50000, UY"
"Salto, UY","Itapebi, UY","50000, UY"
"Salto, UY","Russo, UY","50000, UY"
"Salto, UY","Paso Del Tapado, UY","50000, UY"
"Salto, UY","Puntas De Valentin, UY","50000, UY"
"Salto, UY","Laureles, UY","50000, UY"
"Salto, UY","Arenitas Blancas, UY","50000, UY"
"Salto, UY","Ferreira, UY","50000, UY"
"Salto, UY","La Viticola, UY","50000, UY"
"Salto, UY","San Antonio, UY","50000, UY"
"Salto, UY","Pepe Nuñez, UY","50000, UY"
"Salto, UY","Cerrillada, UY","50000, UY"
"Salto, UY","Carumbe, UY","50000, UY"
"Salto, UY","Talas De Itapebi, UY","50000, UY"
"Salto, UY","Osimani Y Llerena, UY","50000, UY"
"Salto, UY","Cerro Chato, UY","50000, UY"
"Salto, UY","Toro Negro, UY","50000, UY"
"Salto, UY","El Espinillar, UY","50100, UY"
"Salto, UY","Chacras De Constitucion, UY","50100, UY"
"Salto, UY","Constitucion, UY","50100, UY"
"Salto, UY","Chacras De Belen, UY","50200, UY"
"Salto, UY","Yacuy, UY","50200, UY"
"Salto, UY","Belen, UY","50200, UY"
"San Jose, UY","Raigon, UY","80000, UY"
"San Jose, UY","Colonia America, UY","80000, UY"
"San Jose, UY","San Jose De Mayo, UY","80000, UY"
"San Jose, UY","Juncal, UY","80000, UY"
"San Jose, UY","Puntas De Cañada Grande, UY","80000, UY"
"San Jose, UY","Cañada Grande, UY","80000, UY"
"San Jose, UY","Mal Abrigo, UY","80000, UY"
"San Jose, UY","Carreta Quemada, UY","80000, UY"
"San Jose, UY","Paso Del Rey, UY","80000, UY"
"San Jose, UY","Tranquera Colorada, UY","80000, UY"
"San Jose, UY","Panta, UY","80000, UY"
"San Jose, UY","Mundo Azul, UY","80000, UY"
"San Jose, UY","Paso De Mas, UY","80000, UY"
"San Jose, UY","Puntas De Cagancha, UY","80000, UY"
"San Jose, UY","Cuchilla De Pereira, UY","80000, UY"
"San Jose, UY","Arroyo Llano, UY","80000, UY"
"San Jose, UY","Mahoma, UY","80000, UY"
"San Jose, UY","Juan Soler, UY","80000, UY"
"San Jose, UY","Escudero, UY","80000, UY"
"San Jose, UY","Arroyo De La Virgen, UY","80000, UY"
"San Jose, UY","La Casilla, UY","80000, UY"
"San Jose, UY","Villa Maria, UY","80000, UY"
"San Jose, UY","Rincon Del Pino, UY","80000, UY"
"San Jose, UY","Chamizo, UY","80000, UY"
"San Jose, UY","Pantanoso, UY","80000, UY"
"San Jose, UY","Gonzalez, UY","80000, UY"
"San Jose, UY","Pavon, UY","80000, UY"
"San Jose, UY","Bella Vista, UY","80000, UY"
"San Jose, UY","San Gregorio, UY","80000, UY"
"San Jose, UY","Laurel, UY","80000, UY"
"San Jose, UY","Costas Del Sauce, UY","80000, UY"
"San Jose, UY","Puntas De Gregorio, UY","80000, UY"
"San Jose, UY","Mundo Azul Aguirre, UY","80000, UY"
"San Jose, UY","Paso Del Carreton, UY","80000, UY"
"San Jose, UY","Paso De Cames, UY","80000, UY"
"San Jose, UY","Rocho, UY","80000, UY"
"San Jose, UY","Tabarez, UY","80000, UY"
"San Jose, UY","Cruz De Los Caminos, UY","80000, UY"
"San Jose, UY","Puntas De Chamizo, UY","80000, UY"
"San Jose, UY","Perico Perez, UY","80000, UY"
"San Jose, UY","Zanja Honda, UY","80000, UY"
"San Jose, UY","Coronilla, UY","80000, UY"
"San Jose, UY","Fajardo, UY","80000, UY"
"San Jose, UY","Bañado, UY","80000, UY"
"San Jose, UY","Rincon De Arias, UY","80000, UY"
"San Jose, UY","Cagancha Chico, UY","80000, UY"
"San Jose, UY","Puntas De Laurel, UY","80000, UY"
"San Jose, UY","Rincon De Nazareth, UY","80000, UY"
"San Jose, UY","Tala De Pereira, UY","80000, UY"
"San Jose, UY","Pachina, UY","80000, UY"
"San Jose, UY","Fajina, UY","80000, UY"
"San Jose, UY","Jesus Maria, UY","80000, UY"
"San Jose, UY","Cuchilla Seca, UY","80000, UY"
"San Jose, UY","Orillas Del Plata, UY","80100, UY"
"San Jose, UY","Puntas De Valdez, UY","80100, UY"
"San Jose, UY","Valdez Chico, UY","80100, UY"
"San Jose, UY","Libertad, UY","80100, UY"
"San Jose, UY","Puntas De Tropa Vieja, UY","80100, UY"
"San Jose, UY","Sauce Chico, UY","80100, UY"
"San Jose, UY","Radial Ruta 3, UY","80100, UY"
"San Jose, UY","Costa Del Mauricio, UY","80100, UY"
"San Jose, UY","Colonia Italia, UY","80100, UY"
"San Jose, UY","Sauce, UY","80100, UY"
"San Jose, UY","Cololo Tinosa, UY","80100, UY"
"San Jose, UY","Rincon De Buschental, UY","80100, UY"
"San Jose, UY","Colonia Juan Maria Perez, UY","80100, UY"
"San Jose, UY","Kiyu - Ordeig, UY","80100, UY"
"San Jose, UY","Colonia Fernandez Crespo, UY","80200, UY"
"San Jose, UY","Mangrullo, UY","80200, UY"
"San Jose, UY","Costas De Pereira, UY","80200, UY"
"San Jose, UY","Rafael Perazza, UY","80200, UY"
"San Jose, UY","Colonia San Joaquin, UY","80200, UY"
"San Jose, UY","Paso De Las Piedras, UY","80200, UY"
"San Jose, UY","Colonia Delta, UY","80300, UY"
"San Jose, UY","Ecilda Paullier, UY","80300, UY"
"San Jose, UY","La Boyada, UY","80300, UY"
"San Jose, UY","Scavino, UY","80300, UY"
"San Jose, UY","Boca Del Cufre, UY","80300, UY"
"San Jose, UY","Rincon De Cufre, UY","80300, UY"
"San Jose, UY","Rincon De Arazati, UY","80300, UY"
"San Jose, UY","Picada Gambetta, UY","80300, UY"
"San Jose, UY","Rincon De La Torre, UY","80400, UY"
"San Jose, UY","Cagancha, UY","80400, UY"
"San Jose, UY","Tropezon, UY","80400, UY"
"San Jose, UY","La Cuchilla, UY","80400, UY"
"San Jose, UY","Cuchilla Del Vichadero, UY","80400, UY"
"San Jose, UY","Estacion Rodriguez, UY","80400, UY"
"San Jose, UY","Villa Rives, UY","80500, UY"
"San Jose, UY","Delta El Tigre, UY","80500, UY"
"San Jose, UY","Tropas Viejas, UY","80500, UY"
"San Jose, UY","Parque Postel, UY","80500, UY"
"San Jose, UY","San Fernando Chico, UY","80500, UY"
"San Jose, UY","Santa Monica, UY","80500, UY"
"San Jose, UY","Ciudad Del Plata, UY","80500, UY"
"San Jose, UY","San Fernando, UY","80500, UY"
"San Jose, UY","Parque Postel Cnel. Adrian Medina, UY","80500, UY"
"San Jose, UY","Colonia Wilson, UY","80500, UY"
"San Jose, UY","Safici, UY","80500, UY"
"San Jose, UY","Rincon De La Bolsa, UY","80500, UY"
"San Jose, UY","Penino, UY","80500, UY"
"San Jose, UY","Villa Olimpica, UY","80500, UY"
"San Jose, UY","Playa Pascual, UY","80500, UY"
"San Jose, UY","Autodromo Nacional, UY","80500, UY"
"San Jose, UY","Ceramicas Del Sur, UY","80500, UY"
"San Jose, UY","Monte Grande, UY","80500, UY"
"San Jose, UY","Paso Del Guaycuru, UY","85000, UY"
"San Jose, UY","Guaycuru, UY","85000, UY"
"San Jose, UY","Colonia Dr. Bernardo Etchepare, UY","90200, UY"
"San Jose, UY","Capurro, UY","90200, UY"
"San Jose, UY","Paso Belastiqui, UY","90200, UY"
"San Jose, UY","Ituzaingo, UY","90200, UY"
"San Jose, UY","18 De Julio, UY","90200, UY"
"San Jose, UY","Rincon De Albano, UY","90200, UY"
"Soriano, UY","Castillos, UY","70100, UY"
"Soriano, UY","Lares, UY","70100, UY"
"Soriano, UY","Perseverano, UY","70100, UY"
"Soriano, UY","Agraciada, UY","70700, UY"
"Soriano, UY","Villa Alejandrina, UY","70700, UY"
"Soriano, UY","Puntas De Arenales, UY","70700, UY"
"Soriano, UY","Progreso, UY","75000, UY"
"Soriano, UY","Rincon De Cololo, UY","75000, UY"
"Soriano, UY","Colonia Diaz, UY","75000, UY"
"Soriano, UY","Palmar, UY","75000, UY"
"Soriano, UY","Mercedes, UY","75000, UY"
"Soriano, UY","Cerro Vera, UY","75000, UY"
"Soriano, UY","Grito De Asencio, UY","75000, UY"
"Soriano, UY","Unidad Cooperaria No 1, UY","75000, UY"
"Soriano, UY","Asencio, UY","75000, UY"
"Soriano, UY","Chacras De Mercedes, UY","75000, UY"
"Soriano, UY","La Tabla, UY","75000, UY"
"Soriano, UY","Cololo, UY","75000, UY"
"Soriano, UY","Sarandi Chico, UY","75000, UY"
"Soriano, UY","Santa Blanca, UY","75000, UY"
"Soriano, UY","Azotea De Vera, UY","75000, UY"
"Soriano, UY","Bequelo, UY","75000, UY"
"Soriano, UY","Cerro Alegre, UY","75000, UY"
"Soriano, UY","Villa Darwin, UY","75000, UY"
"Soriano, UY","San Dios, UY","75000, UY"
"Soriano, UY","El Tala, UY","75000, UY"
"Soriano, UY","La Loma, UY","75100, UY"
"Soriano, UY","Colonia Concordia, UY","75100, UY"
"Soriano, UY","Villa Soriano, UY","75100, UY"
"Soriano, UY","Paso De La Arena, UY","75100, UY"
"Soriano, UY","Corralito, UY","75100, UY"
"Soriano, UY","Cañada Magallanes, UY","75100, UY"
"Soriano, UY","La Palma, UY","75100, UY"
"Soriano, UY","Espinillo, UY","75100, UY"
"Soriano, UY","Cañada Paraguaya, UY","75100, UY"
"Soriano, UY","Cuatro Bocas De Buena Vista, UY","75100, UY"
"Soriano, UY","Cañada Nieto, UY","75100, UY"
"Soriano, UY","Rincon De Ruiz, UY","75100, UY"
"Soriano, UY","Palo Solo, UY","75100, UY"
"Soriano, UY","Buena Vista, UY","75100, UY"
"Soriano, UY","La Concordia, UY","75100, UY"
"Soriano, UY","Dolores, UY","75100, UY"
"Soriano, UY","Chacras De Dolores, UY","75100, UY"
"Soriano, UY","Maciel, UY","75100, UY"
"Soriano, UY","Arenal Chico, UY","75100, UY"
"Soriano, UY","Bizcocho, UY","75100, UY"
"Soriano, UY","Rincon De Cañada Nieto, UY","75100, UY"
"Soriano, UY","Las Maulas, UY","75100, UY"
"Soriano, UY","Paso De Ramos, UY","75100, UY"
"Soriano, UY","Costa Del Aguila, UY","75100, UY"
"Soriano, UY","Lata Del Perdido, UY","75200, UY"
"Soriano, UY","Risso, UY","75200, UY"
"Soriano, UY","Egaña, UY","75200, UY"
"Soriano, UY","Arroyo Grande, UY","75200, UY"
"Soriano, UY","Duraznito, UY","75200, UY"
"Soriano, UY","Puntas Del Tala, UY","75200, UY"
"Soriano, UY","Bajos Del Perdido, UY","75200, UY"
"Soriano, UY","Colonia Uruguaya, UY","75200, UY"
"Soriano, UY","Colonia Larrañaga, UY","75200, UY"
"Soriano, UY","Puntas De San Salvador, UY","75200, UY"
"Soriano, UY","Altos Del Perdido, UY","75200, UY"
"Soriano, UY","Costas Del Perdido, UY","75200, UY"
"Soriano, UY","Monzon, UY","75200, UY"
"Soriano, UY","Colonia Santa Clara, UY","75200, UY"
"Soriano, UY","La Laguna, UY","75200, UY"
"Soriano, UY","Cueva Del Tigre, UY","75200, UY"
"Soriano, UY","Cardona, UY","75200, UY"
"Soriano, UY","Cuchilla Del Perdido, UY","75200, UY"
"Soriano, UY","Arroyo Del Medio, UY","75300, UY"
"Soriano, UY","Zanja Honda, UY","75300, UY"
"Soriano, UY","Santa Catalina, UY","75300, UY"
"Soriano, UY","Parada Suarez, UY","75400, UY"
"Soriano, UY","Puntas De Durazno, UY","75400, UY"
"Soriano, UY","Jose Enrique Rodo, UY","75400, UY"
"Soriano, UY","San Martin, UY","75400, UY"
"Soriano, UY","Cuchilla Del Corralito, UY","75400, UY"
"Soriano, UY","Garula, UY","75500, UY"
"Soriano, UY","Pedro Chico, UY","75500, UY"
"Soriano, UY","Palmitas, UY","75500, UY"
"Soriano, UY","Coquimbo, UY","75500, UY"
"Soriano, UY","Olivera, UY","75500, UY"
"Soriano, UY","El Aguila, UY","75500, UY"
"Tacuarembo, UY","Colman, UY","45000, UY"
"Tacuarembo, UY","Los Vazquez, UY","45000, UY"
"Tacuarembo, UY","Los Rosanos, UY","45000, UY"
"Tacuarembo, UY","Rincon De Freitas, UY","45000, UY"
"Tacuarembo, UY","Los Furtados, UY","45000, UY"
"Tacuarembo, UY","Cuchilla De La Palma, UY","45000, UY"
"Tacuarembo, UY","Zapara, UY","45000, UY"
"Tacuarembo, UY","Paso De Ceferino, UY","45000, UY"
"Tacuarembo, UY","Rincon De Giloca, UY","45000, UY"
"Tacuarembo, UY","Las Arenas, UY","45000, UY"
"Tacuarembo, UY","Tres Guitarras, UY","45000, UY"
"Tacuarembo, UY","Cerro Del Arbolito, UY","45000, UY"
"Tacuarembo, UY","Picada De Cuello, UY","45000, UY"
"Tacuarembo, UY","Los Malavares, UY","45000, UY"
"Tacuarembo, UY","Barrio Libertad, UY","45000, UY"
"Tacuarembo, UY","La Bolsa 02, UY","45000, UY"
"Tacuarembo, UY","Pueblo Del Barro, UY","45000, UY"
"Tacuarembo, UY","Caraguata Al Norte, UY","45000, UY"
"Tacuarembo, UY","Los Ortices, UY","45000, UY"
"Tacuarembo, UY","Rincon De La Bolsa, UY","45000, UY"
"Tacuarembo, UY","La Pedrera, UY","45000, UY"
"Tacuarembo, UY","Tacuarembo Chico, UY","45000, UY"
"Tacuarembo, UY","Las Chircas, UY","45000, UY"
"Tacuarembo, UY","Achar, UY","45000, UY"
"Tacuarembo, UY","Villa Ansina, UY","45000, UY"
"Tacuarembo, UY","Heriberto, UY","45000, UY"
"Tacuarembo, UY","Rincon De Los Machado, UY","45000, UY"
"Tacuarembo, UY","Cuchilla Del Ombu, UY","45000, UY"
"Tacuarembo, UY","Cuchilla De La Casa De Piedra, UY","45000, UY"
"Tacuarembo, UY","Los Cuadrados, UY","45000, UY"
"Tacuarembo, UY","Turupi, UY","45000, UY"
"Tacuarembo, UY","Los Feos, UY","45000, UY"
"Tacuarembo, UY","Paso Bonilla, UY","45000, UY"
"Tacuarembo, UY","San Joaquin, UY","45000, UY"
"Tacuarembo, UY","Pueblo De Arriba, UY","45000, UY"
"Tacuarembo, UY","El Empalme, UY","45000, UY"
"Tacuarembo, UY","Rincon De Zamora, UY","45000, UY"
"Tacuarembo, UY","Coyo Martinez, UY","45000, UY"
"Tacuarembo, UY","Tacuarembo, UY","45000, UY"
"Tacuarembo, UY","Barrio La Matutina, UY","45000, UY"
"Tacuarembo, UY","Paso De Las Carretas, UY","45000, UY"
"Tacuarembo, UY","Sauce Solo Del Rio Negro, UY","45000, UY"
"Tacuarembo, UY","Cuchilla De Laureles, UY","45000, UY"
"Tacuarembo, UY","Clavijo, UY","45000, UY"
"Tacuarembo, UY","Bañado De Cañas, UY","45000, UY"
"Tacuarembo, UY","Costas De Tres Cruces, UY","45000, UY"
"Tacuarembo, UY","Rincon De La Laguna, UY","45000, UY"
"Tacuarembo, UY","Los Gomez, UY","45000, UY"
"Tacuarembo, UY","Cinco Sauces, UY","45000, UY"
"Tacuarembo, UY","Costas De Caraguata, UY","45000, UY"
"Tacuarembo, UY","Paso Livindo, UY","45000, UY"
"Tacuarembo, UY","Paso Hondo, UY","45000, UY"
"Tacuarembo, UY","Sauce Solo, UY","45000, UY"
"Tacuarembo, UY","Once Cerros, UY","45000, UY"
"Tacuarembo, UY","Arroyo Del Medio, UY","45000, UY"
"Tacuarembo, UY","Rincon De Pereira, UY","45000, UY"
"Tacuarembo, UY","Punta De Carretera, UY","45000, UY"
"Tacuarembo, UY","Paso De Perez, UY","45000, UY"
"Tacuarembo, UY","La Bolsa 01, UY","45000, UY"
"Tacuarembo, UY","Paso Del Medio, UY","45000, UY"
"Tacuarembo, UY","Los Rosas, UY","45000, UY"
"Tacuarembo, UY","Zambullon, UY","45000, UY"
"Tacuarembo, UY","Tierras Coloradas, UY","45000, UY"
"Tacuarembo, UY","Puntas De Cinco Sauces, UY","45000, UY"
"Tacuarembo, UY","Barrio Lopez, UY","45000, UY"
"Tacuarembo, UY","Paso De Las Toscas, UY","45000, UY"
"Tacuarembo, UY","Frigorifico Modelo, UY","45000, UY"
"Tacuarembo, UY","Las Pajas, UY","45000, UY"
"Tacuarembo, UY","Paso De Las Flores, UY","45000, UY"
"Tacuarembo, UY","Curtina, UY","45000, UY"
"Tacuarembo, UY","Lambare, UY","45000, UY"
"Tacuarembo, UY","Sauce De Tranqueras, UY","45000, UY"
"Tacuarembo, UY","Paso Del Cerro, UY","45000, UY"
"Tacuarembo, UY","Laura, UY","45000, UY"
"Tacuarembo, UY","Montevideo Chico, UY","45000, UY"
"Tacuarembo, UY","Pampa, UY","45000, UY"
"Tacuarembo, UY","Cruz De Los Caminos, UY","45000, UY"
"Tacuarembo, UY","Martinote, UY","45000, UY"
"Tacuarembo, UY","Blanquillos, UY","45000, UY"
"Tacuarembo, UY","Sauce De Batovi, UY","45000, UY"
"Tacuarembo, UY","Cañas, UY","45000, UY"
"Tacuarembo, UY","Rincon De La Aldea, UY","45000, UY"
"Tacuarembo, UY","La Aldea, UY","45000, UY"
"Tacuarembo, UY","Los Rodriguez, UY","45000, UY"
"Tacuarembo, UY","La Hilera, UY","45000, UY"
"Tacuarembo, UY","Los Garcia, UY","45000, UY"
"Tacuarembo, UY","Cerro De Pastoreo, UY","45000, UY"
"Tacuarembo, UY","Minuano, UY","45000, UY"
"Tacuarembo, UY","Valle Eden, UY","45000, UY"
"Tacuarembo, UY","Barrio Torres, UY","45000, UY"
"Tacuarembo, UY","Laureles, UY","45000, UY"
"Tacuarembo, UY","Balneario Ipora, UY","45000, UY"
"Tacuarembo, UY","Barrio Santangelo, UY","45000, UY"
"Tacuarembo, UY","Rivera Chico, UY","45000, UY"
"Tacuarembo, UY","Pueblo Clavijo, UY","45000, UY"
"Tacuarembo, UY","Zapucay, UY","45000, UY"
"Tacuarembo, UY","Cerros De Clara, UY","45000, UY"
"Tacuarembo, UY","Bañado De Rocha, UY","45000, UY"
"Tacuarembo, UY","Las Toscas De Caraguata, UY","45000, UY"
"Tacuarembo, UY","Los Coitinhos, UY","45000, UY"
"Tacuarembo, UY","Ataque, UY","45000, UY"
"Tacuarembo, UY","La Palma, UY","45000, UY"
"Tacuarembo, UY","Cerro Batovi, UY","45000, UY"
"Tacuarembo, UY","Larrayos, UY","45000, UY"
"Tacuarembo, UY","Paso De Los Novillos, UY","45000, UY"
"Tacuarembo, UY","Cerro De Pereira, UY","45000, UY"
"Tacuarembo, UY","Paso Victor, UY","45000, UY"
"Tacuarembo, UY","Clara, UY","45000, UY"
"Tacuarembo, UY","Los Semper, UY","45000, UY"
"Tacuarembo, UY","Charata, UY","45000, UY"
"Tacuarembo, UY","Cardoso, UY","45100, UY"
"Tacuarembo, UY","Chamberlain, UY","45100, UY"
"Tacuarembo, UY","Rincon Del Bonete, UY","45100, UY"
"Tacuarembo, UY","Cardozo Chico, UY","45100, UY"
"Tacuarembo, UY","Paso De Los Toros, UY","45100, UY"
"Tacuarembo, UY","Churchill, UY","45100, UY"
"Tacuarembo, UY","Cuchilla De Peralta, UY","45100, UY"
"Tacuarembo, UY","Estacion Menendez, UY","45100, UY"
"Tacuarembo, UY","Cerro Chato, UY","45200, UY"
"Tacuarembo, UY","San Benito, UY","45200, UY"
"Tacuarembo, UY","Los Cerros, UY","45200, UY"
"Tacuarembo, UY","Carpinteria, UY","45200, UY"
"Tacuarembo, UY","Los Laureles, UY","45200, UY"
"Tacuarembo, UY","San Gregorio De Polanco, UY","45200, UY"
"Tacuarembo, UY","Puntas De Laureles, UY","45200, UY"
"Tacuarembo, UY","Cañada Del Estado, UY","45200, UY"
"Treinta y Tres, UY","Sauce De Corrales, UY","30300, UY"
"Treinta y Tres, UY","Panteon, UY","30300, UY"
"Treinta y Tres, UY","El Bellaco, UY","30300, UY"
"Treinta y Tres, UY","Paso Del Sauce, UY","30300, UY"
"Treinta y Tres, UY","Corrales De Cebollati, UY","30300, UY"
"Treinta y Tres, UY","Maria Albina, UY","30300, UY"
"Treinta y Tres, UY","Costas Del Sarandi, UY","31100, UY"
"Treinta y Tres, UY","Arrocera El Tigre, UY","31100, UY"
"Treinta y Tres, UY","Arrocera Las Palmas, UY","31100, UY"
"Treinta y Tres, UY","Arrocera Mini, UY","31100, UY"
"Treinta y Tres, UY","Bañado De Oro, UY","31100, UY"
"Treinta y Tres, UY","Cuchilla De Olmos, UY","31100, UY"
"Treinta y Tres, UY","Arrocera Zapata, UY","31100, UY"
"Treinta y Tres, UY","Arrocera Los Ceibos, UY","31100, UY"
"Treinta y Tres, UY","Arrozal Treinta Y Tres, UY","31100, UY"
"Treinta y Tres, UY","Paso De Piriz, UY","31100, UY"
"Treinta y Tres, UY","Siete Casas, UY","31100, UY"
"Treinta y Tres, UY","Vergara, UY","31100, UY"
"Treinta y Tres, UY","Mendizabal, UY","33000, UY"
"Treinta y Tres, UY","Puntas De Leoncho, UY","33000, UY"
"Treinta y Tres, UY","Cipa Secador, UY","33000, UY"
"Treinta y Tres, UY","Olimar Grande, UY","33000, UY"
"Treinta y Tres, UY","Yerbal Chico, UY","33000, UY"
"Treinta y Tres, UY","Arrocera Santa Fe, UY","33000, UY"
"Treinta y Tres, UY","Gral. Enrique Martinez, UY","33000, UY"
"Treinta y Tres, UY","Ejido De Treinta Y Tres, UY","33000, UY"
"Treinta y Tres, UY","Cipa Olimar, UY","33000, UY"
"Treinta y Tres, UY","Sierra Del Yerbal, UY","33000, UY"
"Treinta y Tres, UY","Villa Sara, UY","33000, UY"
"Treinta y Tres, UY","Puntas De Los Ceibos, UY","33000, UY"
"Treinta y Tres, UY","Higuerones, UY","33000, UY"
"Treinta y Tres, UY","Costas Del Arroyo Malo, UY","33000, UY"
"Treinta y Tres, UY","Puntas Del Oro, UY","33000, UY"
"Treinta y Tres, UY","Rincon De Gadea, UY","33000, UY"
"Treinta y Tres, UY","Maria Isabel, UY","33000, UY"
"Treinta y Tres, UY","Cañada De Las Piedras, UY","33000, UY"
"Treinta y Tres, UY","Cuchilla De Dionisio, UY","33000, UY"
"Treinta y Tres, UY","Paso Ancho, UY","33000, UY"
"Treinta y Tres, UY","Yerbalito, UY","33000, UY"
"Treinta y Tres, UY","Paso De La Laguna, UY","33000, UY"
"Treinta y Tres, UY","Arrayanes De Cebollati, UY","33000, UY"
"Treinta y Tres, UY","Poblado Alonzo, UY","33000, UY"
"Treinta y Tres, UY","Rincon De Iguini, UY","33000, UY"
"Treinta y Tres, UY","Lechiguana De Corrales, UY","33000, UY"
"Treinta y Tres, UY","Arrocera Bonomo, UY","33000, UY"
"Treinta y Tres, UY","Arrocera Procipa, UY","33000, UY"
"Treinta y Tres, UY","Barrio Abreu, UY","33000, UY"
"Treinta y Tres, UY","Avestruz Chico, UY","33000, UY"
"Treinta y Tres, UY","Puntas De Quebracho, UY","33000, UY"
"Treinta y Tres, UY","Molles De Olimar, UY","33000, UY"
"Treinta y Tres, UY","Las Chacras, UY","33000, UY"
"Treinta y Tres, UY","Arrocera Los Teros, UY","33000, UY"
"Treinta y Tres, UY","Cipa Cebollati, UY","33000, UY"
"Treinta y Tres, UY","Cañada Del Sauce, UY","33000, UY"
"Treinta y Tres, UY","Acosta, UY","33000, UY"
"Treinta y Tres, UY","El Catete, UY","33000, UY"
"Treinta y Tres, UY","Arrayanes De Corral De Cebollati, UY","33000, UY"
"Treinta y Tres, UY","Treinta Y Tres, UY","33000, UY"
"Treinta y Tres, UY","Julio Maria Sanz, UY","33000, UY"
"Treinta y Tres, UY","La Calera, UY","33000, UY"
"Treinta y Tres, UY","Rincon De Los Francos, UY","33000, UY"
"Treinta y Tres, UY","Cerro Pelado, UY","33000, UY"
"Treinta y Tres, UY","Los Ceibos, UY","33000, UY"
"Treinta y Tres, UY","La Calavera, UY","33000, UY"
"Treinta y Tres, UY","La Lata, UY","33000, UY"
"Treinta y Tres, UY","Puntas Del Parao, UY","33000, UY"
"Treinta y Tres, UY","Verde Alto, UY","33000, UY"
"Treinta y Tres, UY","Rincon, UY","33000, UY"
"Treinta y Tres, UY","Cañada Chica, UY","33000, UY"
"Treinta y Tres, UY","Villa Passano, UY","33000, UY"
"Treinta y Tres, UY","Cerros De Amaro, UY","33000, UY"
"Treinta y Tres, UY","Mate Dulce, UY","33000, UY"
"Treinta y Tres, UY","Palo A Pique, UY","33000, UY"
"Treinta y Tres, UY","Rincon De Quintana, UY","33000, UY"
"Treinta y Tres, UY","Rincon De Urtubey, UY","35100, UY"
"Treinta y Tres, UY","Valentines, UY","35100, UY"
"Treinta y Tres, UY","Noques De Olimar Chico, UY","35100, UY"
"Treinta y Tres, UY","Paso De La Atahona, UY","35100, UY"
"Treinta y Tres, UY","Paso De Averias, UY","35100, UY"
"Treinta y Tres, UY","Las Pavas, UY","35100, UY"
"Treinta y Tres, UY","Cerro Chato, UY","35200, UY"
"Treinta y Tres, UY","El Carmen, UY","35200, UY"
"Treinta y Tres, UY","Santa Clara De Olimar, UY","35300, UY"
"Treinta y Tres, UY","Arrocera La Querencia, UY","37100, UY"
"Treinta y Tres, UY","Costas De Tacuari, UY","37100, UY"
"Treinta y Tres, UY","Arrocera Rincon, UY","37100, UY"
"Treinta y Tres, UY","Arrocera La Catumbera, UY","37100, UY"
"Treinta y Tres, UY","Arrocera San Fernando, UY","37100, UY"
